{"type":"FeatureCollection","name":"Região do Juruá","features":[{"type":"Feature","properties":{"CD_MUN":"1301654","NM_MUN":"Guajará","SIGLA_UF":"AM","CodigoIBGE":"1301654","SubRegiaoNumero":4,"CalhaSubRegiao":"Região do Juruá"},"geometry":{"type":"Polygon","coordinates":[[[-72.1695321,-7.6006009],[-72.5847656,-7.5520042],[-73.7382002,-7.1346838],[-73.7087976,-7.0411515],[-73.6662243,-7.0007151],[-73.6836651,-6.980651300000019],[-73.6857525,-6.969792300000012],[-73.6804641,-6.953947499999987],[-73.6560245,-6.9504049],[-73.6279182,-6.9365761],[-73.6118086,-6.9387143],[-73.5681335,-6.930201300000022],[-73.5356551,-6.942153299999983],[-73.5223185,-6.930389799999984],[-73.5063882,-6.9266374],[-73.4986252,-6.932855800000013],[-73.4889715,-6.934036],[-73.4535533,-6.9290397],[-73.437785,-6.952033299999989],[-73.4013861,-6.943792],[-73.3593778,-6.9494454],[-73.3174106,-6.940696500000012],[-73.2983091,-6.942980899999972],[-73.2601621,-6.920586699999986],[-73.221021,-6.924211199999989],[-73.193191,-6.918298400000026],[-73.1784025,-6.9297958],[-73.1470791,-6.940586400000014],[-73.1221959,-6.977610499999988],[-73.1069153,-6.9814383],[-73.0821113,-6.996382400000019],[-73.0101086,-7.028294599999986],[-72.9571308,-7.020194400000021],[-72.9017669,-6.996202199999977],[-72.8789136,-6.9946115],[-72.8510832,-7.000031500000016],[-72.8201876,-6.979712499999986],[-72.784912,-6.9722852],[-72.7621565,-6.937978299999974],[-72.7245172,-6.908422],[-72.7020196,-6.903380600000022],[-72.6852425,-6.904351],[-72.6726126,-6.9159954],[-72.663576,-6.9504622],[-72.6780063,-6.9592745],[-72.6970421,-6.960911],[-72.7000633,-6.969100599999989],[-72.6985491,-7.0098721],[-72.6838869,-7.018520500000033],[-72.6677353,-7.050037300000026],[-72.6448306,-7.074749900000016],[-72.6219346,-7.108736400000011],[-72.61495909999998,-7.111722],[-72.5995498,-7.1076818],[-72.5842102,-7.114802699999973],[-72.5694922,-7.113765100000015],[-72.55535,-7.1240238],[-72.5332115,-7.132174],[-72.4870151,-7.127188200000016],[-72.4752741,-7.1173404],[-72.4328219,-7.1124777],[-72.421074,-7.123114700000011],[-72.40521850000002,-7.1546652],[-72.3710097,-7.182991899999985],[-72.3872843,-7.204522600000023],[-72.3875738,-7.2139164],[-72.37902529999998,-7.215922],[-72.3584889,-7.2030247],[-72.3329901,-7.207583600000023],[-72.315574,-7.2054023],[-72.2828493,-7.1770291],[-72.2673553,-7.1862948],[-72.2402722,-7.1913285],[-72.2155142,-7.1809093],[-72.195611,-7.1455603],[-72.183488,-7.1332262],[-72.0900432,-7.126460699999987],[-72.051883,-7.1029407],[-72.0507279,-7.1985267],[-72.0560382,-7.2029977],[-72.0474355,-7.2115583],[-72.05584909999999,-7.215670200000027],[-72.0593754,-7.2230486],[-72.04974089999999,-7.2262585],[-72.0423671,-7.2395446],[-72.0552334,-7.236528700000022],[-72.0622468,-7.2395327],[-72.0633152,-7.2339447],[-72.0699501,-7.236567900000019],[-72.0659179,-7.2432609],[-72.07897469999999,-7.26903210000001],[-72.084317,-7.266322500000014],[-72.0889626,-7.2747988],[-72.09856090000001,-7.275499800000024],[-72.0996232,-7.271891800000012],[-72.104855,-7.278991800000028],[-72.1147907,-7.2772094],[-72.1145035,-7.2731224],[-72.1224787,-7.275387900000023],[-72.1218376,-7.278895200000012],[-72.1255178,-7.273745099999983],[-72.131397,-7.276063899999983],[-72.1285023,-7.278968799999985],[-72.1309838,-7.2973707],[-72.1500284,-7.298472800000029],[-72.1529579,-7.306521300000018],[-72.1628246,-7.307233299999983],[-72.1642631,-7.3147988],[-72.1716812,-7.319552099999975],[-72.1553205,-7.341739900000012],[-72.1485366,-7.368781800000019],[-72.1457053,-7.4014826],[-72.15744039999998,-7.4145297],[-72.14596419999998,-7.4251602],[-72.14707720000001,-7.4686122],[-72.1425997,-7.4854374],[-72.1507356,-7.500559400000019],[-72.1601816,-7.499205800000013],[-72.1747957,-7.51245890000001],[-72.1718802,-7.553370200000018],[-72.18307510000001,-7.574848],[-72.182322,-7.584481300000021],[-72.1695321,-7.6006009]]]}},{"type":"Feature","properties":{"CD_MUN":"1301803","NM_MUN":"Ipixuna","SIGLA_UF":"AM","CodigoIBGE":"1301803","SubRegiaoNumero":4,"CalhaSubRegiao":"Região do Juruá"},"geometry":{"type":"Polygon","coordinates":[[[-71.3816791,-7.692312],[-72.1695321,-7.6006009],[-72.182322,-7.584481300000021],[-72.18307510000001,-7.574848],[-72.1718802,-7.553370200000018],[-72.1747957,-7.51245890000001],[-72.1601816,-7.499205800000013],[-72.1507356,-7.500559400000019],[-72.1425997,-7.4854374],[-72.14707720000001,-7.4686122],[-72.14596419999998,-7.4251602],[-72.15744039999998,-7.4145297],[-72.1457053,-7.4014826],[-72.1485366,-7.368781800000019],[-72.1553205,-7.341739900000012],[-72.1716812,-7.319552099999975],[-72.1642631,-7.3147988],[-72.1628246,-7.307233299999983],[-72.1529579,-7.306521300000018],[-72.1500284,-7.298472800000029],[-72.1309838,-7.2973707],[-72.1285023,-7.278968799999985],[-72.131397,-7.276063899999983],[-72.1255178,-7.273745099999983],[-72.1218376,-7.278895200000012],[-72.1224787,-7.275387900000023],[-72.1145035,-7.2731224],[-72.1147907,-7.2772094],[-72.104855,-7.278991800000028],[-72.0996232,-7.271891800000012],[-72.09856090000001,-7.275499800000024],[-72.0889626,-7.2747988],[-72.084317,-7.266322500000014],[-72.07897469999999,-7.26903210000001],[-72.0659179,-7.2432609],[-72.0699501,-7.236567900000019],[-72.0633152,-7.2339447],[-72.0622468,-7.2395327],[-72.0552334,-7.236528700000022],[-72.0423671,-7.2395446],[-72.04974089999999,-7.2262585],[-72.0593754,-7.2230486],[-72.05584909999999,-7.215670200000027],[-72.0474355,-7.2115583],[-72.0560382,-7.2029977],[-72.0507279,-7.1985267],[-72.0518837,-7.102330799999986],[-72.04177559999998,-7.098678699999978],[-72.0212549,-7.1057349],[-72.0069752,-7.094187200000023],[-71.9941969,-7.097539600000019],[-71.9873846,-7.09481],[-71.9770782,-7.058054699999989],[-71.9779911,-7.046519700000015],[-71.9882226,-7.028022200000017],[-71.9830755,-7.0072568],[-71.9716231,-7.0037212],[-71.9556097,-7.010763100000019],[-71.9387736,-7.0110358],[-71.9309316,-7.006489199999985],[-71.9328826,-6.994534100000029],[-71.91943110000001,-6.986834200000017],[-71.9097845,-6.9868644],[-71.8872199,-6.997042099999986],[-71.8563353,-6.9989543],[-71.8020695,-6.984609600000021],[-71.7932058,-6.9770705],[-71.7979203,-6.953861499999989],[-71.7946812,-6.934421],[-71.8006058,-6.9231509],[-71.7975069,-6.9152625],[-71.7856983,-6.908464100000022],[-71.7696424,-6.913692],[-71.7594938,-6.902189099999989],[-71.7539816,-6.901751599999988],[-71.7448514,-6.918341],[-71.728306,-6.9136968],[-71.72080819999998,-6.91767140000001],[-71.7010689,-6.883759599999977],[-71.6831894,-6.8856468],[-71.653557,-6.9105554],[-71.6341864,-6.913373699999989],[-71.6340556,-6.930270799999983],[-71.6481117,-6.9512144],[-71.65006070000001,-6.9619612],[-71.646069,-6.970838900000015],[-71.6384005,-6.9744311],[-71.6305694,-6.9730356],[-71.6178468,-6.9605754],[-71.5995095,-6.957233700000023],[-71.59961070000001,-6.9346454],[-71.5944001,-6.926772800000015],[-71.5855282,-6.927723499999987],[-71.5700493,-6.9430129],[-71.5554615,-6.950776400000023],[-71.5487953,-6.949147700000021],[-71.5363049,-6.864384899999978],[-71.52965610000001,-6.863138],[-71.5189422,-6.868485],[-71.504174,-6.85081850000002],[-71.4952962,-6.847730700000016],[-71.4882837,-6.8490389],[-71.4778051,-6.8633905],[-71.4616993,-6.8546317],[-71.45,-6.836693300000017],[-71.4434433,-6.8053648],[-71.4109983,-6.7873205],[-71.4039414,-6.7692094],[-71.3867409,-6.761018],[-71.3786357,-6.734993399999975],[-71.3433284,-6.681320700000025],[-71.3000903,-6.69080710000003],[-71.2932319,-6.7065338],[-71.2805968,-6.720725399999985],[-71.2642378,-6.7280377],[-71.2472561,-6.731947200000021],[-71.2353409,-6.720659],[-71.22753830000002,-6.720331199999979],[-71.1895121,-6.726939799999985],[-71.1804814,-6.708983799999984],[-71.1714831,-6.705379099999988],[-71.1434888,-6.706274799999978],[-71.1371371,-6.696600899999979],[-71.1290923,-6.6939465],[-71.1066227,-6.7096888],[-71.1032093,-6.7025671],[-71.1042898,-6.675731],[-71.0907638,-6.6605219],[-71.02426350000002,-6.6533081],[-71.0071492,-6.6563013],[-70.9934701,-6.646794899999983],[-70.9754849,-6.65098],[-70.949651,-6.677372800000013],[-70.9315349,-6.671897],[-70.9299872,-6.697012899999987],[-70.9152868,-6.720873299999978],[-70.9064578,-6.721522099999986],[-70.9007262,-6.705715100000011],[-70.8642023,-6.7263799],[-70.854244,-6.7156734],[-70.834758,-6.719379300000015],[-70.81686989999999,-6.711759899999977],[-70.7904324,-6.7072229],[-70.7823112,-6.7016222],[-70.77690339999998,-6.664183799999988],[-70.7722351,-6.656025599999979],[-70.7569542,-6.6484445],[-70.730842,-6.654107099999981],[-70.7177919,-6.642782399999986],[-70.7019817,-6.6365333],[-70.6809798,-6.6092463],[-70.65359689999998,-6.59509939999997],[-70.6414854,-6.814269799999977],[-70.6443629,-6.8214439],[-70.6548455,-6.825922099999986],[-70.6607501,-6.840742],[-70.6671314,-6.842375399999971],[-70.6616871,-6.844250199999979],[-70.66852690000002,-6.849280500000013],[-70.664967,-6.8498144],[-70.6610812,-6.861962400000012],[-70.6657334,-6.859680200000019],[-70.6723147,-6.871110299999982],[-70.669537,-6.873628600000012],[-70.6825755,-6.8839041],[-70.6804111,-6.891449400000021],[-70.6872653,-6.8856274],[-70.6862289,-6.89414350000001],[-70.6911604,-6.8919257],[-70.6914863,-6.8984311],[-70.69531619999998,-6.895478699999984],[-70.6967041,-6.900857499999981],[-70.702722,-6.902768399999988],[-70.6976104,-6.908972399999977],[-70.7046257,-6.907169400000027],[-70.7070791,-6.911602300000019],[-70.7020743,-6.912610699999982],[-70.700969,-6.920166499999983],[-70.7078412,-6.927150500000014],[-70.7061087,-6.932713100000017],[-70.7091599,-6.931742100000031],[-70.710395,-6.938436],[-70.7021222,-6.9351645],[-70.6987587,-6.9411493],[-70.7000728,-6.949999],[-70.7049186,-6.949686599999975],[-70.7012055,-6.96213],[-70.7068907,-6.967403099999982],[-70.7024195,-6.970052399999981],[-70.7105189,-6.975586],[-70.710872,-6.9850467],[-70.705276,-6.9826283],[-70.7067742,-6.993815799999983],[-70.7133778,-7.004379599999987],[-70.72064870000001,-7.007052400000024],[-70.7241261,-7.0186523],[-70.7165947,-7.021093800000027],[-70.7234682,-7.02911310000002],[-70.7169201,-7.029125399999988],[-70.71850320000001,-7.037472199999971],[-70.7109013,-7.0430254],[-70.72294490000002,-7.039565],[-70.720942,-7.0463096],[-70.7278681,-7.0562327],[-70.73086840000002,-7.05377090000002],[-70.7246392,-7.0488218],[-70.7300452,-7.051206499999976],[-70.7368644,-7.0465905],[-70.7320544,-7.053259],[-70.7377777,-7.0524597],[-70.7389095,-7.0612699],[-70.734636,-7.058063400000016],[-70.7295789,-7.0655294],[-70.7387815,-7.0661587],[-70.7310939,-7.070998300000026],[-70.7326625,-7.07356239999998],[-70.7414308,-7.07213809999998],[-70.7400637,-7.0803353],[-70.735356,-7.0779476],[-70.7339953,-7.0825821],[-70.7603753,-7.091512900000017],[-70.7570025,-7.096025100000018],[-70.7635613,-7.10049759999997],[-70.7671724,-7.1181878],[-70.77172650000001,-7.111174900000019],[-70.777281,-7.1151883],[-70.7802106,-7.12404320000002],[-70.7759111,-7.1326793],[-70.7800994,-7.1342978],[-70.7795638,-7.128287800000029],[-70.7828231,-7.128005],[-70.785227,-7.133154199999972],[-70.7815451,-7.135276200000019],[-70.7872142,-7.1454897],[-70.793051,-7.14492750000002],[-70.7935713,-7.1497587],[-70.7868106,-7.151438100000014],[-70.7911973,-7.157606700000015],[-70.802251,-7.165473900000019],[-70.8196898,-7.169795799999973],[-70.8202417,-7.1750956],[-70.8149224,-7.1772973],[-70.8205192,-7.1826671],[-70.8232198,-7.179701400000011],[-70.8362248,-7.183583600000012],[-70.8322052,-7.186476499999983],[-70.8351654,-7.19222],[-70.8555067,-7.192325899999986],[-70.8550604,-7.198397900000026],[-70.8593612,-7.194932799999982],[-70.8650128,-7.196651400000016],[-70.8599709,-7.2071445],[-70.8714063,-7.21357760000003],[-70.8735419,-7.220616800000018],[-70.8736921,-7.209261],[-70.8786291,-7.2132651],[-70.882379,-7.2112398],[-70.8823035,-7.2181622],[-70.88843710000002,-7.219370100000019],[-70.8887867,-7.22599610000001],[-70.8953062,-7.222269],[-70.8958843,-7.233405600000022],[-70.9040333,-7.234025],[-70.89765020000002,-7.245173900000012],[-70.90471490000002,-7.238765],[-70.9107999,-7.2426377],[-70.9073463,-7.246803900000015],[-70.913639,-7.2575211],[-70.9109458,-7.268254699999988],[-70.91529,-7.268237599999984],[-70.9155527,-7.261865600000022],[-70.9249577,-7.260562599999988],[-70.9279728,-7.250389],[-70.9352185,-7.249381799999981],[-70.94069419999998,-7.254754399999983],[-70.9568297,-7.251283700000025],[-70.9596237,-7.2576045],[-70.95304050000001,-7.2562426],[-70.9580653,-7.2659095],[-70.9637247,-7.261189299999979],[-70.970193,-7.269394299999984],[-70.97637810000002,-7.266185400000013],[-70.9792,-7.2714179],[-70.9924459,-7.270927],[-70.9953613,-7.2763536],[-70.9877305,-7.278223500000022],[-71.001022,-7.281464],[-70.9969407,-7.2847478],[-71.0040041,-7.292759699999983],[-71.00013650000001,-7.299320800000014],[-71.0051519,-7.296785899999986],[-71.0095392,-7.303162900000022],[-71.0074686,-7.306279400000019],[-71.0038116,-7.301379499999984],[-71.0031869,-7.3086846],[-71.0111908,-7.311532799999985],[-70.9987815,-7.317601699999987],[-71.0073728,-7.325229900000013],[-71.018405,-7.3251815],[-71.0173714,-7.3387581],[-71.0250726,-7.336735],[-71.0228686,-7.3410885],[-71.0282147,-7.341927099999979],[-71.0283466,-7.347251100000013],[-71.0382205,-7.3552002],[-71.04422929999998,-7.350576899999981],[-71.0549136,-7.3635917],[-71.0499615,-7.367682600000018],[-71.054858,-7.374513499999976],[-71.0498112,-7.380620499999989],[-71.0607313,-7.38329069999997],[-71.0559649,-7.385373099999978],[-71.0551819,-7.3922727],[-71.0601405,-7.392198800000014],[-71.0653284,-7.39879110000001],[-71.0595385,-7.4019687],[-71.0602673,-7.4054618],[-71.0724721,-7.4105183],[-71.0705728,-7.4161369],[-71.0760199,-7.416762499999987],[-71.07759330000002,-7.4221092],[-71.0892486,-7.4232772],[-71.0922122,-7.438497600000011],[-71.1091497,-7.4499564],[-71.1124861,-7.461359199999977],[-71.1341565,-7.467540799999973],[-71.1298635,-7.474760100000025],[-71.150169,-7.4774604],[-71.1620962,-7.486798800000012],[-71.155241,-7.49409020000002],[-71.1636197,-7.494150900000026],[-71.1781262,-7.515960099999977],[-71.1839917,-7.518150299999976],[-71.18950539999999,-7.5279411],[-71.182874,-7.5263095],[-71.1813199,-7.535823800000019],[-71.1897581,-7.5327329],[-71.1902709,-7.545371199999988],[-71.2003209,-7.5428601],[-71.2124991,-7.555773],[-71.2221065,-7.553226099999981],[-71.2283674,-7.5661902],[-71.2363475,-7.567048],[-71.2353843,-7.5764511],[-71.2404353,-7.57558780000002],[-71.2410585,-7.582305],[-71.2451758,-7.5798946],[-71.2480697,-7.592879500000012],[-71.263329,-7.5881664],[-71.2705604,-7.591590600000018],[-71.2717971,-7.611409699999988],[-71.2796404,-7.605621600000023],[-71.2817291,-7.616540899999984],[-71.2858926,-7.610163199999975],[-71.2878677,-7.6178827],[-71.3009519,-7.626683299999979],[-71.301782,-7.633538099999988],[-71.3137644,-7.635493],[-71.3106856,-7.643155400000015],[-71.3165218,-7.642290700000018],[-71.3221681,-7.6484407],[-71.3205777,-7.65230370000001],[-71.3260988,-7.65854],[-71.32359859999998,-7.662885],[-71.3326394,-7.656939600000018],[-71.3371383,-7.6653844],[-71.337753,-7.656080399999988],[-71.3403718,-7.66924940000001],[-71.3444797,-7.667894700000017],[-71.345259,-7.660833500000017],[-71.3519378,-7.6680459],[-71.3559889,-7.665447800000022],[-71.3575025,-7.669370700000021],[-71.3639359,-7.6684223],[-71.366294,-7.6736416],[-71.37439609999998,-7.67641],[-71.3709391,-7.6785508],[-71.371639,-7.6857817],[-71.3785656,-7.6819981],[-71.3755804,-7.686348],[-71.3816791,-7.692312]]]}},{"type":"Feature","properties":{"CD_MUN":"1301407","NM_MUN":"Eirunepé","SIGLA_UF":"AM","CodigoIBGE":"1301407","SubRegiaoNumero":4,"CalhaSubRegiao":"Região do Juruá"},"geometry":{"type":"Polygon","coordinates":[[[-69.8636168,-6.5480768],[-69.8421662,-6.566425],[-69.8332809,-6.570007899999989],[-69.8169777,-6.569133299999977],[-69.8026473,-6.5581756],[-69.7945903,-6.527946199999972],[-69.7965338,-6.4740055],[-69.7828086,-6.449823899999986],[-69.7684194,-6.439350400000015],[-69.7016472,-6.4226863],[-69.6868683,-6.433843100000021],[-69.67155210000001,-6.4273532],[-69.651138,-6.428437299999972],[-69.6077506,-6.43839820000002],[-69.5885905,-6.460801399999978],[-69.579809,-6.465119300000016],[-69.5645276,-6.461774500000025],[-69.5485992,-6.467979],[-69.5326625,-6.457382],[-69.5151459,-6.4120339],[-69.4870052,-6.388994200000012],[-69.4134487,-6.35728810000003],[-69.3949435,-6.355950499999984],[-69.3456163,-6.3636211],[-69.3335298,-6.361347099999986],[-69.3351476,-6.593807499999984],[-69.3213116,-6.6156797],[-69.3327748,-6.627727599999974],[-69.33024,-6.6384156],[-69.3339868,-6.650563499999982],[-69.3291854,-6.6544089],[-69.335022,-6.6862448],[-69.3381495,-6.686466100000021],[-69.3451712,-6.715819899999976],[-69.3561601,-6.723172199999978],[-69.3529382,-6.7438655],[-69.3595308,-6.752178],[-69.3582101,-6.763648800000027],[-69.3667224,-6.7697349],[-69.3652366,-6.7780936],[-69.370696,-6.7788209],[-69.3687846,-6.782824],[-69.3768905,-6.80568740000001],[-69.373328,-6.807498400000023],[-69.3767132,-6.818560600000017],[-69.3702789,-6.830137500000014],[-69.3668315,-6.856986300000023],[-69.3718685,-6.8738625],[-69.3667609,-6.8908179],[-69.3781804,-6.9141325],[-69.3901695,-6.924581299999989],[-69.4033776,-6.929107799999985],[-69.4202117,-6.949137100000024],[-69.4246116,-6.9627571],[-69.4335185,-6.9711916],[-69.4337555,-6.980077499999983],[-69.4408375,-6.9841643],[-69.4386474,-6.987111100000024],[-69.4448702,-7.0035629],[-69.4591968,-7.0176682],[-69.4685136,-7.023670600000021],[-69.478169,-7.021904299999977],[-69.4830037,-7.02624],[-69.4948901,-7.026511],[-69.4978168,-7.030712],[-69.5043831,-7.029511],[-69.5347148,-7.049075899999968],[-69.5381464,-7.0597253],[-69.5290887,-7.0710813],[-69.530508,-7.08734130000001],[-69.5171481,-7.106368400000015],[-69.5160893,-7.114505900000011],[-69.5237819,-7.1367108],[-69.5186965,-7.1599161],[-69.52182490000001,-7.178215200000015],[-69.8694193,-7.1735993],[-69.8600815,-7.1880413],[-69.8772381,-7.20464960000001],[-69.8814643,-7.213841],[-69.8763329,-7.2221071],[-69.8843131,-7.225789900000027],[-69.8917194,-7.2369994],[-69.8663624,-7.2446255],[-69.8732069,-7.2551124],[-69.8732535,-7.264758300000015],[-69.8780671,-7.265788599999987],[-69.8894481,-7.2581942],[-69.89727089999998,-7.259020399999978],[-69.9003293,-7.2653929],[-69.8864147,-7.2704008],[-69.8870267,-7.278076400000021],[-69.8973596,-7.289934400000017],[-69.9067098,-7.279353500000011],[-69.91292619999999,-7.2784928],[-69.9137805,-7.291391500000016],[-69.9220815,-7.293985100000017],[-69.9485624,-7.2907477],[-69.9607615,-7.276828],[-69.96900710000001,-7.275074700000016],[-69.9722056,-7.2680746],[-69.9688671,-7.251964100000018],[-69.9725313,-7.244268199999983],[-69.9927328,-7.2293003],[-69.9967277,-7.202452],[-70.007737,-7.180717700000012],[-70.0197764,-7.1735119],[-70.0332431,-7.17270190000001],[-70.0383687,-7.179559100000018],[-70.0386964,-7.205266799999974],[-70.0517314,-7.2506289],[-70.06145989999999,-7.2686856],[-70.0706806,-7.27372],[-70.0847858,-7.273919500000016],[-70.1055188,-7.2940369],[-70.1148565,-7.278710100000012],[-70.1268766,-7.2808326],[-70.1575648,-7.331345600000017],[-70.1734082,-7.347954599999982],[-70.1937031,-7.362395100000017],[-70.2233592,-7.3708643],[-70.2429198,-7.3869445],[-70.2706796,-7.4010125],[-70.2916771,-7.4275671],[-70.2994569,-7.4307636],[-70.3220333,-7.4551933],[-70.329535,-7.4565276],[-70.3485596,-7.48162540000001],[-70.3555672,-7.48540340000002],[-70.3934819,-7.4863533],[-70.4065924,-7.494865800000014],[-70.422597,-7.498674300000011],[-70.4244816,-7.5078415],[-70.4334564,-7.504754],[-70.450731,-7.519836599999979],[-70.4558176,-7.514191],[-70.4827039,-7.519698500000025],[-70.5009534,-7.514729900000026],[-70.5192053,-7.538745200000011],[-70.5407296,-7.549825400000011],[-70.5643453,-7.5496794],[-70.579959,-7.555670599999988],[-70.5872046,-7.5520273],[-70.5945722,-7.553739500000021],[-70.6077589,-7.5464192],[-70.6151517,-7.549721599999984],[-70.6154504,-7.55730340000001],[-70.6232896,-7.5576943],[-70.6261236,-7.573479800000024],[-70.64137560000002,-7.591779300000013],[-70.6562089,-7.595639],[-70.6650346,-7.60935820000002],[-70.6802886,-7.6057198],[-70.6873465,-7.608968599999989],[-70.7323195,-7.587731199999989],[-70.7412316,-7.588627900000011],[-70.74623360000001,-7.595796599999979],[-70.75478739999998,-7.5956129],[-70.7579069,-7.602658700000018],[-70.7648987,-7.5995331],[-70.7785433,-7.6016748],[-70.79637429999998,-7.6089144],[-70.8105098,-7.6382035],[-70.8242064,-7.6461096],[-70.8329008,-7.6446648],[-70.8484857,-7.627419100000016],[-70.86612449999998,-7.628297399999978],[-70.8882896,-7.6507037],[-70.8931859,-7.666102],[-70.9011493,-7.668589799999989],[-70.9140719,-7.659511799999972],[-70.9382863,-7.6558672],[-70.9663992,-7.6713388],[-70.9848206,-7.677321300000017],[-71.008514,-7.678850400000016],[-71.0277097,-7.693036],[-71.0433189,-7.693855200000015],[-71.0596232,-7.711762],[-71.0884954,-7.726266100000012],[-71.3816791,-7.692312],[-71.3755804,-7.686348],[-71.3785656,-7.6819981],[-71.371639,-7.6857817],[-71.3709391,-7.6785508],[-71.37439609999998,-7.67641],[-71.366294,-7.6736416],[-71.3639359,-7.6684223],[-71.3575025,-7.669370700000021],[-71.3559889,-7.665447800000022],[-71.3519378,-7.6680459],[-71.345259,-7.660833500000017],[-71.3444797,-7.667894700000017],[-71.3403718,-7.66924940000001],[-71.337753,-7.656080399999988],[-71.3371383,-7.6653844],[-71.3326394,-7.656939600000018],[-71.32359859999998,-7.662885],[-71.3260988,-7.65854],[-71.3205777,-7.65230370000001],[-71.3221681,-7.6484407],[-71.3165218,-7.642290700000018],[-71.3106856,-7.643155400000015],[-71.3137644,-7.635493],[-71.301782,-7.633538099999988],[-71.3009519,-7.626683299999979],[-71.2878677,-7.6178827],[-71.2858926,-7.610163199999975],[-71.2817291,-7.616540899999984],[-71.2796404,-7.605621600000023],[-71.2720678,-7.611753800000023],[-71.271026,-7.5926394],[-71.2668153,-7.588420799999978],[-71.2475141,-7.592514900000023],[-71.2451758,-7.5798946],[-71.2410585,-7.582305],[-71.2404353,-7.57558780000002],[-71.2353843,-7.5764511],[-71.2363475,-7.567048],[-71.2283674,-7.5661902],[-71.2221065,-7.553226099999981],[-71.2124991,-7.555773],[-71.2003209,-7.5428601],[-71.1902709,-7.545371199999988],[-71.1897581,-7.5327329],[-71.1813199,-7.535823800000019],[-71.182874,-7.5263095],[-71.18950539999999,-7.5279411],[-71.1839917,-7.518150299999976],[-71.1781262,-7.515960099999977],[-71.1636197,-7.494150900000026],[-71.155241,-7.49409020000002],[-71.1620962,-7.486798800000012],[-71.150169,-7.4774604],[-71.1298635,-7.474760100000025],[-71.1341565,-7.467540799999973],[-71.1124861,-7.461359199999977],[-71.1091497,-7.4499564],[-71.0922122,-7.438497600000011],[-71.0892486,-7.4232772],[-71.07759330000002,-7.4221092],[-71.0760199,-7.416762499999987],[-71.0705728,-7.4161369],[-71.0724721,-7.4105183],[-71.0602673,-7.4054618],[-71.0595385,-7.4019687],[-71.0653284,-7.39879110000001],[-71.0601405,-7.392198800000014],[-71.0551819,-7.3922727],[-71.0559649,-7.385373099999978],[-71.0607313,-7.38329069999997],[-71.0498112,-7.380620499999989],[-71.054858,-7.374513499999976],[-71.0499615,-7.367682600000018],[-71.0549136,-7.3635917],[-71.04422929999998,-7.350576899999981],[-71.0382205,-7.3552002],[-71.0283466,-7.347251100000013],[-71.0282147,-7.341927099999979],[-71.0228686,-7.3410885],[-71.0250726,-7.336735],[-71.0173714,-7.3387581],[-71.018405,-7.3251815],[-71.0073728,-7.325229900000013],[-70.9987815,-7.317601699999987],[-71.0111908,-7.311532799999985],[-71.0031869,-7.3086846],[-71.0038116,-7.301379499999984],[-71.0074686,-7.306279400000019],[-71.0095392,-7.303162900000022],[-71.0051519,-7.296785899999986],[-71.00013650000001,-7.299320800000014],[-71.0040041,-7.292759699999983],[-70.9969407,-7.2847478],[-71.001022,-7.281464],[-70.9877305,-7.278223500000022],[-70.9953613,-7.2763536],[-70.9924459,-7.270927],[-70.9792,-7.2714179],[-70.97637810000002,-7.266185400000013],[-70.970193,-7.269394299999984],[-70.9637247,-7.261189299999979],[-70.9580653,-7.2659095],[-70.95304050000001,-7.2562426],[-70.9596237,-7.2576045],[-70.9568297,-7.251283700000025],[-70.94069419999998,-7.254754399999983],[-70.9352185,-7.249381799999981],[-70.9279728,-7.250389],[-70.9249577,-7.260562599999988],[-70.9155527,-7.261865600000022],[-70.91529,-7.268237599999984],[-70.9109458,-7.268254699999988],[-70.913639,-7.2575211],[-70.9073463,-7.246803900000015],[-70.9107999,-7.2426377],[-70.90471490000002,-7.238765],[-70.89765020000002,-7.245173900000012],[-70.9040333,-7.234025],[-70.8958843,-7.233405600000022],[-70.8953062,-7.222269],[-70.8887867,-7.22599610000001],[-70.88843710000002,-7.219370100000019],[-70.8823035,-7.2181622],[-70.882379,-7.2112398],[-70.8786291,-7.2132651],[-70.8736921,-7.209261],[-70.8735419,-7.220616800000018],[-70.8714063,-7.21357760000003],[-70.8599709,-7.2071445],[-70.8650128,-7.196651400000016],[-70.8593612,-7.194932799999982],[-70.8550604,-7.198397900000026],[-70.8555067,-7.192325899999986],[-70.8351654,-7.19222],[-70.8322052,-7.186476499999983],[-70.8362248,-7.183583600000012],[-70.8232198,-7.179701400000011],[-70.8205192,-7.1826671],[-70.8149224,-7.1772973],[-70.8202417,-7.1750956],[-70.8196898,-7.169795799999973],[-70.802251,-7.165473900000019],[-70.7911973,-7.157606700000015],[-70.7868106,-7.151438100000014],[-70.7935713,-7.1497587],[-70.793051,-7.14492750000002],[-70.7872142,-7.1454897],[-70.7815451,-7.135276200000019],[-70.785227,-7.133154199999972],[-70.7828231,-7.128005],[-70.7795638,-7.128287800000029],[-70.7800994,-7.1342978],[-70.7759111,-7.1326793],[-70.7802106,-7.12404320000002],[-70.777281,-7.1151883],[-70.77172650000001,-7.111174900000019],[-70.7671724,-7.1181878],[-70.7635613,-7.10049759999997],[-70.7570025,-7.096025100000018],[-70.7603753,-7.091512900000017],[-70.7343173,-7.083130900000021],[-70.7352451,-7.077998600000022],[-70.7402409,-7.080063100000018],[-70.7414308,-7.07213809999998],[-70.7326625,-7.07356239999998],[-70.7310939,-7.070998300000026],[-70.7387815,-7.0661587],[-70.7295789,-7.0655294],[-70.734636,-7.058063400000016],[-70.7389095,-7.0612699],[-70.7377777,-7.0524597],[-70.7320544,-7.053259],[-70.7368644,-7.0465905],[-70.7300452,-7.051206499999976],[-70.7246392,-7.0488218],[-70.73086840000002,-7.05377090000002],[-70.7278681,-7.0562327],[-70.720942,-7.0463096],[-70.72294490000002,-7.039565],[-70.7108579,-7.042793600000014],[-70.71850320000001,-7.037472199999971],[-70.7169201,-7.029125399999988],[-70.7234682,-7.02911310000002],[-70.7165947,-7.021093800000027],[-70.7241261,-7.0186523],[-70.72064870000001,-7.007052400000024],[-70.7133778,-7.004379599999987],[-70.7067742,-6.993815799999983],[-70.705276,-6.9826283],[-70.710872,-6.9850467],[-70.7105189,-6.975586],[-70.7024195,-6.970052399999981],[-70.7068907,-6.967403099999982],[-70.7012055,-6.96213],[-70.7049186,-6.949686599999975],[-70.7000728,-6.949999],[-70.6987587,-6.9411493],[-70.7021222,-6.9351645],[-70.710395,-6.938436],[-70.7091599,-6.931742100000031],[-70.7061087,-6.932713100000017],[-70.7078412,-6.927150500000014],[-70.700969,-6.920166499999983],[-70.7020743,-6.912610699999982],[-70.7070791,-6.911602300000019],[-70.7046257,-6.907169400000027],[-70.6976104,-6.908972399999977],[-70.702722,-6.902768399999988],[-70.6967041,-6.900857499999981],[-70.69531619999998,-6.895478699999984],[-70.6914863,-6.8984311],[-70.6911604,-6.8919257],[-70.6862289,-6.89414350000001],[-70.6872653,-6.8856274],[-70.6804111,-6.891449400000021],[-70.6825755,-6.8839041],[-70.669537,-6.873628600000012],[-70.6723147,-6.871110299999982],[-70.6657334,-6.859680200000019],[-70.6610812,-6.861962400000012],[-70.664967,-6.8498144],[-70.66852690000002,-6.849280500000013],[-70.6616871,-6.844250199999979],[-70.6671314,-6.842375399999971],[-70.6607501,-6.840742],[-70.6548455,-6.825922099999986],[-70.6443629,-6.8214439],[-70.6414854,-6.814269799999977],[-70.65359689999998,-6.59509939999997],[-70.6173384,-6.606946],[-70.600008,-6.6015255],[-70.5867657,-6.5597184],[-70.5718988,-6.534523],[-70.5513401,-6.542901700000026],[-70.5364565,-6.562937100000017],[-70.5076445,-6.5744683],[-70.4901467,-6.5776547],[-70.4506178,-6.566885300000011],[-70.4313669,-6.5687946],[-70.41978460000001,-6.579731700000026],[-70.4165616,-6.6090771],[-70.3895328,-6.610909500000013],[-70.3749796,-6.6173866],[-70.3680631,-6.645090200000023],[-70.3604348,-6.645343],[-70.3520657,-6.638399299999985],[-70.3429454,-6.641642499999973],[-70.3265097,-6.635860200000013],[-70.308147,-6.6354767],[-70.2961185,-6.610134900000022],[-70.2878946,-6.609367399999979],[-70.2768927,-6.6370889],[-70.261371,-6.634795],[-70.2456748,-6.602542600000022],[-70.2138649,-6.584899700000024],[-70.2056442,-6.586871399999986],[-70.2007572,-6.605002400000012],[-70.1943896,-6.6121275],[-70.1434996,-6.6084189],[-70.1262293,-6.6193684],[-70.1164225,-6.6188554],[-70.0920864,-6.6319273],[-70.0856723,-6.6267896],[-70.0824481,-6.601639699999984],[-70.0759194,-6.595704199999979],[-70.0582242,-6.5965664],[-70.05159250000001,-6.591660499999988],[-70.0531185,-6.572988600000025],[-70.0480358,-6.5644526],[-70.0400289,-6.563855600000021],[-70.0217296,-6.5721604],[-70.01492,-6.5890316],[-69.9999829,-6.582663499999974],[-69.9897481,-6.566883500000013],[-69.98231139999999,-6.5635835],[-69.9531447,-6.569635699999974],[-69.9328067,-6.580932899999977],[-69.9180084,-6.567115200000014],[-69.9105003,-6.5482264],[-69.8939749,-6.548040300000026],[-69.8867559,-6.543825600000024],[-69.8702535,-6.553278],[-69.8636168,-6.5480768]]]}},{"type":"Feature","properties":{"CD_MUN":"1301506","NM_MUN":"Envira","SIGLA_UF":"AM","CodigoIBGE":"1301506","SubRegiaoNumero":4,"CalhaSubRegiao":"Região do Juruá"},"geometry":{"type":"Polygon","coordinates":[[[-69.8017091,-8.061126],[-70.0549793,-7.845149099999982],[-71.0884954,-7.726266100000012],[-71.0596232,-7.711762],[-71.0433189,-7.693855200000015],[-71.0277097,-7.693036],[-71.008514,-7.678850400000016],[-70.9848206,-7.677321300000017],[-70.9663992,-7.6713388],[-70.9382863,-7.6558672],[-70.9140719,-7.659511799999972],[-70.9011493,-7.668589799999989],[-70.8931859,-7.666102],[-70.8882896,-7.6507037],[-70.86612449999998,-7.628297399999978],[-70.8484857,-7.627419100000016],[-70.8329008,-7.6446648],[-70.8242064,-7.6461096],[-70.8105098,-7.6382035],[-70.79637429999998,-7.6089144],[-70.7785433,-7.6016748],[-70.7648987,-7.5995331],[-70.7579069,-7.602658700000018],[-70.75478739999998,-7.5956129],[-70.74623360000001,-7.595796599999979],[-70.7412316,-7.588627900000011],[-70.7323195,-7.587731199999989],[-70.6873465,-7.608968599999989],[-70.6802886,-7.6057198],[-70.6650346,-7.60935820000002],[-70.6562089,-7.595639],[-70.64137560000002,-7.591779300000013],[-70.6261236,-7.573479800000024],[-70.6232896,-7.5576943],[-70.6154504,-7.55730340000001],[-70.6151517,-7.549721599999984],[-70.6077589,-7.5464192],[-70.5945722,-7.553739500000021],[-70.5872046,-7.5520273],[-70.579959,-7.555670599999988],[-70.5643453,-7.5496794],[-70.5407296,-7.549825400000011],[-70.5192053,-7.538745200000011],[-70.5009534,-7.514729900000026],[-70.4827039,-7.519698500000025],[-70.4558176,-7.514191],[-70.450731,-7.519836599999979],[-70.4334564,-7.504754],[-70.4244816,-7.5078415],[-70.422597,-7.498674300000011],[-70.4065924,-7.494865800000014],[-70.3934819,-7.4863533],[-70.3555672,-7.48540340000002],[-70.3366995,-7.4701575],[-70.329535,-7.4565276],[-70.3220333,-7.4551933],[-70.2994569,-7.4307636],[-70.2916771,-7.4275671],[-70.2706796,-7.4010125],[-70.2429198,-7.3869445],[-70.2233592,-7.3708643],[-70.1937031,-7.362395100000017],[-70.1734082,-7.347954599999982],[-70.1575648,-7.331345600000017],[-70.1268766,-7.2808326],[-70.1148565,-7.278710100000012],[-70.1055188,-7.2940369],[-70.0847858,-7.273919500000016],[-70.0706806,-7.27372],[-70.06145989999999,-7.2686856],[-70.0517314,-7.2506289],[-70.0386964,-7.205266799999974],[-70.03893020000001,-7.182578900000019],[-70.0345733,-7.17308569999997],[-70.020795,-7.173218599999983],[-70.007737,-7.180717700000012],[-69.9967277,-7.202452],[-69.9927328,-7.2293003],[-69.9725313,-7.244268199999983],[-69.9688671,-7.251964100000018],[-69.9722056,-7.2680746],[-69.96900710000001,-7.275074700000016],[-69.9607615,-7.276828],[-69.9485624,-7.2907477],[-69.9220815,-7.293985100000017],[-69.9137805,-7.291391500000016],[-69.91292619999999,-7.2784928],[-69.9067098,-7.279353500000011],[-69.8973596,-7.289934400000017],[-69.8870267,-7.278076400000021],[-69.8864147,-7.2704008],[-69.9003293,-7.2653929],[-69.89727089999998,-7.259020399999978],[-69.8894481,-7.2581942],[-69.8780671,-7.265788599999987],[-69.8732535,-7.264758300000015],[-69.8732069,-7.2551124],[-69.8663624,-7.2446255],[-69.8917194,-7.2369994],[-69.8843131,-7.225789900000027],[-69.8763329,-7.2221071],[-69.8814643,-7.213841],[-69.8772381,-7.20464960000001],[-69.8600815,-7.1880413],[-69.8694193,-7.1735993],[-69.52182490000001,-7.178215200000015],[-69.5211158,-7.183435299999983],[-69.4910373,-7.20315290000002],[-69.48189419999999,-7.216656399999982],[-69.4744451,-7.252222500000012],[-69.4925641,-7.279235900000026],[-69.4943362,-7.302029799999978],[-69.485059,-7.314691500000011],[-69.4862786,-7.330404699999989],[-69.48886679999998,-7.3378017],[-69.51175779999998,-7.360212499999983],[-69.496561,-7.38239330000001],[-69.4973705,-7.390852199999969],[-69.4911211,-7.4049014],[-69.516281,-7.4142814],[-69.5247019,-7.4364638],[-69.5243908,-7.444210300000017],[-69.5197253,-7.4505486],[-69.5121685,-7.4516424],[-69.5087599,-7.4589268],[-69.5209761,-7.479650900000019],[-69.5337802,-7.4892564],[-69.5530401,-7.537148900000016],[-69.5634263,-7.5496603],[-69.56567290000001,-7.5572717],[-69.55531270000002,-7.570461499999976],[-69.5586421,-7.577907399999978],[-69.58486650000002,-7.6081718],[-69.5926229,-7.612172600000023],[-69.58256149999998,-7.633831100000012],[-69.5755338,-7.6377591],[-69.5728645,-7.64498280000001],[-69.5570106,-7.6513057],[-69.5552812,-7.658707699999986],[-69.5698152,-7.686555600000013],[-69.5840289,-7.692474500000015],[-69.591037,-7.6887295],[-69.5983659,-7.6909165],[-69.6154193,-7.7180186],[-69.6113164,-7.734547],[-69.6252241,-7.7523929],[-69.6404795,-7.758040699999981],[-69.6491487,-7.770439699999989],[-69.6566129,-7.767277400000018],[-69.6655386,-7.7820217],[-69.673201,-7.78049220000001],[-69.6819748,-7.793370300000013],[-69.696699,-7.7852731],[-69.704926,-7.787414300000012],[-69.7306744,-7.820315],[-69.7439237,-7.821792599999981],[-69.7508686,-7.835089899999974],[-69.7636998,-7.8433259],[-69.76737019999999,-7.863392799999986],[-69.79244749999998,-7.867779800000024],[-69.798004,-7.8741668],[-69.7984825,-7.8908796],[-69.7911217,-7.892952799999985],[-69.7848663,-7.90847],[-69.7890587,-7.940327299999972],[-69.8005384,-7.951813],[-69.7985113,-7.977162099999972],[-69.7872843,-7.998419600000026],[-69.8013454,-8.0412829],[-69.8017091,-8.061126]]]}},{"type":"Feature","properties":{"CD_MUN":"1301001","NM_MUN":"Carauari","SIGLA_UF":"AM","CodigoIBGE":"1301001","SubRegiaoNumero":4,"CalhaSubRegiao":"Região do Juruá"},"geometry":{"type":"Polygon","coordinates":[[[-66.2053608,-4.573907699999976],[-66.1959783,-4.594975899999969],[-66.1996514,-4.638915599999971],[-66.2109544,-4.652264099999977],[-66.2385085,-4.66818459999998],[-66.242265,-4.6751592],[-66.2456533,-4.683784700000032],[-66.2426234,-4.7086755],[-66.2515901,-4.761049300000029],[-66.2624051,-4.775822599999977],[-66.3193746,-4.7907461],[-66.3398157,-4.804752899999967],[-66.3545146,-4.82502519999997],[-66.36318,-4.828001],[-66.3874847,-4.824333099999981],[-66.4086221,-4.8543223],[-66.460707,-4.8921235],[-66.4725986,-4.91497029999998],[-66.4916798,-4.9215832],[-66.5241545,-4.944972800000022],[-66.5482646,-4.989302699999984],[-66.5631757,-5.000746],[-66.5646253,-5.010763200000026],[-66.5799565,-5.0283072],[-66.5931497,-5.0609509],[-66.6183166,-5.082567300000016],[-66.6340129,-5.084413100000019],[-66.6571258,-5.0690565],[-66.7088984,-5.055830100000024],[-66.7238913,-5.058254],[-66.7637102,-5.0784269],[-66.7739038,-5.093374099999957],[-66.7802052,-5.130294400000034],[-66.7909325,-5.152202599999976],[-66.8155998,-5.162148800000018],[-66.8229632,-5.1798471],[-66.839083,-5.193598299999975],[-66.8597146,-5.1987117],[-66.8684225,-5.205233199999976],[-66.8724443,-5.2147907],[-66.8817474,-5.215056599999969],[-66.9004639,-5.2514025],[-66.9010145,-5.2596052],[-66.9095746,-5.263746],[-66.9259554,-5.258837599999974],[-66.9333798,-5.261349600000023],[-66.9384026,-5.277549699999978],[-66.9316531,-5.303136099999983],[-66.9333763,-5.3197198],[-66.9541274,-5.3331158],[-66.9572949,-5.3567593],[-66.9677626,-5.368469],[-66.9744552,-5.384311899999972],[-66.9581868,-5.419878800000011],[-66.976625,-5.444409],[-66.9796,-5.452477799999976],[-66.9772674,-5.46842979999997],[-66.9837928,-5.475321],[-66.9912647,-5.499477599999985],[-67.00568,-5.505194299999985],[-67.021826,-5.49932180000003],[-67.0390711,-5.522339799999969],[-67.0876016,-5.561948900000027],[-67.1110164,-5.573837799999972],[-67.1186879,-5.588076199999981],[-67.121154,-5.6255649],[-67.1660413,-5.623461100000015],[-67.1655176,-5.63213590000002],[-67.1824929,-5.6373051],[-67.1974877,-5.6474182],[-67.2059093,-5.660970299999972],[-67.2057125,-5.68636329999998],[-67.2029058,-5.694287],[-67.1815465,-5.7081586],[-67.17999,-5.7165126],[-67.2234077,-5.75047],[-67.2652959,-5.818791600000015],[-67.293301,-5.8518646],[-67.3046903,-5.840605],[-67.3095783,-5.806253699999984],[-67.3160201,-5.799993100000022],[-67.3323756,-5.798077800000031],[-67.3743256,-5.814189899999984],[-67.3887766,-5.824730699999973],[-67.3887376,-5.8332213],[-67.3763533,-5.860360699999989],[-67.35796,-5.8778284],[-67.3559668,-5.886136599999976],[-67.3660212,-5.900961499999974],[-67.4011601,-5.908725899999988],[-67.4329657,-5.922647499999984],[-67.4405247,-5.922154],[-67.445822,-5.914992899999984],[-67.4442674,-5.898406800000012],[-67.4479386,-5.890819700000018],[-67.50057490000002,-5.892292599999989],[-67.5292178,-5.911657500000017],[-67.5449942,-5.912577099999986],[-67.5621866,-5.944202299999983],[-67.568988,-5.9709511],[-67.565848,-5.988678899999976],[-67.5726265,-5.992759],[-67.5882969,-5.991078099999986],[-67.6141838,-5.971035],[-67.6296065,-5.951335199999988],[-67.6511594,-5.937585900000021],[-67.6594966,-5.9353792],[-67.6746925,-5.94439250000002],[-67.6993256,-5.945310099999976],[-67.7049673,-5.9619741],[-67.7028278,-5.997664299999976],[-67.6921861,-6.02475190000001],[-67.6854925,-6.0304126],[-67.6778279,-6.028162500000033],[-67.6710211,-6.034099799999987],[-67.6692396,-6.043590500000013],[-68.3054956,-6.050925099999986],[-68.2980795,-6.0077879],[-68.3083254,-5.9850154],[-68.3128027,-5.9586064],[-68.3107169,-5.9497638],[-68.2984975,-5.938611600000017],[-68.29585620000002,-5.922296499999974],[-68.2661587,-5.907409700000022],[-68.2472761,-5.9245889],[-68.2305248,-5.9300342],[-68.2146889,-5.925224199999972],[-68.2102729,-5.918084400000022],[-68.215493,-5.894002499999977],[-68.2107422,-5.860915100000012],[-68.2247754,-5.822882],[-68.21868679999999,-5.805891699999965],[-68.238022,-5.769726700000033],[-68.2496913,-5.757657399999984],[-68.2416016,-5.7349927],[-68.2294379,-5.7192519],[-68.22854870000002,-5.6936383],[-68.2320794,-5.686436600000031],[-68.2816021,-5.653774899999984],[-68.276048,-5.6381923],[-68.2561598,-5.618711499999984],[-68.2341319,-5.587392800000023],[-68.2410259,-5.582114700000012],[-68.2590498,-5.581884800000029],[-68.2732435,-5.575020200000034],[-68.2742754,-5.567029100000013],[-68.2603286,-5.521026],[-68.26093940000001,-5.51275249999997],[-68.2743793,-5.5030537],[-68.2707143,-5.495294],[-68.2538248,-5.491902600000028],[-68.2363562,-5.4742904],[-68.2203572,-5.478204400000022],[-68.2065741,-5.4678489],[-68.2050473,-5.458669799999977],[-68.2181629,-5.4485733],[-68.219242,-5.440465199999961],[-68.2094098,-5.397581100000024],[-68.2228249,-5.3673151],[-68.2045795,-5.299786400000029],[-68.1952719,-5.282116100000038],[-68.2008278,-5.220625499999972],[-68.1898499,-5.1979148],[-68.1698827,-5.1811541],[-68.1698251,-5.154856300000032],[-68.160579,-5.1392321],[-68.1344109,-5.1164071],[-68.1135255,-5.087232299999974],[-68.0978852,-5.081234500000023],[-68.0921906,-5.047181400000012],[-68.0851885,-5.0425955],[-68.0775742,-5.045769100000029],[-68.0624698,-5.0668553],[-68.048742,-5.059897600000028],[-68.0410199,-5.033494599999982],[-68.0426304,-5.015132],[-68.0490175,-5.000736900000029],[-68.0459615,-4.985387299999982],[-68.02899849999999,-4.966271],[-67.9975158,-4.947920600000018],[-68.0044085,-4.918548],[-67.9939916,-4.889958700000022],[-67.9947129,-4.8810458],[-68.0070967,-4.870501699999982],[-68.0074931,-4.8627896],[-67.9932409,-4.842340100000033],[-67.9979649,-4.792636499999989],[-67.9891564,-4.777808099999971],[-67.9833547,-4.7549017],[-67.9768759,-4.750207200000023],[-67.9687982,-4.7498294],[-67.9627963,-4.7552707],[-67.9511273,-4.77698030000004],[-67.9447427,-4.781340700000027],[-67.9279883,-4.778552899999963],[-67.925187,-4.787877800000033],[-67.9127926,-4.7775066],[-67.8893547,-4.783452899999975],[-67.8728219,-4.7804296],[-67.8609866,-4.769203],[-67.8484085,-4.722490400000022],[-67.8193507,-4.6856898],[-67.7928776,-4.665918199999987],[-67.761874,-4.6521439],[-67.7101281,-4.59769159999998],[-67.6813487,-4.580042799999967],[-67.649241,-4.571482],[-67.6211305,-4.588460799999964],[-67.6035459,-4.590317599999986],[-67.5763744,-4.547262],[-67.569852,-4.5427803],[-67.5441303,-4.538472300000037],[-67.4969346,-4.539650500000018],[-67.4768734,-4.512930900000021],[-67.4453236,-4.504464199999981],[-67.4225674,-4.508163800000015],[-67.41056,-4.516239400000031],[-67.4068273,-4.5144353],[-67.3778181,-4.54385420000001],[-67.3562401,-4.554733],[-67.3580104,-4.548073700000012],[-67.3540047,-4.544154599999987],[-67.3602251,-4.537636900000041],[-67.351427,-4.532524299999963],[-67.3528683,-4.5217862],[-67.33650719999999,-4.522806300000013],[-67.3415659,-4.5159051],[-67.3315892,-4.515806099999973],[-67.3279876,-4.523046500000033],[-67.320432,-4.526379599999965],[-67.3204215,-4.520334],[-67.3150087,-4.522287800000025],[-67.3079743,-4.511908299999982],[-67.3103016,-4.5066432],[-67.3015946,-4.504503299999982],[-67.2967475,-4.507548400000023],[-67.3002608,-4.5004714],[-67.2965011,-4.492258300000023],[-67.2861964,-4.489154499999978],[-67.2974671,-4.4841992],[-67.2917427,-4.478854700000015],[-67.2993001,-4.4791261],[-67.2894388,-4.472939900000028],[-67.2798768,-4.4782554],[-67.2824993,-4.467813399999963],[-67.2687467,-4.456732100000026],[-67.2707477,-4.448113800000014],[-67.2570071,-4.453167300000037],[-67.25555180000002,-4.459313499999988],[-67.250408,-4.456570400000015],[-67.2423925,-4.462390299999976],[-67.2374457,-4.4686588],[-67.24137,-4.4740202],[-67.2253952,-4.475343400000027],[-67.2162047,-4.481114399999966],[-67.2076127,-4.475303],[-67.1953488,-4.4833451],[-67.183051,-4.481641699999983],[-67.1761097,-4.4861288],[-67.1733181,-4.477366],[-67.1631027,-4.4859763],[-67.1592903,-4.482039],[-67.1493422,-4.482938300000042],[-67.1469617,-4.493114800000029],[-67.1379191,-4.491211200000034],[-67.138739,-4.4882381],[-67.1283916,-4.482116199999954],[-67.1211594,-4.4867227],[-67.1185999,-4.4827892],[-67.1135186,-4.485211799999954],[-67.1133779,-4.480273200000028],[-67.1032797,-4.4829962],[-67.0985595,-4.4796224],[-67.094974,-4.487004399999988],[-67.0885843,-4.482291899999989],[-67.0743801,-4.487216700000012],[-67.0722061,-4.484071299999968],[-67.067334,-4.4897423],[-67.063629,-4.484469300000013],[-67.0632447,-4.491805500000021],[-67.0586734,-4.4853171],[-67.0559131,-4.490059499999956],[-67.04845579999999,-4.490109499999967],[-67.0482074,-4.494924599999975],[-67.0535342,-4.496578],[-67.0492981,-4.496331400000012],[-67.0493247,-4.505803100000021],[-67.0380044,-4.5056423],[-67.0335229,-4.513881500000032],[-67.0306179,-4.510222900000022],[-67.0235202,-4.511779],[-67.0227568,-4.507139199999982],[-66.8993913,-4.481869199999973],[-66.9018583,-4.469019299999979],[-66.89737550000001,-4.464449499999968],[-66.9002853,-4.456686599999952],[-66.8975212,-4.457099800000013],[-66.900386,-4.453652],[-66.8952871,-4.4488162],[-66.895914,-4.436887100000013],[-66.8900795,-4.435062899999955],[-66.8919314,-4.4294722],[-66.8873859,-4.427640099999976],[-66.8845749,-4.418433899999978],[-66.8883327,-4.4126735],[-66.8879355,-4.398287500000023],[-66.8942062,-4.390727700000013],[-66.8891204,-4.377684299999963],[-66.9006059,-4.354618900000014],[-66.9074985,-4.35355460000001],[-66.9072868,-4.341896899999984],[-66.9095234,-4.346503100000032],[-66.9170372,-4.338406399999983],[-66.9146507,-4.336148099999965],[-66.9186192,-4.336870799999955],[-66.9212644,-4.3305574],[-66.9180557,-4.323858600000013],[-66.9254834,-4.320580400000015],[-66.9269134,-4.3177434],[-66.9234072,-4.320210399999961],[-66.9250842,-4.315805899999971],[-66.9206257,-4.314634600000014],[-66.9317505,-4.302612399999956],[-66.9320944,-4.2956378],[-65.9501758,-4.294642299999969],[-66.0594244,-4.4008684],[-66.0831174,-4.4011028],[-66.100516,-4.3954738],[-66.1250686,-4.4036737],[-66.145622,-4.4189127],[-66.1507945,-4.424917200000018],[-66.1532952,-4.444160500000025],[-66.1670088,-4.453367799999977],[-66.1880531,-4.481653699999987],[-66.2105417,-4.4924258],[-66.2139543,-4.509349199999964],[-66.20162089999998,-4.535068899999959],[-66.2053608,-4.573907699999976]]]}},{"type":"Feature","properties":{"CD_MUN":"1301951","NM_MUN":"Itamarati","SIGLA_UF":"AM","CodigoIBGE":"1301951","SubRegiaoNumero":4,"CalhaSubRegiao":"Região do Juruá"},"geometry":{"type":"Polygon","coordinates":[[[-68.6885538,-7.1022177],[-68.7036961,-7.1057997],[-68.7140885,-7.117929899999988],[-68.7297829,-7.122079599999977],[-68.8065549,-7.099504300000019],[-68.8293057,-7.1069801],[-68.8342221,-7.113561199999987],[-68.8405608,-7.1085551],[-68.8638889,-7.1035968],[-68.8794499,-7.1085135],[-68.8955838,-7.107269599999989],[-68.9030302,-7.105119299999973],[-68.9104435,-7.0917861],[-68.9171103,-7.0959466],[-68.9240567,-7.0912405],[-68.9314207,-7.076683200000017],[-68.9453058,-7.0841637],[-68.9573659,-7.0720259],[-68.9628029,-7.07842019999998],[-68.9712233,-7.07703990000003],[-68.9700286,-7.0693396],[-68.9752219,-7.062834],[-68.9888924,-7.055608599999983],[-69.0171437,-7.0757833],[-69.02544370000001,-7.076189099999978],[-69.0327254,-7.0729182],[-69.0341643,-7.064970800000014],[-69.0263615,-7.05188029999998],[-69.0137777,-7.0428917],[-69.0126945,-7.0347895],[-69.0175004,-7.0286203],[-69.0252769,-7.0260766],[-69.0400872,-7.0290054],[-69.0586157,-7.055057899999988],[-69.0650838,-7.051041500000017],[-69.0695249,-7.035526599999979],[-69.0770896,-7.036174499999988],[-69.0875553,-7.048478199999976],[-69.09372089999998,-7.0262447],[-69.109368,-7.0291847],[-69.1193919,-7.017416],[-69.1270046,-7.01591],[-69.1339727,-6.992500799999985],[-69.132638,-6.961498500000027],[-69.1390855,-6.956560600000026],[-69.1654739,-6.9608764],[-69.1728639,-6.950434],[-69.1826393,-6.944861299999989],[-69.1928086,-6.944946899999984],[-69.2175617,-6.9778972],[-69.25045379999999,-7.000106599999978],[-69.25958929999999,-7.003454399999971],[-69.2661412,-6.996779099999978],[-69.2863925,-7.01215430000002],[-69.3090599,-7.0081566],[-69.3241141,-7.0153277],[-69.3400259,-7.0115941],[-69.3553943,-7.017581700000015],[-69.3610575,-7.012564],[-69.39006009999999,-7.026513600000015],[-69.3920902,-7.035159399999982],[-69.40442229999998,-7.045317799999978],[-69.4026126,-7.053368099999979],[-69.4152512,-7.062101899999977],[-69.4138663,-7.0746364],[-69.4218693,-7.076947300000024],[-69.4265917,-7.083740199999982],[-69.4423905,-7.0859761],[-69.4619731,-7.100340700000021],[-69.4865335,-7.105838199999969],[-69.4829784,-7.1288891],[-69.4543881,-7.1461628],[-69.4564151,-7.170541],[-69.4695337,-7.17897],[-69.4849243,-7.180791600000011],[-69.485536,-7.196854899999986],[-69.4910373,-7.20315290000002],[-69.5211158,-7.183435299999983],[-69.5186965,-7.1599161],[-69.5237819,-7.1367108],[-69.5160893,-7.114505900000011],[-69.5171481,-7.106368400000015],[-69.530508,-7.08734130000001],[-69.5290887,-7.0710813],[-69.5381464,-7.0597253],[-69.5347148,-7.049075899999968],[-69.5043831,-7.029511],[-69.4978168,-7.030712],[-69.4948901,-7.026511],[-69.4830037,-7.02624],[-69.478169,-7.021904299999977],[-69.4685136,-7.023670600000021],[-69.4591968,-7.0176682],[-69.4448702,-7.0035629],[-69.4386474,-6.987111100000024],[-69.4408375,-6.9841643],[-69.4337555,-6.980077499999983],[-69.4335185,-6.9711916],[-69.4246116,-6.9627571],[-69.4202117,-6.949137100000024],[-69.4033776,-6.929107799999985],[-69.3901695,-6.924581299999989],[-69.3781804,-6.9141325],[-69.3667609,-6.8908179],[-69.3718685,-6.8738625],[-69.3668315,-6.856986300000023],[-69.3702789,-6.830137500000014],[-69.3767132,-6.818560600000017],[-69.373328,-6.807498400000023],[-69.3768905,-6.80568740000001],[-69.3687846,-6.782824],[-69.370696,-6.7788209],[-69.3652366,-6.7780936],[-69.3667224,-6.7697349],[-69.3582101,-6.763648800000027],[-69.3595308,-6.752178],[-69.3529382,-6.7438655],[-69.3561601,-6.723172199999978],[-69.3451712,-6.715819899999976],[-69.3381495,-6.686466100000021],[-69.335022,-6.6862448],[-69.3291854,-6.6544089],[-69.3339868,-6.650563499999982],[-69.33024,-6.6384156],[-69.3327748,-6.627727599999974],[-69.3213116,-6.6156797],[-69.3351476,-6.593807499999984],[-69.3335298,-6.361347099999986],[-69.3238864,-6.3486418],[-69.3118689,-6.3066022],[-69.2984675,-6.292749300000013],[-69.2836118,-6.283609899999981],[-69.2681157,-6.2842148],[-69.215755,-6.33520329999998],[-69.2104756,-6.3451855],[-69.2165565,-6.3804729],[-69.2370249,-6.413169399999973],[-69.2340025,-6.4285336],[-69.2255781,-6.431642599999986],[-69.2099479,-6.428578499999978],[-69.1808882,-6.405239099999986],[-69.1576648,-6.418056900000026],[-69.1496697,-6.4141143],[-69.1184206,-6.376968700000019],[-69.1017504,-6.370463900000011],[-69.0694983,-6.378414700000023],[-69.0628085,-6.38691329999998],[-69.044698,-6.396391500000016],[-69.0279438,-6.3964097],[-68.9947491,-6.35942],[-68.9552179,-6.374066500000017],[-68.94747590000001,-6.375569],[-68.9452164,-6.368272399999979],[-68.9314695,-6.3767789],[-68.9236383,-6.377041199999989],[-68.9169197,-6.371533],[-68.9176652,-6.3612196],[-68.9023341,-6.362321499999974],[-68.8868842,-6.391217499999983],[-68.8727737,-6.402773499999972],[-68.8793901,-6.4169516],[-68.8736346,-6.424739],[-68.8640815,-6.420665900000032],[-68.8383034,-6.420504299999989],[-68.8233572,-6.42455660000001],[-68.810772,-6.4118005],[-68.8149132,-6.396441699999969],[-68.8092465,-6.389139199999975],[-68.777136,-6.395331500000022],[-68.7691915,-6.401324200000013],[-68.7525029,-6.398643699999981],[-68.75522,-6.4154799],[-68.7503348,-6.422149300000028],[-68.7406394,-6.4254938],[-68.7151387,-6.416883899999985],[-68.7033917,-6.4070319],[-68.6723905,-6.409100199999985],[-68.6635509,-6.404912],[-68.6660247,-6.371208800000011],[-68.6805784,-6.3632391],[-68.6825537,-6.354993099999986],[-68.6738299,-6.329081099999984],[-68.677026,-6.321425500000029],[-68.6866696,-6.32221220000003],[-68.6860271,-6.313407599999978],[-68.6639726,-6.2906157],[-68.6487264,-6.287965199999983],[-68.630555,-6.2689259],[-68.6226975,-6.2717328],[-68.609442,-6.263098599999984],[-68.5968001,-6.2284997],[-68.586687,-6.229796],[-68.5730266,-6.208564700000021],[-68.5547448,-6.208692700000022],[-68.5357783,-6.1921316],[-68.5107703,-6.193845899999969],[-68.4876968,-6.178965599999984],[-68.4637193,-6.175809600000011],[-68.4508882,-6.16417860000003],[-68.4326609,-6.164586299999987],[-68.4186074,-6.1432845],[-68.3889081,-6.117168400000013],[-68.3727468,-6.109158799999989],[-68.3686924,-6.1019398],[-68.3686658,-6.084352300000011],[-68.3444387,-6.081643500000018],[-68.3229429,-6.0666756],[-68.3135292,-6.067067],[-68.306607,-6.061382],[-68.3054956,-6.050925099999986],[-67.6692396,-6.043590500000013],[-67.67616,-6.0724765],[-67.6689599,-6.0963861],[-67.6783961,-6.141487600000024],[-67.6657735,-6.165523100000023],[-67.6449916,-6.178216500000027],[-67.6215507,-6.239460399999975],[-67.6264629,-6.2478446],[-67.6496609,-6.24489490000001],[-67.6664957,-6.254523799999979],[-67.676103,-6.284489399999978],[-67.696854,-6.3012283],[-67.6961036,-6.319808299999971],[-67.70071360000001,-6.329884400000023],[-67.7336073,-6.352135800000021],[-67.74599,-6.36831390000003],[-67.781104,-6.456393],[-67.7744658,-6.471465099999975],[-67.7762197,-6.4805736],[-67.7888584,-6.4945387],[-67.79719380000002,-6.5197188],[-67.757716,-6.509002499999985],[-67.7414121,-6.509441699999978],[-67.7104142,-6.548487299999988],[-67.6949086,-6.553613400000022],[-67.6864082,-6.552062],[-67.6727191,-6.5610819],[-67.652575,-6.549263800000029],[-67.6405272,-6.569218800000017],[-67.6329135,-6.569931599999988],[-67.6031278,-6.560486899999984],[-67.5913286,-6.5491534],[-67.5844956,-6.553312600000019],[-67.56888,-6.5512049],[-67.55643889999999,-6.540557],[-67.5321379,-6.536292099999983],[-67.5093278,-6.5425742],[-67.4545058,-6.5026046],[-67.444961,-6.502352899999979],[-67.4348206,-6.5174909],[-67.4268028,-6.5194371],[-67.4023923,-6.4969845],[-67.3732636,-6.4926073],[-67.3677746,-6.483242],[-67.3629993,-6.4823158],[-67.3505486,-6.45138010000001],[-67.3362215,-6.44096760000002],[-67.3310185,-6.441827],[-67.3151862,-6.4260606],[-67.3020944,-6.4207852],[-67.2966651,-6.423038900000019],[-67.2857176,-6.415104399999965],[-67.2604326,-6.419743599999988],[-67.2545183,-6.413525799999971],[-67.2456644,-6.413710499999984],[-67.2414799,-6.4087455],[-67.2434922,-6.394113700000024],[-67.236384,-6.383016499999981],[-67.23768330000001,-6.376295300000017],[-67.2300965,-6.369274700000013],[-67.2299573,-6.356415],[-67.2225082,-6.343446800000013],[-67.2118458,-6.340806499999972],[-67.208187,-6.3329845],[-67.1780929,-6.342244800000016],[-67.1711359,-6.336618099999981],[-67.16236,-6.339145699999969],[-67.1582675,-6.3339061],[-67.1402028,-6.34418930000002],[-67.137412,-6.338940699999986],[-67.133972,-6.342517699999988],[-67.1228993,-6.339964299999986],[-67.1191739,-6.330288100000017],[-67.1077758,-6.326828799999971],[-67.0914741,-6.3327424],[-67.0928055,-6.3384722],[-67.0840749,-6.3397806],[-67.07920239999999,-6.35107],[-67.0691579,-6.353748],[-67.0656149,-6.368137399999982],[-67.0507494,-6.378288900000012],[-67.0518182,-6.383693200000021],[-67.0465986,-6.3868728],[-67.0239073,-6.386369],[-67.0173233,-6.381548200000025],[-67.01859390000001,-6.3847915],[-67.0100136,-6.383784799999989],[-67.0034117,-6.376473200000018],[-66.9890586,-6.3756334],[-66.9809418,-6.3836653],[-66.9850703,-6.3854775],[-66.983733,-6.389466399999976],[-66.9672166,-6.3855826],[-66.9655576,-6.393819499999982],[-66.9580814,-6.385340599999988],[-66.9451929,-6.3840052],[-66.9464978,-6.3871361],[-66.9298847,-6.400430900000011],[-66.92204980000001,-6.4023921],[-66.9111991,-6.39689430000001],[-66.90720650000002,-6.40092839999997],[-66.90342,-6.3970956],[-66.8914813,-6.409382900000017],[-66.8858269,-6.405867900000024],[-66.8748677,-6.412066199999978],[-66.8633213,-6.407417200000019],[-66.8479132,-6.4219331],[-66.8498119,-6.426851200000013],[-66.8402973,-6.424703199999974],[-66.8290508,-6.438297099999988],[-66.8183349,-6.443061899999982],[-66.821322,-6.447158700000031],[-66.8116914,-6.455611399999982],[-66.80799,-6.471752600000023],[-66.80199360000002,-6.47112339999998],[-66.8017776,-6.476831500000023],[-66.79425910000002,-6.4723151],[-66.7877319,-6.4862733],[-66.7826422,-6.4851822],[-66.7926203,-6.498994200000021],[-66.7916324,-6.5037205],[-66.7792448,-6.4965251],[-66.7631636,-6.4969751],[-66.7614506,-6.508657099999964],[-66.7571515,-6.503015400000015],[-66.7551535,-6.508601],[-66.7529985,-6.501925799999977],[-66.7469795,-6.50010039999998],[-66.7360894,-6.5018817],[-66.7245166,-6.511388],[-66.7170225,-6.5079091],[-66.7113164,-6.515605],[-66.7055183,-6.508731599999968],[-66.6991672,-6.525437800000014],[-66.6945575,-6.526985499999988],[-66.6867893,-6.526537099999985],[-66.6789317,-6.5188641],[-66.6694133,-6.5194947],[-66.6674118,-6.524529400000015],[-66.6484062,-6.525509899999973],[-66.6473715,-6.533479699999981],[-66.6380372,-6.5397188],[-66.6386162,-6.543135599999967],[-66.6303941,-6.5347506],[-66.624774,-6.545514],[-66.6274425,-6.549766],[-66.6141925,-6.551089200000015],[-66.6122971,-6.5453365],[-66.61219359999998,-6.55410189999996],[-66.6098821,-6.552004600000015],[-66.609297,-6.555934399999984],[-66.6030234,-6.556741599999987],[-66.5949371,-6.553969299999965],[-66.59087860000001,-6.567689399999969],[-66.5785242,-6.571160100000025],[-66.5736956,-6.5620678],[-66.5570088,-6.565107499999972],[-66.5529738,-6.5618423],[-66.5487775,-6.565505399999982],[-66.5484591,-6.5614238],[-66.543185,-6.5666107],[-66.53665590000001,-6.565486],[-66.5371177,-6.561085899999989],[-66.5235686,-6.577706499999985],[-66.5104605,-6.571341799999971],[-66.5090126,-6.565727599999978],[-66.480477,-6.569066],[-66.4758203,-6.565100599999978],[-66.4747867,-6.569997],[-66.4677371,-6.567147499999971],[-66.4697841,-6.57758089999996],[-66.4581753,-6.586169400000012],[-66.4580044,-6.591645800000016],[-66.4506428,-6.5874514],[-66.4537643,-6.599819500000012],[-66.4484004,-6.600844100000019],[-66.4483294,-6.606284800000023],[-66.4314771,-6.597150400000011],[-66.4326806,-6.6031797],[-66.4394551,-6.606708],[-66.4283873,-6.606472699999977],[-66.4229205,-6.6164309],[-66.4366611,-6.6195077],[-66.4251806,-6.621274699999981],[-66.4248544,-6.629704399999972],[-66.4123385,-6.61974],[-66.4054008,-6.623400199999976],[-66.4051793,-6.6334089],[-66.3982776,-6.63664],[-66.3884197,-6.633961499999965],[-66.3874674,-6.628749499999963],[-66.3825464,-6.630394100000017],[-66.3798471,-6.6185086],[-66.373764,-6.6252788],[-66.3715123,-6.620047799999988],[-66.367273,-6.624172],[-66.3592047,-6.620109299999987],[-66.35390990000002,-6.6298717],[-66.3620316,-6.636267300000019],[-66.3639042,-6.647363100000019],[-66.3681821,-6.643726499999976],[-66.3746048,-6.647636699999964],[-66.3793563,-6.637785899999982],[-66.3786865,-6.652209799999982],[-66.3833081,-6.6515132],[-66.3875942,-6.6417267],[-66.3997577,-6.650440800000014],[-66.4010074,-6.6560015],[-66.3924466,-6.656602],[-66.38935470000001,-6.6610566],[-66.405248,-6.662983799999973],[-66.408986,-6.677901799999989],[-66.419501,-6.6788114],[-66.4203385,-6.690994400000019],[-66.4153533,-6.695792199999977],[-66.4177104,-6.706239],[-66.4237865,-6.708774100000023],[-66.422889,-6.715871099999979],[-66.44714,-6.72047],[-66.446965,-6.728226599999964],[-66.4554017,-6.7310552],[-66.4573986,-6.742519399999977],[-66.4694952,-6.7404277],[-66.463057,-6.735430099999985],[-66.4700778,-6.726337699999983],[-66.4757074,-6.7387679],[-66.4853658,-6.739608499999975],[-66.4854323,-6.7246945],[-66.4932578,-6.728231899999982],[-66.4904577,-6.732542199999986],[-66.4983999,-6.740189700000012],[-66.5046751,-6.735450199999971],[-66.5048309,-6.7287934],[-66.521243,-6.7365812],[-66.5302733,-6.73255779999997],[-66.52964,-6.7372464],[-66.5348518,-6.734754599999985],[-66.5377601,-6.741898],[-66.5550239,-6.7368317],[-66.559948,-6.740881300000012],[-66.5609398,-6.7332634],[-66.5716856,-6.730192699999987],[-66.5763406,-6.738722200000013],[-66.578164,-6.730301399999976],[-66.5828014,-6.74310690000001],[-66.5903486,-6.733776499999988],[-66.5894496,-6.7443725],[-66.593981,-6.744164099999976],[-66.5943696,-6.750530099999975],[-66.6047124,-6.755886199999961],[-66.6081326,-6.762915499999966],[-66.6150674,-6.763176599999983],[-66.621869,-6.772375],[-66.6250779,-6.7573801],[-66.6412373,-6.7583032],[-66.6414086,-6.7663418],[-66.6496453,-6.7668842],[-66.6535513,-6.7786225],[-66.6639638,-6.773979399999977],[-66.6702255,-6.78547829999998],[-66.678868,-6.7808825],[-66.688219,-6.7946404],[-66.7001896,-6.7845348],[-66.7088211,-6.7846394],[-66.701088,-6.7950587],[-66.7046073,-6.799992799999988],[-66.7098383,-6.792678599999964],[-66.7167383,-6.79183],[-66.7285292,-6.7931134],[-66.7341331,-6.8014153],[-66.7395539,-6.802383599999989],[-66.7538241,-6.790342599999979],[-66.7563625,-6.780900800000026],[-66.765376,-6.792706200000014],[-66.7651619,-6.798574200000017],[-66.769439,-6.792063],[-66.7845403,-6.793301799999989],[-66.7824881,-6.802230499999975],[-66.7899614,-6.80173030000001],[-66.7892821,-6.8097936],[-66.8071893,-6.814572400000018],[-66.8094125,-6.8082352],[-66.8152575,-6.816824],[-66.8239472,-6.810983399999989],[-66.8178941,-6.8051827],[-66.8193433,-6.802004899999983],[-66.8254446,-6.801295],[-66.8280543,-6.805933500000021],[-66.831215,-6.7965609],[-66.8320899,-6.805306],[-66.8386634,-6.798464900000026],[-66.8440595,-6.804907200000019],[-66.8525794,-6.803208700000018],[-66.8479888,-6.7992711],[-66.8569568,-6.79154670000001],[-66.8625108,-6.8022111],[-66.869542,-6.8008249],[-66.8753626,-6.808566100000022],[-66.8808951,-6.799587300000024],[-66.8910806,-6.800319],[-66.89966930000001,-6.791252300000016],[-66.9219525,-6.8127285],[-66.9293429,-6.810124099999984],[-66.9205805,-6.8039831],[-66.9294267,-6.781403800000027],[-66.9325092,-6.790391499999971],[-66.9444877,-6.7937362],[-66.950377,-6.777830100000013],[-66.960625,-6.7873282],[-66.9633625,-6.779818599999984],[-66.971007,-6.78019580000002],[-66.9776887,-6.775023200000028],[-66.9789274,-6.764428400000013],[-66.986313,-6.7666464],[-66.98941880000001,-6.760081699999985],[-67.0026835,-6.760971499999975],[-67.0212886,-6.745633400000019],[-67.0272993,-6.754956199999982],[-67.0342151,-6.7566872],[-67.0344898,-6.767778600000031],[-67.0412256,-6.7606788],[-67.043241,-6.771402700000014],[-67.0495176,-6.775004799999988],[-67.0548564,-6.764112],[-67.0650756,-6.762841399999978],[-67.0592873,-6.776394700000011],[-67.0734301,-6.776027099999975],[-67.0733952,-6.7849218],[-67.0856819,-6.77812349999998],[-67.0887565,-6.791422],[-67.0993694,-6.7913229],[-67.10121039999999,-6.779366499999989],[-67.0900201,-6.7755764],[-67.0959184,-6.7687906],[-67.1026338,-6.771744500000027],[-67.1082736,-6.7821629],[-67.1128177,-6.770125600000023],[-67.117616,-6.779917800000026],[-67.129447,-6.7751706],[-67.13886230000001,-6.785861399999975],[-67.142731,-6.798079400000014],[-67.158227,-6.7852219],[-67.1637943,-6.792963800000015],[-67.1711544,-6.7896709],[-67.1721298,-6.796740600000018],[-67.1634782,-6.802322600000022],[-67.1764721,-6.8111318],[-67.1762849,-6.818257],[-67.1681983,-6.8242093],[-67.1761284,-6.8311761],[-67.1784259,-6.8245563],[-67.185013,-6.824158500000029],[-67.1901745,-6.8344323],[-67.1985501,-6.8313547],[-67.1984369,-6.824631599999976],[-67.2169151,-6.831044700000014],[-67.2131401,-6.837616],[-67.225043,-6.831615],[-67.2576503,-6.838148800000023],[-67.2631749,-6.833037],[-67.2567937,-6.8327004],[-67.2593683,-6.819224300000022],[-67.2710878,-6.8123065],[-67.2766463,-6.815229699999983],[-67.268094,-6.823660200000023],[-67.2698666,-6.826278300000014],[-67.2848928,-6.825458599999985],[-67.2959313,-6.814898700000017],[-67.30138820000002,-6.824228799999984],[-67.3221873,-6.82608350000001],[-67.3243558,-6.8190198],[-67.3339807,-6.827109199999971],[-67.3326592,-6.820619100000013],[-67.3418755,-6.811916099999982],[-67.3488094,-6.813123400000027],[-67.3495028,-6.818762100000016],[-67.3420659,-6.826313500000013],[-67.3488408,-6.8319738],[-67.3544822,-6.829195399999968],[-67.3589639,-6.8378927],[-67.3616423,-6.832654900000018],[-67.35655,-6.827890500000017],[-67.3601636,-6.823145],[-67.3711797,-6.823764200000031],[-67.3655259,-6.811742200000021],[-67.3772126,-6.8119465],[-67.3797506,-6.824141399999984],[-67.3743442,-6.831795900000016],[-67.3913849,-6.839015400000011],[-67.3709223,-6.8581012],[-67.3846993,-6.8666652],[-67.380465,-6.853819200000026],[-67.3934852,-6.86088440000001],[-67.3992124,-6.8592615],[-67.4021959,-6.8642848],[-67.39818020000001,-6.867864299999973],[-67.4042469,-6.875544900000016],[-67.405023,-6.869303299999986],[-67.416596,-6.873860600000014],[-67.4121976,-6.881440400000014],[-67.4058776,-6.8823145],[-67.4070044,-6.886375299999971],[-67.4162844,-6.889144499999988],[-67.4128698,-6.9026986],[-67.4187312,-6.903275899999967],[-67.4299282,-6.894081399999982],[-67.4296195,-6.900563500000025],[-67.416002,-6.91065520000002],[-67.4226165,-6.9173125],[-67.4219335,-6.926963899999981],[-67.4174458,-6.9309175],[-67.4195746,-6.9365841],[-67.4137314,-6.939758499999975],[-67.4177674,-6.944403800000023],[-67.4130448,-6.947885100000012],[-67.416469,-6.9519815],[-67.4133027,-6.9544762],[-67.4424054,-6.982778300000029],[-67.5005522,-7.206631799999979],[-67.5009906,-7.261525799999987],[-67.497025,-7.2684903],[-67.5031945,-7.292251500000014],[-67.5156077,-7.302983099999983],[-67.5229085,-7.3253608],[-67.5651375,-7.349317199999982],[-67.5764652,-7.3791762],[-67.6124659,-7.410814899999984],[-67.6259473,-7.4008469],[-67.6417787,-7.3993804],[-67.6446382,-7.3841779],[-67.6517185,-7.380211],[-67.6547232,-7.37254390000001],[-67.6550255,-7.356634299999977],[-67.6684414,-7.3379093],[-67.6756953,-7.341566699999981],[-67.6924386,-7.3377607],[-67.6980477,-7.3313746],[-67.6918265,-7.309334399999979],[-67.7084452,-7.284273400000018],[-67.7092167,-7.268501499999982],[-67.7302781,-7.2567107],[-67.7536939,-7.2613069],[-67.7580568,-7.2679084],[-67.7791901,-7.25731079999997],[-67.7959394,-7.2572904],[-67.8092768,-7.248895200000027],[-67.8320582,-7.2558022],[-67.8394117,-7.25225039999998],[-67.8625819,-7.2610791],[-67.8778573,-7.2570818],[-67.8845835,-7.271138899999979],[-67.9035086,-7.2603057],[-67.8763279,-7.240555200000021],[-67.882302,-7.2262057],[-67.8821662,-7.2095679],[-67.89541,-7.200536799999984],[-67.8973023,-7.193208900000014],[-67.8918875,-7.187717099999975],[-67.9017213,-7.165636100000028],[-67.9145763,-7.1549544],[-67.9363627,-7.163817499999987],[-67.9473039,-7.151816399999988],[-67.9551891,-7.1496229],[-67.9631626,-7.151506100000012],[-67.9783884,-7.145678900000012],[-68.0005241,-7.150666599999984],[-68.0105782,-7.1384031],[-68.0190268,-7.138673199999987],[-68.0282494,-7.125626900000013],[-68.0415469,-7.117230900000029],[-68.0642761,-7.122964500000028],[-68.0772238,-7.1440687],[-68.08422080000001,-7.147444],[-68.1148069,-7.1465375],[-68.1306337,-7.163684],[-68.1447429,-7.155850700000026],[-68.1560564,-7.1676739],[-68.1725273,-7.1686309],[-68.1782747,-7.163066899999985],[-68.177659,-7.1469659],[-68.1822783,-7.1408918],[-68.1972497,-7.136020099999973],[-68.2094951,-7.145803],[-68.2332795,-7.1523945],[-68.2543837,-7.163839799999979],[-68.2655305,-7.175485100000027],[-68.2731419,-7.177793],[-68.3196051,-7.158926],[-68.3250593,-7.164659],[-68.3332206,-7.1632453],[-68.3454721,-7.1744742],[-68.3606669,-7.1780135],[-68.3766077,-7.175424],[-68.387244,-7.1794443],[-68.3945592,-7.1686249],[-68.40660689999999,-7.176829899999974],[-68.4188047,-7.167108199999975],[-68.4326406,-7.174571399999975],[-68.4343908,-7.166492699999982],[-68.4571373,-7.1575209],[-68.46219779999998,-7.1419564],[-68.48760980000002,-7.161556200000015],[-68.4848353,-7.177163],[-68.491195,-7.191498399999976],[-68.4767239,-7.220417099999973],[-68.4986924,-7.2537662],[-68.5080829,-7.251993799999981],[-68.5193935,-7.241672700000012],[-68.5341662,-7.2470215],[-68.54289,-7.223762199999974],[-68.5750047,-7.21957819999998],[-68.5739454,-7.2118348],[-68.5667778,-7.208998699999978],[-68.5664722,-7.2007136],[-68.5846977,-7.1837764],[-68.5989142,-7.178893499999988],[-68.5934168,-7.1616266],[-68.6055353,-7.142069199999984],[-68.6565303,-7.1039263],[-68.6885538,-7.1022177]]]}}]}