{"type":"FeatureCollection","name":"Região do Médio Amazonas","features":[{"type":"Feature","properties":{"CD_MUN":"1303536","NM_MUN":"Presidente Figueiredo","SIGLA_UF":"AM","CodigoIBGE":"1303536","SubRegiaoNumero":8,"CalhaSubRegiao":"Região do Médio Amazonas"},"geometry":{"type":"Polygon","coordinates":[[[-59.7147673,-2.060174699999975],[-59.7151016,-2.083175900000047],[-59.7112997,-2.0910024],[-59.7146036,-2.099259200000078],[-59.710819,-2.117670900000057],[-59.704825,-2.124303500000069],[-59.70435,-2.144364600000018],[-59.6986856,-2.152307400000052],[-59.7009307,-2.16349],[-59.71231310000001,-2.185608300000077],[-59.7518537,-2.214910599999961],[-59.7785702,-2.192602199999935],[-59.7845257,-2.1799413],[-59.7939435,-2.179466900000041],[-59.7905979,-2.171837100000061],[-59.79827370000001,-2.168328899999929],[-59.8008592,-2.162067799999927],[-59.8210858,-2.159218800000071],[-59.8211357,-2.153813699999931],[-59.8320898,-2.148122299999967],[-59.8395963,-2.152850699999964],[-59.8534811,-2.14082809999993],[-59.8620416,-2.145472399999945],[-59.8676192,-2.138399299999942],[-59.8673307,-2.126745799999938],[-59.8763108,-2.1324872],[-59.8793504,-2.127256300000016],[-59.8956688,-2.129173800000078],[-59.8990133,-2.133799199999983],[-59.9094901,-2.129608600000054],[-59.9271239,-2.132413500000061],[-59.9332151,-2.1222739],[-59.9484263,-2.125893499999985],[-59.9565124,-2.117121699999936],[-59.9642908,-2.12137460000003],[-59.9636132,-2.115507400000011],[-59.9722124,-2.1232273],[-59.9736864,-2.119584200000073],[-59.9690892,-2.116305899999976],[-59.9773277,-2.1194162],[-59.9786797,-2.11393169999997],[-59.983573,-2.118274400000013],[-59.9895167,-2.114747500000064],[-60.0004884,-2.1201904],[-60.0124729,-2.110601399999924],[-60.0148393,-2.101849300000064],[-60.0243906,-2.098637800000086],[-60.0413152,-2.098085],[-60.0508974,-2.102654400000011],[-60.0605856,-2.087868100000022],[-60.0697529,-2.087688],[-60.0834781,-2.076367100000025],[-60.0912827,-2.059988500000052],[-60.1067325,-2.061737699999913],[-60.1332248,-2.043370700000013],[-60.1486997,-2.04209679999998],[-60.1596729,-2.027579500000078],[-60.1678081,-2.027657299999956],[-60.2047245,-2.004048],[-60.21848,-2.00004],[-60.2329808,-2.003194499999981],[-60.2670573,-1.986496799999963],[-60.297427,-1.957424799999946],[-60.2935041,-1.941635700000032],[-60.281118,-1.9243044],[-60.3397535,-1.952610399999963],[-60.3577562,-1.954464],[-60.4445902,-1.949622100000022],[-60.4537262,-1.936485],[-60.4815028,-1.918226700000039],[-60.5533227,-1.920719100000031],[-60.5715533,-1.915388199999943],[-60.6162428,-1.864287],[-60.6161916,-1.850425599999948],[-60.6092662,-1.835950400000024],[-60.61982480000001,-1.822357300000053],[-60.6174695,-1.811580300000063],[-60.6250918,-1.792016099999913],[-60.625212,-1.766518200000039],[-60.6210502,-1.75330179999992],[-60.6244498,-1.7446158],[-60.6162305,-1.723182900000026],[-60.6211986,-1.710569599999972],[-60.6172749,-1.707778900000074],[-60.6225789,-1.7025663],[-60.6229241,-1.692992099999926],[-60.6275075,-1.692090200000055],[-60.6210827,-1.684974300000083],[-60.6118957,-1.653320699999893],[-60.6133958,-1.645968400000099],[-60.6079357,-1.64430189999994],[-60.6072298,-1.637078600000067],[-60.61174050000001,-1.634596899999959],[-60.6036531,-1.630971600000052],[-60.5983994,-1.633236899999887],[-60.5967078,-1.620182300000031],[-60.5812118,-1.604276700000017],[-60.58459,-1.593721399999981],[-60.57955720000001,-1.5875591],[-60.5806053,-1.575443699999936],[-60.5898348,-1.5642843],[-60.5895983,-1.5509025],[-60.611129,-1.534061400000031],[-60.6157004,-1.524976299999902],[-60.6239426,-1.524404700000058],[-60.6277314,-1.515828400000095],[-60.65431490000001,-1.5077083],[-60.66058360000001,-1.497341599999975],[-60.6670108,-1.498312600000022],[-60.6709242,-1.488009899999982],[-60.7161318,-1.468229699999947],[-60.7260916,-1.458328899999941],[-60.73789759999999,-1.455899],[-60.7503987,-1.445622800000074],[-60.7888447,-1.44121690000007],[-60.8062898,-1.4477014],[-60.8230513,-1.473973600000043],[-60.8369514,-1.47412750000008],[-60.8286017,-1.439657400000065],[-60.8358418,-1.434570599999884],[-60.854241,-1.434289800000092],[-60.8598819,-1.427626499999973],[-60.8555787,-1.419190499999893],[-60.8364174,-1.406903300000062],[-60.847612,-1.35933530000002],[-60.8625115,-1.344644],[-60.8826746,-1.333421700000085],[-60.8839748,-1.315185700000133],[-60.8881102,-1.309272400000069],[-60.9129316,-1.306593099999879],[-60.9297909,-1.317605300000076],[-60.9433258,-1.312952100000053],[-60.9582554,-1.317641400000129],[-60.9634788,-1.311605300000103],[-60.9529508,-1.280039099999942],[-60.9328183,-1.279099400000021],[-60.9285545,-1.2645987],[-60.9059154,-1.251277100000068],[-60.8874715,-1.264523099999956],[-60.8729644,-1.259064999999864],[-60.8638655,-1.262934200000044],[-60.8556914,-1.261222500000107],[-60.8419611,-1.239269000000113],[-60.8548396,-1.22768980000011],[-60.856398,-1.2173926],[-60.8448347,-1.216367799999952],[-60.840082,-1.209251300000106],[-60.8522566,-1.194806],[-60.8514576,-1.177287099999891],[-60.8462312,-1.170728899999877],[-60.8627068,-1.140068900000011],[-60.8572926,-1.1332757],[-60.8448098,-1.143891699999982],[-60.8368677,-1.144171900000089],[-60.8267592,-1.124906000000115],[-60.82428070000001,-1.109960799999887],[-60.8277603,-1.091390199999982],[-60.8212593,-1.085578100000141],[-60.7915972,-1.091705499999954],[-60.7835032,-1.088294199999891],[-60.7776503,-1.07854369999984],[-60.7560048,-1.078016999999844],[-60.7582,-1.067539600000044],[-60.7774554,-1.051133900000099],[-60.79499650000001,-1.023586000000118],[-60.7993953,-0.999520000000164],[-60.78828510000001,-0.993409400000151],[-60.7821746,-0.937857600000066],[-60.7713368,-0.894526499999809],[-60.7763435,-0.875630400000126],[-60.7620092,-0.848589099999935],[-60.7660404,-0.857969899999874],[-60.7609097,-0.863515300000158],[-60.7516501,-0.862513700000094],[-60.748987,-0.854501],[-60.7402404,-0.858556200000147],[-60.7356472,-0.852131399999887],[-60.7285131,-0.853035199999889],[-60.7271449,-0.859484499999814],[-60.7360625,-0.862147300000048],[-60.7347432,-0.86649570000003],[-60.7119238,-0.858580699999891],[-60.6969226,-0.8690852000001],[-60.6842669,-0.8654697],[-60.6724908,-0.870013499999836],[-60.6691192,-0.887944400000048],[-60.6510396,-0.872260899999837],[-60.6381884,-0.873824399999861],[-60.6328134,-0.861463300000053],[-60.6198645,-0.863075600000011],[-60.6206952,-0.851545100000097],[-60.5959213,-0.866251399999852],[-60.5935758,-0.850519],[-60.586344,-0.843043700000135],[-60.5723201,-0.850567899999882],[-60.5581984,-0.850763300000093],[-60.5563905,-0.862538199999947],[-60.5453961,-0.861951900000073],[-60.5362098,-0.869476000000138],[-60.5191319,-0.859509],[-60.5028602,-0.840698500000031],[-60.5039352,-0.833027699999844],[-60.5185455,-0.825796599999918],[-60.506525,-0.814803399999823],[-60.4994398,-0.816464599999966],[-60.4932341,-0.811432099999921],[-60.49030230000001,-0.790520499999833],[-60.4978273,-0.780650899999823],[-60.4748613,-0.761595799999786],[-60.4632317,-0.7629638999998],[-60.4559999,-0.76877809999988],[-60.4473999,-0.7644297000002],[-60.4305419,-0.765993200000024],[-60.4263396,-0.77117219999989],[-60.4178373,-0.764038800000035],[-60.4178862,-0.756612100000087],[-60.4129509,-0.758517699999975],[-60.3968259,-0.748110600000156],[-60.3918907,-0.754657800000031],[-60.3851963,-0.753582899999904],[-60.3807986,-0.745569900000118],[-60.3835838,-0.739120399999973],[-60.3735668,-0.731840299999943],[-60.3662372,-0.735358200000015],[-60.3634031,-0.743322300000217],[-60.3567576,-0.733745799999943],[-60.3466917,-0.739608999999759],[-60.3236769,-0.717133500000078],[-60.3106791,-0.7175732],[-60.3041314,-0.700423399999829],[-60.30681890000001,-0.694267],[-60.3027143,-0.690309299999963],[-60.3117052,-0.682003099999916],[-60.305353,-0.666465500000207],[-60.31874160000001,-0.651367600000239],[-60.3152723,-0.636465099999832],[-60.3203053,-0.632067600000273],[-60.3294428,-0.634950399999822],[-60.3442974,-0.618777499999733],[-60.3536303,-0.617360500000159],[-60.3603247,-0.598402400000173],[-60.369169,-0.589314200000133],[-60.3678497,-0.581789600000174],[-60.3815315,-0.588483599999891],[-60.3887145,-0.574118399999768],[-60.3765474,-0.569818599999825],[-60.381727,-0.565469900000158],[-60.38397470000001,-0.552081900000267],[-60.3951157,-0.549687700000327],[-60.400002,-0.53009419999997],[-60.39751,-0.522764900000214],[-60.4055725,-0.515435700000154],[-60.3977054,-0.502145299999848],[-60.3877372,-0.496233000000232],[-60.391402,-0.489392300000136],[-60.3837304,-0.476248400000279],[-60.3826554,-0.459244400000108],[-60.3790395,-0.461687499999917],[-60.3782088,-0.457583099999817],[-60.3679963,-0.450400300000179],[-60.3647224,-0.4522571],[-60.3451769,-0.435448500000063],[-60.3433201,-0.425138500000059],[-60.3478644,-0.419421599999581],[-60.3431735,-0.417613700000426],[-60.3484019,-0.41228770000022],[-60.3506985,-0.414877399999884],[-60.3499656,-0.411994500000123],[-60.3462519,-0.40989339999996],[-60.352311,-0.406815099999718],[-60.3374076,-0.390494999999555],[-60.3401439,-0.38697690000003],[-60.3371633,-0.381748599999585],[-60.3267553,-0.380917899999617],[-60.3249962,-0.362545499999921],[-60.3194746,-0.358196700000067],[-60.3191325,-0.3485219000005],[-60.3263644,-0.338993599999831],[-60.3241655,-0.33273920000052],[-60.303545,-0.32497],[-60.306428,-0.317493900000038],[-60.3016882,-0.306499800000052],[-60.3034961,-0.301320300000459],[-60.2925506,-0.29462600000058],[-60.2972904,-0.282068200000433],[-60.3014438,-0.281433],[-60.3022257,-0.270829699999855],[-60.307112,-0.271415999999712],[-60.3103371,-0.263988799999607],[-60.3034961,-0.25851610000054],[-60.3009063,-0.260812700000563],[-60.30242109999999,-0.255877499999679],[-60.2965086,-0.249525300000445],[-60.3001245,-0.242440099999333],[-60.2964597,-0.241120800000195],[-60.2945052,-0.224849299999924],[-60.3034473,-0.210336899999876],[-60.2972904,-0.210532299999976],[-60.2969972,-0.2062324000008],[-60.2921597,-0.215956199999629],[-60.2860029,-0.208333500000236],[-60.2805302,-0.209066399999813],[-60.2775983,-0.193185800000455],[-60.2668483,-0.195629000000295],[-60.2688029,-0.176523400000448],[-60.2575153,-0.17310289999968],[-60.255121,-0.176621100000883],[-60.2571244,-0.170562000000116],[-60.2430028,-0.158883600000553],[-60.2394357,-0.149355199999275],[-60.2355755,-0.150136999999097],[-60.2374812,-0.145885899998774],[-60.2317641,-0.148573399998904],[-60.2273664,-0.146374500000278],[-60.22893,-0.140999499998762],[-60.2211607,-0.14197680000052],[-60.2274641,-0.129712100000964],[-60.2325948,-0.128832499998961],[-60.2276107,-0.121710599999481],[-60.1800389,-0.085528800002093],[-60.1533666,-0.089358999998125],[-60.1226498,-0.079650900001326],[-60.0825021,-0.048070000002565],[-60.0633969,-0.050836999998361],[-60.02350460000001,-0.043134899995989],[-60.005174,-0.048141499999207],[-59.9855874,-0.060946600002139],[-59.9628014,-0.058563799997773],[-59.9528094,-0.04991],[-59.9759725,-0.037822899998429],[-59.9723743,-0.030994499994659],[-59.96121010000001,-0.032092500003611],[-59.9511071,-0.038931000004247],[-59.9359193,-0.039210899999937],[-59.92898850000001,-0.034259500000834],[-59.93514230000001,-0.022964800000447],[-59.9306773,-0.014868399991699],[-59.9393288,-0.000345600290741],[-59.9426978,0.015826500009086],[-59.9557778,0.028564500003699],[-59.9571878,0.037417999997897],[-59.9477232,0.038235399999167],[-59.933275,0.029920400004536],[-59.9169142,0.033538399998349],[-59.9032646,0.022149800004722],[-59.8934491,-0.005349099967342],[-59.8805549,-0.015530900000565],[-59.8645351,-0.04664050000088],[-59.8640642,-0.070766800000529],[-59.8790684,-0.087251999998036],[-59.8804416,-0.096144299999079],[-59.8752092,-0.103313299998623],[-59.8747683,-0.113219000000173],[-59.892578,-0.101940899999417],[-59.9194453,-0.125959100000381],[-59.9134065,-0.150050400000296],[-59.9022494,-0.156918000000908],[-59.8730253,-0.163421400000909],[-59.84756260000001,-0.181776400000837],[-59.8104776,-0.230011300000438],[-59.8079557,-0.248472799999336],[-59.8387438,-0.267571800000483],[-59.8444089,-0.284671599999929],[-59.8430555,-0.307558799999897],[-59.8499621,-0.312912399999839],[-59.85207650000001,-0.325187],[-59.8463683,-0.335471599999529],[-59.8535489,-0.36890080000016],[-59.8626391,-0.366164400000182],[-59.8531953,-0.392133499999936],[-59.8373836,-0.389427500000112],[-59.8318462,-0.39841739999963],[-59.8313147,-0.411340799999732],[-59.8385854,-0.416872900000037],[-59.8480313,-0.442523200000373],[-59.8573688,-0.447264099999827],[-59.87019,-0.469292700000026],[-59.8795556,-0.465333800000266],[-59.8826048,-0.456851599999673],[-59.8928663,-0.455384099999919],[-59.9258576,-0.484625899999927],[-59.9294436,-0.497607299999957],[-59.9541333,-0.515576600000104],[-59.9567433,-0.525431499999655],[-59.9502045,-0.530536000000172],[-59.9676402,-0.568876700000222],[-60.000945,-0.569551799999754],[-60.0087121,-0.572868800000108],[-60.0119171,-0.581018400000056],[-60.0213966,-0.580990300000248],[-60.0356478,-0.589007999999809],[-60.0384185,-0.596532500000036],[-60.022437,-0.617216699999732],[-60.0217165,-0.62669059999997],[-60.0268884,-0.633717699999902],[-60.0360259,-0.635343799999824],[-60.0249925,-0.661486899999881],[-60.0335071,-0.663518999999735],[-60.0455329,-0.650941500000266],[-60.0533055,-0.650087700000232],[-60.0542705,-0.675992300000232],[-60.0468936,-0.68149639999982],[-60.0455436,-0.700014600000139],[-60.0301404,-0.727159099999969],[-60.0342403,-0.744488099999922],[-60.0131825,-0.783977299999957],[-60.013701,-0.790128799999871],[-60.0103651,-0.794797899999946],[-60.0104394,-0.791611099999775],[-60.0051025,-0.791536799999811],[-59.9993183,-0.79823370000022],[-59.9804675,-0.82982280000021],[-59.9665486,-0.834242300000036],[-59.9648767,-0.844005499999837],[-59.957766,-0.843348700000025],[-59.9452781,-0.855056700000085],[-59.93042890000001,-0.851706299999918],[-59.918815,-0.857426199999943],[-59.9112562,-0.869188799999843],[-59.9069561,-0.867801700000181],[-59.9046437,-0.872841100000168],[-59.8936391,-0.876169100000135],[-59.9029917,-0.888782999999801],[-59.8854581,-0.899661100000048],[-59.8677267,-0.901282599999806],[-59.8657307,-0.906915999999843],[-59.85681670000001,-0.910876500000108],[-59.8406808,-0.94312709999985],[-59.8421762,-0.96959159999986],[-59.8185879,-0.997963200000076],[-59.8240062,-1.001339900000046],[-59.8230895,-1.007280999999833],[-59.8088477,-1.016892299999967],[-59.8061319,-1.014623700000086],[-59.8047995,-1.025790899999928],[-59.7899969,-1.037491100000064],[-59.7864812,-1.045449700000028],[-59.773761,-1.047935999999843],[-59.7560273,-1.0597003],[-59.74941470000001,-1.054976900000099],[-59.7426608,-1.066283399999971],[-59.7439819,-1.076608000000105],[-59.7174595,-1.079876900000055],[-59.7154641,-1.085310600000138],[-59.7210493,-1.097207],[-59.7129314,-1.095558600000082],[-59.700286,-1.104837800000124],[-59.692374,-1.094786],[-59.6880199,-1.096865600000052],[-59.6877324,-1.090432499999846],[-59.6736486,-1.0892786],[-59.673631,-1.075240800000077],[-59.6687978,-1.065786800000025],[-59.6676332,-1.070152300000085],[-59.6591963,-1.0721624],[-59.6580743,-1.068801999999841],[-59.6504915,-1.075448200000157],[-59.6400526,-1.0756346],[-59.6311022,-1.0810773999999],[-59.6343406,-1.09099330000016],[-59.6271713,-1.0932828],[-59.6217474,-1.105138399999916],[-59.6139594,-1.109899800000138],[-59.380618,-1.106673499999944],[-59.3754717,-1.133849200000081],[-59.3828377,-1.137284800000056],[-59.3797214,-1.147744000000119],[-59.3841963,-1.175882],[-59.3725854,-1.193769899999988],[-59.3733622,-1.236683500000129],[-59.3619722,-1.250752799999905],[-59.3594776,-1.261616799999885],[-59.3654748,-1.2679],[-59.3755906,-1.265760400000098],[-59.3819794,-1.258446900000066],[-59.3936541,-1.261529],[-59.4048213,-1.258544500000037],[-59.4353437,-1.279619899999964],[-59.44383650000001,-1.296834999999899],[-59.4424833,-1.319310799999895],[-59.4680928,-1.335503100000024],[-59.4723707,-1.3555437],[-59.4891895,-1.370703800000084],[-59.4945898,-1.385886900000054],[-59.504122,-1.389428599999891],[-59.5202617,-1.420052299999973],[-59.5193767,-1.432909699999978],[-59.5037956,-1.444746],[-59.4916775,-1.443067699999978],[-59.4862511,-1.4539987],[-59.45874770000001,-1.43496010000005],[-59.4378368,-1.434764200000034],[-59.4249322,-1.451072500000126],[-59.4109012,-1.445744700000039],[-59.3986825,-1.447453],[-59.3921729,-1.45310470000013],[-59.3697374,-1.452364999999886],[-59.3597518,-1.459039999999898],[-59.3347878,-1.457256300000101],[-59.331892,-1.46504299999989],[-59.3349993,-1.472167099999964],[-59.3301961,-1.48193490000002],[-59.3053891,-1.483909],[-59.2981966,-1.474838499999943],[-59.2962237,-1.454058799999941],[-59.2705247,-1.431209400000108],[-59.2621146,-1.437399300000088],[-59.2301839,-1.4379024],[-59.2339579,-1.449961600000069],[-59.1913631,-1.446431100000015],[-59.1878051,-1.454117399999928],[-59.2006618,-1.469449900000102],[-59.1866076,-1.472994299999922],[-59.170857,-1.485518799999899],[-59.1514085,-1.515907299999894],[-59.1564662,-1.545295900000068],[-59.150135,-1.550004900000095],[-59.1503252,-1.562074800000069],[-59.1416885,-1.565112500000039],[-59.1363802,-1.584905500000082],[-59.1272968,-1.589371399999964],[-59.1324922,-1.601058099999891],[-59.1275756,-1.607528699999915],[-59.14266,-1.620101599999932],[-59.1379926,-1.629481900000076],[-59.1403289,-1.643086799999909],[-59.1679695,-1.6592817],[-59.1675783,-1.677720599999929],[-59.1796354,-1.677084300000055],[-59.1804096,-1.687442599999987],[-59.1960287,-1.710774300000028],[-59.1986641,-1.731094599999973],[-59.2177497,-1.781246600000043],[-59.2117058,-1.788960400000049],[-59.2193312,-1.818978499999951],[-59.2266897,-1.8265492],[-59.2460575,-1.8265738],[-59.2517462,-1.833175399999945],[-59.2507719,-1.844518100000072],[-59.2445301,-1.851614099999984],[-59.2456665,-1.8623735],[-59.2360336,-1.864623899999965],[-59.2230513,-1.882742200000083],[-59.2224439,-1.899586200000083],[-59.2135192,-1.901263099999989],[-59.2038033,-1.918026199999948],[-59.201832,-1.940385],[-59.1922201,-1.9480989],[-59.1840176,-1.947919799999936],[-59.1613138,-1.960211900000059],[-59.1550726,-1.96705760000006],[-59.1623034,-1.985517400000052],[-59.1240798,-2.007328200000024],[-59.1147195,-2.032452599999946],[-59.119377,-2.041375100000025],[-59.11280150000001,-2.077327300000087],[-59.1284412,-2.100716399999917],[-59.1324775,-2.150181200000057],[-59.1384361,-2.165770699999976],[-59.1439864,-2.171921700000047],[-59.1609938,-2.168985],[-59.1796037,-2.185143300000039],[-59.1824231,-2.201104],[-59.1787078,-2.210244300000082],[-59.160898,-2.21024149999996],[-59.1456336,-2.217103099999986],[-59.1450234,-2.224696400000071],[-59.163165,-2.232902199999968],[-59.1538,-2.248510899999912],[-59.1442467,-2.249669599999983],[-59.1387774,-2.231497899999944],[-59.1293846,-2.223706099999987],[-59.1109915,-2.22377989999995],[-59.1058837,-2.244136900000063],[-59.0824461,-2.275974600000039],[-59.08781230000001,-2.284882500000079],[-59.1095864,-2.297403200000063],[-59.1333387,-2.341328499999931],[-59.1729971,-2.385801900000045],[-59.2720021,-2.44762],[-59.2750738,-2.464588299999941],[-59.2721801,-2.473640200000069],[-59.2767968,-2.480105600000055],[-59.29405849999998,-2.476168099999956],[-59.3006682,-2.4718751],[-59.3007214,-2.462852],[-59.2871388,-2.452126],[-59.290943,-2.434009],[-59.3281658,-2.39896],[-59.331003,-2.3816684],[-59.3478711,-2.370061399999947],[-59.375392,-2.3721031],[-59.38826670000001,-2.36205],[-59.4278454,-2.371096],[-59.43564090000001,-2.367736099999932],[-59.4354243,-2.350902400000011],[-59.4505037,-2.32349880000003],[-59.46829180000001,-2.311185800000034],[-59.48807990000001,-2.3069828],[-59.5001492,-2.3115362],[-59.5064012,-2.305251100000036],[-59.5095441,-2.279892600000022],[-59.5222019,-2.268901700000014],[-59.5199849,-2.251822299999973],[-59.5396017,-2.227803300000088],[-59.5570677,-2.221410600000042],[-59.5617343,-2.19508850000003],[-59.5716817,-2.182047],[-59.5912145,-2.175710099999964],[-59.6086266,-2.176435600000059],[-59.6164976,-2.167623],[-59.6278251,-2.163637100000075],[-59.6317361,-2.15599250000002],[-59.6233691,-2.141427099999944],[-59.6575965,-2.115613600000018],[-59.6698595,-2.116768500000074],[-59.6770727,-2.111902299999928],[-59.6726301,-2.076237100000066],[-59.6786814,-2.069142],[-59.6767132,-2.051537499999975],[-59.6837504,-2.045878100000074],[-59.6920508,-2.045894600000085],[-59.7095261,-2.051939],[-59.7147673,-2.060174699999975]]]}},{"type":"Feature","properties":{"CD_MUN":"1304005","NM_MUN":"Silves","SIGLA_UF":"AM","CodigoIBGE":"1304005","SubRegiaoNumero":8,"CalhaSubRegiao":"Região do Médio Amazonas"},"geometry":{"type":"Polygon","coordinates":[[[-58.3776921,-3.0890726],[-58.3818022,-3.087191100000041],[-58.3849438,-3.091877],[-58.3889747,-3.084600499999971],[-58.3792144,-3.078412599999982],[-58.3717767,-3.066722800000038],[-58.3825641,-3.045846099999947],[-58.3776001,-3.035800899999981],[-58.3815698,-3.033243499999972],[-58.3813931,-3.026059799999962],[-58.3891017,-3.0225518],[-58.3939742,-3.032719700000055],[-58.4033198,-3.036884200000036],[-58.4015006,-3.044957300000041],[-58.4126327,-3.04536439999995],[-58.4055983,-3.042740600000051],[-58.3995573,-3.025818299999986],[-58.3878438,-3.017438799999984],[-58.388201,-3.008508499999967],[-58.3997897,-3.00575049999996],[-58.4030522,-3.000098800000042],[-58.4745076,-2.97696210000003],[-58.5041966,-2.998051399999984],[-58.5312936,-3.003051299999961],[-58.54620950000001,-3.010795899999979],[-58.5625746,-3.005550300000015],[-58.59611,-3.029128800000036],[-58.6300354,-3.038344900000011],[-58.6709444,-3.022675899999944],[-58.6842995,-3.01121190000005],[-58.7049929,-3.005548099999979],[-58.7847485,-2.959790699999975],[-58.81542730000001,-2.934717799999979],[-58.8706966,-2.908476300000017],[-58.8776444,-2.892604399999954],[-58.8646993,-2.872970199999971],[-58.8610119,-2.856448899999936],[-58.87617250000001,-2.8553141],[-58.8928723,-2.824602599999988],[-58.9001432,-2.819255699999949],[-58.901671,-2.81017570000005],[-58.9153463,-2.800477200000013],[-58.9049824,-2.7779126],[-58.915595,-2.764864799999986],[-58.9384325,-2.75636449999994],[-58.9644018,-2.766167],[-58.960065,-2.772420799999955],[-58.9644562,-2.779411799999964],[-58.9889346,-2.774083199999936],[-58.9899323,-2.746184500000023],[-58.9838459,-2.731299399999932],[-58.99014970000001,-2.72681270000002],[-58.98968210000001,-2.718100899999963],[-58.9844004,-2.7108801],[-58.9839001,-2.700718700000027],[-58.9875141,-2.693793699999944],[-58.9967111,-2.692864099999952],[-59.011545,-2.702669799999974],[-59.0268749,-2.697226299999956],[-59.0235998,-2.690276],[-59.0334893,-2.665378500000064],[-59.0267079,-2.638541200000062],[-59.0310227,-2.631180700000024],[-59.0483749,-2.62380549999994],[-59.0512665,-2.586993499999965],[-59.03982709999999,-2.595556700000024],[-59.0383238,-2.6033209],[-59.0219564,-2.606424],[-59.0118492,-2.574569899999962],[-58.9973452,-2.5749431],[-58.9881777,-2.560629],[-58.973713,-2.563676499999974],[-58.9591413,-2.558102899999981],[-58.9473249,-2.5651483],[-58.9444359,-2.574765900000019],[-58.9259785,-2.5701161],[-58.9184255,-2.586115],[-58.8993696,-2.5895795],[-58.8874724,-2.571152700000058],[-58.879986,-2.572943900000045],[-58.8498295,-2.602439099999973],[-58.8239504,-2.596373700000016],[-58.8178304,-2.586929499999934],[-58.8022099,-2.597660600000055],[-58.7905325,-2.596756899999982],[-58.7888798,-2.587710699999958],[-58.7805296,-2.588204500000018],[-58.7663613,-2.596617699999936],[-58.757675,-2.59383320000004],[-58.7512562,-2.598875500000067],[-58.7502887,-2.608483799999984],[-58.7206723,-2.616751200000027],[-58.7165001,-2.632412399999947],[-58.7001323,-2.65238159999995],[-58.6845798,-2.663242200000026],[-58.6753363,-2.657590799999977],[-58.6635545,-2.6587071],[-58.6393187,-2.675698799999974],[-58.5882142,-2.679526],[-58.5542845,-2.692141299999942],[-58.5451572,-2.690126300000054],[-58.5271575,-2.701526500000066],[-58.5113558,-2.704985100000013],[-58.5033021,-2.702717],[-58.4999612,-2.677256599999967],[-58.48490730000001,-2.685259300000028],[-58.4762628,-2.679456799999953],[-58.4701796,-2.661741],[-58.4552423,-2.6524499],[-58.4266837,-2.656936400000028],[-58.4168514,-2.654786],[-58.4050328,-2.6409911],[-58.3997862,-2.6472854],[-58.3926555,-2.642614699999986],[-58.3912068,-2.6344207],[-58.3802881,-2.622387099999924],[-58.3596787,-2.619212100000052],[-58.3585517,-2.611352],[-58.3510854,-2.604847399999982],[-58.3372303,-2.62513],[-58.3293951,-2.625664],[-58.3188726,-2.620880399999983],[-58.3138943,-2.6132477],[-58.3044051,-2.611588599999987],[-58.2942823,-2.621374600000052],[-58.2727477,-2.620277799999972],[-58.2660838,-2.6281052],[-58.2545384,-2.626576299999951],[-58.2362558,-2.6497583],[-58.2234687,-2.645161799999977],[-58.2149402,-2.648148199999928],[-58.2057847,-2.661156199999947],[-58.1955745,-2.664713099999986],[-58.1850874,-2.681791900000031],[-58.1815307,-2.705221299999939],[-58.1874635,-2.720632],[-58.1825571,-2.731888199999954],[-58.1830929,-2.743480800000052],[-58.1608724,-2.761005200000021],[-58.1590853,-2.779004799999948],[-58.1410644,-2.798476400000011],[-58.1409755,-2.806419699999987],[-58.1019338,-2.877941800000027],[-58.1298278,-2.915419199999965],[-58.1476858,-2.986830099999946],[-58.1622197,-3.018867799999978],[-58.1771352,-3.0352467],[-58.2453351,-3.082800299999959],[-58.3176222,-3.1087772],[-58.3758967,-3.144602699999978],[-58.3804501,-3.136672899999981],[-58.3776921,-3.0890726]]]}},{"type":"Feature","properties":{"CD_MUN":"1302009","NM_MUN":"Itapiranga","SIGLA_UF":"AM","CodigoIBGE":"1302009","SubRegiaoNumero":8,"CalhaSubRegiao":"Região do Médio Amazonas"},"geometry":{"type":"Polygon","coordinates":[[[-58.0150822,-2.648356900000015],[-57.9845104,-2.6431038],[-57.9735293,-2.635404399999941],[-57.9727277,-2.6176541],[-57.9827949,-2.609405699999978],[-57.9790435,-2.6003249],[-57.917282,-2.580067099999942],[-57.8884241,-2.5770273],[-57.8521558,-2.580695799999959],[-57.8561198,-2.5890032],[-57.889021,-2.60890009999993],[-57.9357166,-2.617727899999936],[-57.961741,-2.666608399999947],[-57.9643223,-2.677644],[-57.9607477,-2.6835849],[-57.9524239,-2.6681887],[-57.9438875,-2.662725300000057],[-57.9362835,-2.6620144],[-57.9300536,-2.670342199999955],[-57.9254183,-2.695032800000031],[-57.9440155,-2.706511599999944],[-57.9319202,-2.723508200000011],[-57.9321428,-2.729164600000012],[-57.9594824,-2.747341200000034],[-57.9538638,-2.748116600000066],[-57.9420389,-2.762603899999972],[-57.9171597,-2.758055800000029],[-57.9274029,-2.770192100000045],[-57.9466464,-2.7882551],[-57.9673728,-2.800335899999947],[-57.9914321,-2.805828499999984],[-58.04015,-2.807516500000034],[-58.0704244,-2.820938600000036],[-58.1007433,-2.844163099999977],[-58.1104152,-2.859197800000029],[-58.1409755,-2.806419699999987],[-58.1410644,-2.798476400000011],[-58.1590853,-2.779004799999948],[-58.1608724,-2.761005200000021],[-58.1830929,-2.743480800000052],[-58.1825571,-2.731888199999954],[-58.1874635,-2.720632],[-58.1813569,-2.696749899999972],[-58.1896857,-2.6733773],[-58.1955745,-2.664713099999986],[-58.21147160000001,-2.656076100000064],[-58.2149402,-2.648148199999928],[-58.2234687,-2.645161799999977],[-58.2362558,-2.6497583],[-58.2545384,-2.626576299999951],[-58.2660838,-2.6281052],[-58.2727477,-2.620277799999972],[-58.2942823,-2.621374600000052],[-58.3044051,-2.611588599999987],[-58.3138943,-2.6132477],[-58.3188726,-2.620880399999983],[-58.3293951,-2.625664],[-58.3372303,-2.62513],[-58.3510854,-2.604847399999982],[-58.3585517,-2.611352],[-58.3596787,-2.619212100000052],[-58.3802881,-2.622387099999924],[-58.3912068,-2.6344207],[-58.3926555,-2.642614699999986],[-58.3997862,-2.6472854],[-58.4050328,-2.6409911],[-58.4168514,-2.654786],[-58.4266837,-2.656936400000028],[-58.4552423,-2.6524499],[-58.4701796,-2.661741],[-58.4762628,-2.679456799999953],[-58.48490730000001,-2.685259300000028],[-58.4999612,-2.677256599999967],[-58.5033021,-2.702717],[-58.5113558,-2.704985100000013],[-58.5271575,-2.701526500000066],[-58.5451572,-2.690126300000054],[-58.5542845,-2.692141299999942],[-58.5882142,-2.679526],[-58.6393187,-2.675698799999974],[-58.6635545,-2.6587071],[-58.6753363,-2.657590799999977],[-58.6845798,-2.663242200000026],[-58.7001323,-2.65238159999995],[-58.7165001,-2.632412399999947],[-58.7206723,-2.616751200000027],[-58.7502887,-2.608483799999984],[-58.7512562,-2.598875500000067],[-58.757675,-2.59383320000004],[-58.7663613,-2.596617699999936],[-58.7805296,-2.588204500000018],[-58.7888798,-2.587710699999958],[-58.7905325,-2.596756899999982],[-58.8022099,-2.597660600000055],[-58.8178304,-2.586929499999934],[-58.8239504,-2.596373700000016],[-58.8498295,-2.602439099999973],[-58.879986,-2.572943900000045],[-58.8874724,-2.571152700000058],[-58.8993696,-2.5895795],[-58.9184255,-2.586115],[-58.9259785,-2.5701161],[-58.9444359,-2.574765900000019],[-58.9473249,-2.5651483],[-58.9591413,-2.558102899999981],[-58.973713,-2.563676499999974],[-58.9881777,-2.560629],[-58.9973452,-2.5749431],[-59.0118492,-2.574569899999962],[-59.0219564,-2.606424],[-59.0383238,-2.6033209],[-59.03982709999999,-2.595556700000024],[-59.0644414,-2.5775462],[-59.0824366,-2.575242299999934],[-59.0891266,-2.56974320000004],[-59.0967015,-2.55610850000003],[-59.1232987,-2.535748399999955],[-59.13103610000001,-2.520388200000058],[-59.1558889,-2.517456300000037],[-59.1694964,-2.508136200000044],[-59.1741717,-2.4846282],[-59.1895588,-2.473745600000069],[-59.2463343,-2.470335],[-59.2534637,-2.474887899999982],[-59.2495693,-2.482357300000053],[-59.275943,-2.4883371],[-59.2767968,-2.480105600000055],[-59.2721801,-2.473640200000069],[-59.27470979999999,-2.457106399999973],[-59.2720021,-2.44762],[-59.259189,-2.436677400000053],[-59.2495487,-2.435573099999981],[-59.1729971,-2.385801900000045],[-59.1333387,-2.341328499999931],[-59.1095864,-2.297403200000063],[-59.08781230000001,-2.284882500000079],[-59.08151,-2.275372900000028],[-59.0653795,-2.272939899999987],[-59.0636134,-2.26237589999992],[-59.0748236,-2.247945099999935],[-59.0708835,-2.238565899999967],[-59.0610068,-2.231666899999945],[-59.0502051,-2.2319904],[-59.0431468,-2.252860899999922],[-59.0289711,-2.244911100000062],[-59.0137253,-2.254503],[-58.9799014,-2.250319],[-58.9697007,-2.253151600000041],[-58.9505553,-2.263745700000056],[-58.9441378,-2.278144],[-58.9391077,-2.280097799999931],[-58.9322068,-2.2768397],[-58.9236035,-2.253244199999981],[-58.9079541,-2.263489799999947],[-58.9091402,-2.2428392],[-58.9054523,-2.235981199999987],[-58.8813342,-2.22957129999992],[-58.8746549,-2.233689600000039],[-58.8710337,-2.248095099999922],[-58.8541575,-2.254148499999928],[-58.8445395,-2.253678],[-58.8334929,-2.240360099999966],[-58.825679,-2.239705099999916],[-58.8177778,-2.247591900000022],[-58.8228337,-2.259243300000069],[-58.8191621,-2.2672732],[-58.7779424,-2.262166799999968],[-58.7704956,-2.265323],[-58.7669928,-2.27595859999995],[-58.7696624,-2.282099899999935],[-58.7648826,-2.289407499999971],[-58.7410111,-2.279038600000026],[-58.7238928,-2.280527699999961],[-58.7230706,-2.29759069999994],[-58.7351713,-2.309629100000062],[-58.7430443,-2.327629299999941],[-58.7413123,-2.337060500000044],[-58.7247975,-2.345175199999954],[-58.68503050000001,-2.338980400000068],[-58.6659036,-2.317008299999943],[-58.607942,-2.288687300000043],[-58.5594521,-2.315370500000045],[-58.548349,-2.309524699999979],[-58.5170591,-2.306497200000064],[-58.4988242,-2.297012499999926],[-58.47741090000001,-2.292696599999958],[-58.4589235,-2.29890810000001],[-58.4464929,-2.309943199999954],[-58.4025674,-2.316856399999944],[-58.3922338,-2.33500880000004],[-58.3675479,-2.334801600000068],[-58.3578263,-2.340990200000023],[-58.3367535,-2.399345600000031],[-58.3248217,-2.410677599999965],[-58.29635110000001,-2.406997800000021],[-58.2893682,-2.4009773],[-58.28501030000001,-2.3883164],[-58.2593171,-2.396643800000049],[-58.2543896,-2.4093885],[-58.2555186,-2.429542199999966],[-58.2824453,-2.4668132],[-58.2727098,-2.475311499999989],[-58.2631186,-2.4763277],[-58.2570561,-2.487422400000063],[-58.2469795,-2.489402900000047],[-58.2261367,-2.515128800000014],[-58.2085513,-2.52016],[-58.1838949,-2.5558843],[-58.1788321,-2.571020299999947],[-58.1655785,-2.5758246],[-58.1512697,-2.589574500000052],[-58.1319033,-2.595642799999969],[-58.0969118,-2.61618],[-58.0894096,-2.616141],[-58.0687876,-2.631819400000055],[-58.0150822,-2.648356900000015]]]}},{"type":"Feature","properties":{"CD_MUN":"1302900","NM_MUN":"Maués","SIGLA_UF":"AM","CodigoIBGE":"1302900","SubRegiaoNumero":8,"CalhaSubRegiao":"Região do Médio Amazonas"},"geometry":{"type":"Polygon","coordinates":[[[-57.3261496,-3.588051200000045],[-57.3004586,-3.595763500000043],[-57.2948158,-3.61096980000002],[-57.266788,-3.607055200000024],[-57.2538448,-3.624986799999989],[-57.2583133,-3.651146100000046],[-57.2451434,-3.673858100000035],[-57.2310051,-3.66500690000001],[-57.225421,-3.671653499999948],[-57.2000277,-3.676739],[-57.1902262,-3.662389499999979],[-57.1818617,-3.659494599999954],[-57.1468584,-3.661505600000028],[-57.1329121,-3.637524300000016],[-57.1166889,-3.631683099999955],[-57.1150523,-3.6216374],[-57.122078,-3.602001],[-57.1141884,-3.595279900000028],[-57.0884121,-3.601771],[-57.064049,-3.592236899999967],[-57.0227652,-3.602361900000012],[-57.0070096,-3.596209900000012],[-56.9897365,-3.576676599999981],[-56.9741776,-3.583780699999962],[-56.965064,-3.582536899999987],[-56.9482623,-3.577732300000036],[-56.9299515,-3.5607477],[-56.9220311,-3.558170800000051],[-56.9137547,-3.562297500000012],[-57.0004891,-3.75912960000002],[-57.5855733,-5.000743099999987],[-58.2625526,-6.468922099999973],[-58.2725552,-6.481257900000021],[-58.2931091,-6.493882],[-58.319996,-6.4949958],[-58.3270562,-6.500374],[-58.3323084,-6.532999700000019],[-58.3498866,-6.562401099999977],[-58.4273058,-6.616167499999983],[-58.4475805,-6.651341100000015],[-58.4651949,-6.670041],[-58.4784712,-6.699613599999987],[-58.4817556,-6.7814217],[-58.4345559,-6.908806500000011],[-58.3941369,-6.9500992],[-58.3802498,-6.970504],[-58.35560920000001,-6.971659],[-58.3354221,-6.986372600000019],[-58.2882552,-7.061674],[-58.2685769,-7.07952],[-58.2458886,-7.088882299999971],[-58.2227767,-7.124274],[-58.209524,-7.134262600000024],[-58.1780835,-7.18899810000002],[-58.168085,-7.2313349],[-58.1748107,-7.271428499999977],[-58.17190260000001,-7.3055027],[-58.1473717,-7.343241],[-58.5003447,-7.350125099999985],[-58.540368,-7.342527500000012],[-58.5465587,-7.327024],[-58.5587845,-7.316930699999978],[-58.5724564,-7.296003],[-58.5740375,-7.287612699999981],[-58.56512080000001,-7.283519900000012],[-58.5563733,-7.2692666],[-58.5421775,-7.2598332],[-58.5297291,-7.23763559999998],[-58.5314211,-7.228440800000014],[-58.546616,-7.2184443],[-58.5639252,-7.1989291],[-58.5290022,-7.186463800000014],[-58.5264589,-7.179158],[-58.5378749,-7.1652522],[-58.5364026,-7.155629899999984],[-58.5253671,-7.1300881],[-58.5180659,-7.127896600000024],[-58.5063191,-7.1143349],[-58.4929231,-7.0680441],[-58.496669,-7.05206649999998],[-58.5071182,-7.0485196],[-58.52314830000001,-7.0550218],[-58.5321721,-7.052058900000025],[-58.5418207,-7.036142],[-58.559875,-7.032038499999976],[-58.5674595,-7.032921299999969],[-58.5747308,-7.049832599999987],[-58.582479,-7.045150699999979],[-58.5831463,-7.0357784],[-58.6016006,-7.0373016],[-58.6170658,-7.005708],[-58.6244019,-7.0034638],[-58.6328177,-7.0079953],[-58.65082490000001,-6.97811810000002],[-58.652323,-6.9619317],[-58.6755742,-6.928399],[-58.6815511,-6.923348100000012],[-58.6982977,-6.921272800000028],[-58.7330241,-6.8986134],[-58.7439639,-6.886897499999979],[-58.7516048,-6.857107099999978],[-58.7678042,-6.858298],[-58.769753,-6.85038610000002],[-58.7850249,-6.8322646],[-58.7941095,-6.776749800000011],[-58.8327276,-6.7447649],[-58.8378331,-6.72873610000002],[-58.8588333,-6.705470200000015],[-58.8680058,-6.6753895],[-58.8645017,-6.628206200000013],[-58.8746666,-6.589494],[-58.8701177,-6.5829893],[-58.87100370000001,-6.567121099999984],[-58.8665063,-6.5602778],[-58.8622751,-6.52789],[-58.8491381,-6.508153400000019],[-58.8359419,-6.470871800000026],[-58.8344166,-6.438896],[-58.8370577,-6.422722300000035],[-58.8481103,-6.401279399999977],[-58.8465815,-6.3935074],[-58.8552822,-6.381478199999977],[-58.8527856,-6.3738851],[-58.8600577,-6.3739411],[-58.8577333,-6.3686217],[-58.8683676,-6.3528733],[-58.8800056,-6.353742600000022],[-58.8822583,-6.345975],[-58.8918943,-6.3385649],[-58.8923634,-6.329900399999978],[-58.9070092,-6.3224169],[-58.9071471,-6.313162800000013],[-58.9105097,-6.311592],[-58.90805730000001,-6.3072578],[-58.912313,-6.3086064],[-58.9150168,-6.3044226],[-58.9127237,-6.299968500000027],[-58.9201268,-6.279289500000016],[-58.9071366,-6.248541899999983],[-58.9010533,-6.247275399999975],[-58.8977538,-6.25194269999998],[-58.8903699,-6.237145],[-58.8831936,-6.238464],[-58.8853787,-6.23291],[-58.8767372,-6.229010499999966],[-58.875828,-6.222050399999986],[-58.8475484,-6.212679500000024],[-58.8426392,-6.19736],[-58.846735,-6.1889408],[-58.8384616,-6.176189699999981],[-58.8434223,-6.172521500000029],[-58.8379759,-6.1701216],[-58.8359684,-6.16294040000001],[-58.8394062,-6.1576346],[-58.8345985,-6.155168100000026],[-58.8346186,-6.146569200000032],[-58.828559,-6.140361799999972],[-58.8325829,-6.13584990000001],[-58.8249142,-6.1283198],[-58.8294447,-6.1255361],[-58.8231939,-6.124413300000013],[-58.8150995,-6.115050799999974],[-58.8191169,-6.110247799999977],[-58.8090731,-6.09960240000003],[-58.8084247,-6.0894774],[-58.8040188,-6.090802099999988],[-58.8082076,-6.0866944],[-58.8059552,-6.0820433],[-58.8022884,-6.0825829],[-58.8025446,-6.07462810000002],[-58.8150302,-6.068234499999983],[-58.8081949,-6.057556700000015],[-58.804917,-6.05885120000001],[-58.80555059999999,-6.054883100000017],[-58.80065290000001,-6.055398399999989],[-58.8052366,-6.0469529],[-58.8099711,-6.0470989],[-58.8168291,-6.02912730000002],[-58.8108612,-6.01887830000002],[-58.8156191,-6.017313799999975],[-58.8220592,-6.0219161],[-58.8312565,-6.013668699999966],[-58.8297695,-6.001525199999961],[-58.8345416,-6.000358900000016],[-58.8326796,-5.991868700000014],[-58.8365488,-5.9894178],[-58.834389,-5.985638099999988],[-58.8280143,-5.987274200000026],[-58.8271751,-5.980052699999983],[-58.8308355,-5.9772264],[-58.8188701,-5.977676600000025],[-58.8197523,-5.9711091],[-58.8290681,-5.966845],[-58.8228587,-5.962494800000028],[-58.8270305,-5.958803],[-58.8226836,-5.9539703],[-58.8261719,-5.9494],[-58.8200478,-5.9418382],[-58.8255489,-5.938799199999973],[-58.8163883,-5.9355365],[-58.8249056,-5.930507600000029],[-58.8128976,-5.927037599999977],[-58.8128531,-5.920427800000025],[-58.8195332,-5.912572],[-58.8090478,-5.9066678],[-58.8174044,-5.8932411],[-58.8192387,-5.905107600000011],[-58.8235541,-5.901328700000017],[-58.8343598,-5.902096600000021],[-58.8297411,-5.894012399999964],[-58.8263841,-5.895322199999966],[-58.8258623,-5.8815138],[-58.83023020000001,-5.876669399999986],[-58.8253519,-5.875654400000012],[-58.8294947,-5.863828499999974],[-58.8241606,-5.867908099999987],[-58.8243412,-5.8600447],[-58.8307353,-5.85139],[-58.8266661,-5.8461462],[-58.8208911,-5.854839300000014],[-58.8197248,-5.8482255],[-58.8108465,-5.844353499999981],[-58.8151516,-5.842438899999982],[-58.8146981,-5.8364358],[-58.8198662,-5.836933],[-58.8174668,-5.833103899999986],[-58.8231015,-5.821330699999978],[-58.8295046,-5.820325800000014],[-58.8296464,-5.811517900000013],[-58.8232911,-5.8115675],[-58.8253346,-5.80216959999997],[-58.8312355,-5.801308300000016],[-58.8300114,-5.7965521],[-58.823314,-5.797687899999977],[-58.8138875,-5.790357],[-58.81841759999999,-5.787523900000028],[-58.815197,-5.78090719999997],[-58.8192944,-5.780031299999988],[-58.8257115,-5.766419899999976],[-58.8205969,-5.764244199999968],[-58.8197683,-5.74386759999997],[-58.8111799,-5.738734799999982],[-58.819351,-5.7310985],[-58.8207639,-5.71709920000001],[-58.8271991,-5.7129131],[-58.8315744,-5.715498800000015],[-58.8262038,-5.704006899999989],[-58.8323965,-5.708550600000026],[-58.8366937,-5.705762800000013],[-58.8345878,-5.6970068],[-58.8281881,-5.694197],[-58.8374153,-5.687655],[-58.828964,-5.6826122],[-58.8302163,-5.676308800000018],[-58.8399275,-5.677796700000018],[-58.8466219,-5.669263400000028],[-58.8287514,-5.6661158],[-58.8293934,-5.662302899999975],[-58.8331334,-5.6658278],[-58.8391122,-5.661125800000011],[-58.82999920000001,-5.654935],[-58.8329125,-5.640445099999975],[-58.8278233,-5.633108600000014],[-58.830518,-5.630933799999966],[-58.8270564,-5.612725599999985],[-58.8192334,-5.60181989999998],[-58.8252098,-5.597085200000014],[-58.8192566,-5.590506399999961],[-58.8268935,-5.591624200000018],[-58.8267925,-5.576417199999982],[-58.8352649,-5.5732026],[-58.8316941,-5.565568700000019],[-58.8416761,-5.561372],[-58.8402483,-5.55615],[-58.8507887,-5.557637400000033],[-58.8538355,-5.546908100000031],[-58.8477825,-5.540396499999965],[-58.8550993,-5.531023499999965],[-58.8545992,-5.524563699999963],[-58.8497223,-5.521687200000035],[-58.8553161,-5.519796699999968],[-58.8501206,-5.517446399999986],[-58.854962,-5.513989099999987],[-58.8488276,-5.507854800000014],[-58.8389911,-5.5100352],[-58.8337389,-5.5049889],[-58.8392528,-5.4953541],[-58.8335592,-5.4840666],[-58.8379861,-5.479447],[-58.8278352,-5.469256399999972],[-58.8343664,-5.453442300000022],[-58.8366533,-5.4566838],[-58.8383194,-5.4529124],[-58.8269083,-5.442361499999988],[-58.834083,-5.437010400000038],[-58.8336647,-5.432890899999988],[-58.8292078,-5.430234599999975],[-58.8264922,-5.4382229],[-58.8216213,-5.43824],[-58.8254575,-5.434410700000028],[-58.821275,-5.423272399999983],[-58.8078151,-5.425146799999969],[-58.8094965,-5.4197511],[-58.8041642,-5.414855],[-58.8057628,-5.4098058],[-58.8175925,-5.412093599999983],[-58.8227415,-5.40196160000002],[-58.8200484,-5.395645499999988],[-58.8172396,-5.402587599999984],[-58.8083632,-5.400276199999989],[-58.8131524,-5.39481010000003],[-58.8114281,-5.383862],[-58.8050601,-5.3851213],[-58.8024889,-5.3749928],[-58.8044704,-5.371034099999988],[-58.8171857,-5.370542300000032],[-58.8156898,-5.365312500000025],[-58.8087687,-5.3664771],[-58.8107185,-5.353343300000021],[-58.8050546,-5.346723299999987],[-58.8107299,-5.33992120000001],[-58.8035845,-5.33293039999998],[-58.7989671,-5.344068800000014],[-58.8013739,-5.346950700000015],[-58.7971314,-5.3504075],[-58.7958076,-5.3416184],[-58.7843053,-5.337705899999967],[-58.7792141,-5.341582500000031],[-58.7769403,-5.330804899999984],[-58.7714881,-5.3286912],[-58.760647,-5.33034060000002],[-58.7664529,-5.337370499999968],[-58.7512447,-5.329255100000016],[-58.7364509,-5.338747400000012],[-58.7379509,-5.330018],[-58.7264296,-5.315767900000024],[-58.7178249,-5.316379200000012],[-58.7162557,-5.3071482],[-58.7275446,-5.3050889],[-58.7352255,-5.3082406],[-58.7423286,-5.303088399999986],[-58.7357221,-5.2910414],[-58.719812,-5.287431399999969],[-58.7145984,-5.281813800000017],[-58.7303767,-5.265176099999988],[-58.7131862,-5.267115799999987],[-58.7038609,-5.263237299999967],[-58.6980931,-5.253460699999974],[-58.7055702,-5.237764399999981],[-58.7005195,-5.2356488],[-58.6921085,-5.241363399999983],[-58.6923105,-5.233357300000014],[-58.6856678,-5.230631199999962],[-58.687663,-5.220736600000015],[-58.6525083,-5.231001200000025],[-58.6514802,-5.210360699999975],[-58.656944,-5.205085299999966],[-58.65339010000001,-5.203401900000018],[-58.6225354,-5.220010099999989],[-58.621933,-5.2095687],[-58.6312164,-5.198114],[-58.6313364,-5.191756200000023],[-58.6382251,-5.19574],[-58.6414388,-5.187715399999962],[-58.6338416,-5.182121600000019],[-58.6060634,-5.186391699999959],[-58.5956905,-5.176239500000011],[-58.5837499,-5.1779165],[-58.5806386,-5.159446299999977],[-58.5759663,-5.1613772],[-58.5714367,-5.15561960000002],[-58.5622765,-5.154928499999981],[-58.5681013,-5.143749],[-58.5802525,-5.13751],[-58.5799799,-5.133314899999987],[-58.54708620000001,-5.126086700000012],[-58.5422907,-5.143057],[-58.5349564,-5.1380737],[-58.5331129,-5.1282168],[-58.5279946,-5.126595600000012],[-58.5112783,-5.1358232],[-58.5085152,-5.131814199999979],[-58.5158708,-5.115788899999965],[-58.5057358,-5.103372600000033],[-58.4900598,-5.11473430000003],[-58.4765438,-5.107016799999983],[-58.4874054,-5.098520699999988],[-58.4992213,-5.100118900000023],[-58.4942257,-5.086957100000017],[-58.4879066,-5.084448199999967],[-58.47013530000001,-5.090467],[-58.4744692,-5.079235299999971],[-58.4687449,-5.070209900000028],[-58.463311,-5.068143399999981],[-58.4563882,-5.073578800000022],[-58.4443909,-5.074166800000024],[-58.4361809,-5.07000449999997],[-58.4450588,-5.056813599999966],[-58.4498379,-5.038111900000016],[-58.44282590000001,-5.036571300000033],[-58.429062,-5.047963600000013],[-58.4284602,-5.02661460000002],[-58.4080564,-5.013339800000019],[-58.41354410000001,-4.99193389999996],[-58.4035852,-4.9874904],[-58.4025861,-4.965348500000019],[-58.3739114,-4.953585200000017],[-58.3746687,-4.9487926],[-58.3842753,-4.943852099999969],[-58.3857602,-4.929695],[-58.39654560000001,-4.92085149999997],[-58.362019,-4.9151189],[-58.3653537,-4.893678300000016],[-58.3603503,-4.888045599999965],[-58.3533775,-4.899703699999987],[-58.3422333,-4.893229100000027],[-58.3446883,-4.882749900000013],[-58.354439,-4.873974199999984],[-58.365512,-4.851589799999972],[-58.3539146,-4.856630799999982],[-58.3504349,-4.848026699999982],[-58.3373534,-4.849276299999986],[-58.3259481,-4.839716900000031],[-58.3310242,-4.817827699999969],[-58.3224253,-4.807997600000018],[-58.3153937,-4.8128282],[-58.3149527,-4.826379599999985],[-58.3069086,-4.8192436],[-58.3058905,-4.8005568],[-58.2964081,-4.773822599999974],[-58.3007081,-4.74956049999998],[-58.2877658,-4.7323684],[-58.2762188,-4.735996499999978],[-58.26953850000001,-4.7226804],[-58.2711737,-4.718384400000016],[-58.2793685,-4.7227967],[-58.2765667,-4.713861200000012],[-58.2870748,-4.711810800000026],[-58.2672899,-4.706435300000035],[-58.2681289,-4.679034],[-58.2730624,-4.675000800000026],[-58.26619070000001,-4.673460100000034],[-58.2669042,-4.661497899999978],[-58.2710882,-4.6554865],[-58.2595756,-4.639343699999962],[-58.250058,-4.638343200000019],[-58.2562274,-4.6323635],[-58.2557703,-4.621747699999971],[-58.26374520000001,-4.615271400000035],[-58.2632214,-4.602132299999989],[-58.2561907,-4.59638380000001],[-58.2336209,-4.60259829999997],[-58.2217473,-4.59660840000001],[-58.2193764,-4.5869959],[-58.2318315,-4.5810704],[-58.2352406,-4.57342949999998],[-58.2350838,-4.5547246],[-58.2296438,-4.547339900000015],[-58.2185835,-4.5427814],[-58.2111257,-4.545062500000014],[-58.2078611,-4.5539961],[-58.2028198,-4.5481287],[-58.2151926,-4.51750109999998],[-58.2134595,-4.5125515],[-58.2019259,-4.510244700000019],[-58.2077499,-4.4979138],[-58.2055517,-4.490340600000017],[-58.1973849,-4.488777300000014],[-58.1824146,-4.498832400000015],[-58.1738187,-4.48223550000001],[-58.1751428,-4.4762701],[-58.1828819,-4.47173449999997],[-58.1825165,-4.454453100000011],[-58.1527487,-4.443655],[-58.1522399,-4.4338232],[-58.1269992,-4.4308436],[-58.1218076,-4.4183117],[-58.125529,-4.41318689999998],[-58.1321436,-4.414871599999977],[-58.1327431,-4.409858300000037],[-58.1170187,-4.3754411],[-58.15535340000001,-4.240106199999966],[-58.1622941,-4.227695],[-58.183608,-4.217606],[-58.198713,-4.2225194],[-58.2053034,-4.2167576],[-58.21935520000001,-4.231734100000037],[-58.2277753,-4.227539600000028],[-58.2379395,-4.233481600000032],[-58.2518756,-4.2281955],[-58.2596959,-4.2092728],[-58.2577682,-4.2013329],[-58.2692345,-4.194484],[-58.27111,-4.177332],[-58.2794107,-4.1756678],[-58.28061120000001,-4.162556900000029],[-58.30620660000001,-4.156195399999977],[-58.3210838,-4.141950400000031],[-58.32275880000001,-4.135479499999951],[-58.3125966,-4.1317861],[-58.3084475,-4.1178186],[-58.3140516,-4.1093484],[-58.3208055,-4.107216599999966],[-58.3228378,-4.098127],[-58.3331179,-4.093067100000013],[-58.3356334,-4.074163799999964],[-58.3484828,-4.068413699999982],[-58.3460476,-4.057798499999959],[-58.3555562,-4.057950900000029],[-58.3552519,-4.0491153],[-58.3736878,-4.038162100000013],[-58.3798341,-4.0272388],[-58.3788327,-4.019478100000025],[-58.384437,-4.022161699999979],[-58.3843699,-4.008927599999971],[-58.39324280000001,-4.017229499999971],[-58.393438,-4.012629199999985],[-58.4012582,-4.010677500000022],[-58.406036,-3.995027],[-58.4118343,-3.99943359999998],[-58.4226921,-3.997102300000048],[-58.4157654,-3.983587599999973],[-58.4345348,-3.990396100000018],[-58.4300925,-3.97320979999997],[-58.432647,-3.965931600000017],[-58.4571514,-3.958558199999971],[-58.4642588,-3.942392099999987],[-58.4590961,-3.934674],[-58.4662645,-3.929860199999963],[-58.4647325,-3.9247472],[-58.4414053,-3.911096800000032],[-58.4280938,-3.915955299999977],[-58.4253498,-3.9118053],[-58.4196521,-3.913561500000048],[-58.4086781,-3.895282900000036],[-58.39538,-3.896609],[-58.3652246,-3.886407400000027],[-58.3620285,-3.889438799999983],[-58.3439924,-3.886187899999962],[-58.345576,-3.878982500000043],[-58.340842,-3.872417],[-58.3263943,-3.867643099999972],[-58.3201644,-3.856181899999989],[-58.3215959,-3.850007700000048],[-58.317054,-3.845221899999961],[-58.3226903,-3.8393016],[-58.3146506,-3.839977600000038],[-58.3149943,-3.8322828],[-58.3028578,-3.823985100000017],[-58.2917954,-3.824601699999965],[-58.2862988,-3.812844100000023],[-58.290522,-3.8056132],[-58.29228770000001,-3.77762219999997],[-58.3053241,-3.771632],[-58.2990728,-3.7634821],[-58.30915,-3.750556399999987],[-58.2955727,-3.693496600000017],[-58.2541446,-3.687336899999988],[-58.213344,-3.697327400000029],[-58.2002127,-3.680995600000013],[-58.2011372,-3.666573899999953],[-58.2282937,-3.651334699999957],[-58.2307712,-3.627172299999981],[-58.2256593,-3.609789],[-58.2366413,-3.612089900000027],[-58.2587732,-3.602782899999955],[-58.2739179,-3.601309800000017],[-58.2820171,-3.597429900000059],[-58.287273,-3.586823799999971],[-58.2980506,-3.596988299999949],[-58.3372624,-3.581080699999982],[-58.3496158,-3.582819099999964],[-58.357618,-3.576857499999967],[-58.3628654,-3.582731699999948],[-58.37736970000001,-3.569962799999952],[-58.3856689,-3.55320660000004],[-58.3783967,-3.532022200000052],[-58.3648373,-3.515323],[-58.3705354,-3.5101466],[-58.3703477,-3.500345799999971],[-58.1813564,-3.4965817],[-58.1830828,-3.46095390000001],[-58.1752407,-3.446385100000039],[-58.1796882,-3.438336500000032],[-58.17397050000001,-3.4146132],[-58.1771078,-3.367749],[-58.167797,-3.3538267],[-58.1506342,-3.345104599999951],[-58.1233241,-3.343251700000022],[-58.1168533,-3.34928],[-58.1081547,-3.3482585],[-58.0971837,-3.337221200000048],[-58.0878256,-3.334886899999972],[-58.0916826,-3.325577099999968],[-58.08865990000001,-3.315055600000055],[-58.0797395,-3.3162561],[-58.0704741,-3.306364399999976],[-58.0622945,-3.339258700000042],[-58.0424556,-3.3488947],[-58.0291431,-3.340938],[-57.9508183,-3.34416890000005],[-57.941342,-3.339660900000036],[-57.9247289,-3.311883900000012],[-57.9133154,-3.301959400000024],[-57.9099226,-3.2903231],[-57.9006394,-3.284313499999951],[-57.8779977,-3.293328],[-57.8621702,-3.281883500000057],[-57.85061480000001,-3.27897670000002],[-57.84349910000001,-3.284347600000017],[-57.8349717,-3.277719500000011],[-57.8256069,-3.245441200000045],[-57.8093346,-3.224920099999954],[-57.8057211,-3.189883600000035],[-57.7942834,-3.16659890000004],[-57.7958893,-3.133591800000058],[-57.616154,-3.13371489999994],[-57.6152596,-3.158692299999982],[-57.6097056,-3.168486299999954],[-57.6185946,-3.173438200000058],[-57.627541,-3.1692632],[-57.6335675,-3.178890099999961],[-57.6384531,-3.211870900000032],[-57.6366471,-3.248170499999945],[-57.6254591,-3.257108899999949],[-57.6226491,-3.278898200000024],[-57.6286743,-3.290413400000057],[-57.6274801,-3.298559499999989],[-57.621846,-3.30614239999998],[-57.60201210000001,-3.315511100000054],[-57.5894213,-3.339964199999987],[-57.5793121,-3.3393757],[-57.56747759999999,-3.32145],[-57.5489835,-3.315909799999973],[-57.5287591,-3.316902899999959],[-57.5159421,-3.3245236],[-57.5176459,-3.332758599999985],[-57.51052760000001,-3.350286399999954],[-57.5096177,-3.370114500000034],[-57.5012242,-3.386329400000033],[-57.4980623,-3.417818400000022],[-57.4874505,-3.44336190000003],[-57.4653345,-3.461186899999954],[-57.434966,-3.500289600000027],[-57.370184,-3.513920599999988],[-57.3626843,-3.523688800000032],[-57.3590681,-3.544215],[-57.343238,-3.55436750000001],[-57.3401532,-3.570727599999985],[-57.3261496,-3.588051200000045]]]}},{"type":"Feature","properties":{"CD_MUN":"1303106","NM_MUN":"Nova Olinda do Norte","SIGLA_UF":"AM","CodigoIBGE":"1303106","SubRegiaoNumero":8,"CalhaSubRegiao":"Região do Médio Amazonas"},"geometry":{"type":"Polygon","coordinates":[[[-59.0549123,-3.962811299999987],[-59.0811377,-3.9643989],[-59.0955572,-3.993003],[-59.1146008,-3.967248100000047],[-59.1304198,-3.970586],[-59.1447452,-3.9666151],[-59.1547025,-3.972638199999974],[-59.1782712,-3.96671060000003],[-59.1986825,-3.967984300000042],[-59.20000240000001,-3.955975799999985],[-59.21158650000001,-3.9602976],[-59.2144287,-3.955831099999971],[-59.1723393,-3.9437362],[-59.1481653,-3.922145900000032],[-59.2082255,-3.92007439999997],[-59.1843311,-3.904040799999952],[-59.1710912,-3.888811199999956],[-59.1372177,-3.884898199999983],[-59.09589,-3.869797699999977],[-59.0533123,-3.806531499999977],[-59.0509151,-3.785867200000046],[-59.0546261,-3.765407300000033],[-59.1016476,-3.698958899999971],[-59.0996393,-3.691052700000036],[-59.0047616,-3.609669400000049],[-58.9853814,-3.607309],[-58.9680873,-3.596062499999945],[-58.9268152,-3.551588],[-58.9171927,-3.547584100000019],[-58.90650020000001,-3.573271399999959],[-58.9084462,-3.586870500000026],[-58.9215847,-3.5973456],[-58.91964020000001,-3.6136529],[-58.90879910000001,-3.6122791],[-58.8998696,-3.618128699999962],[-58.8718471,-3.6028941],[-58.788316,-3.614271500000037],[-58.7752501,-3.602327],[-58.7514469,-3.591174],[-58.7372441,-3.592437900000041],[-58.7328719,-3.5974104],[-58.7224936,-3.5973806],[-58.7063795,-3.611962300000013],[-58.699998,-3.646625599999974],[-58.6934217,-3.657559199999977],[-58.6845296,-3.6567003],[-58.6793347,-3.664770400000036],[-58.6558154,-3.658278800000046],[-58.6464817,-3.628753399999963],[-58.6333954,-3.622277800000041],[-58.6222797,-3.623930599999989],[-58.6105987,-3.638433299999952],[-58.5745399,-3.64904519999997],[-58.5733126,-3.6543324],[-58.5601389,-3.664132300000036],[-58.5612154,-3.67443330000002],[-58.5527563,-3.685858700000029],[-58.51704,-3.713700300000029],[-58.5125989,-3.728934599999954],[-58.5148354,-3.743250599999977],[-58.5081281,-3.7542257],[-58.4872255,-3.748227299999948],[-58.4645132,-3.752165600000015],[-58.4687952,-3.7337057],[-58.4585105,-3.720171],[-58.4566779,-3.7062893],[-58.4464694,-3.705531399999969],[-58.437718,-3.721262600000026],[-58.4245236,-3.728003],[-58.419238,-3.7240114],[-58.4162946,-3.707332599999988],[-58.4039624,-3.692940599999956],[-58.3979071,-3.67470929999996],[-58.3743768,-3.676303599999986],[-58.3720575,-3.637325400000013],[-58.36425830000001,-3.6252602],[-58.3428882,-3.611073400000052],[-58.3550741,-3.6001641],[-58.3542473,-3.584859300000026],[-58.3372624,-3.581080699999982],[-58.2980506,-3.596988299999949],[-58.287273,-3.586823799999971],[-58.2820171,-3.597429900000059],[-58.2739179,-3.601309800000017],[-58.2587732,-3.602782899999955],[-58.2366413,-3.612089900000027],[-58.2256593,-3.609789],[-58.2307712,-3.627172299999981],[-58.2282937,-3.651334699999957],[-58.2011372,-3.666573899999953],[-58.2002127,-3.680995600000013],[-58.213344,-3.697327400000029],[-58.2541446,-3.687336899999988],[-58.2964466,-3.694373],[-58.30915,-3.750556399999987],[-58.2990728,-3.7634821],[-58.3053241,-3.771632],[-58.29228770000001,-3.77762219999997],[-58.290522,-3.8056132],[-58.2862988,-3.812844100000023],[-58.2919333,-3.824786],[-58.3028578,-3.823985100000017],[-58.3149943,-3.8322828],[-58.3146506,-3.839977600000038],[-58.3226903,-3.8393016],[-58.317054,-3.845221899999961],[-58.3215959,-3.850007700000048],[-58.3201644,-3.856181899999989],[-58.3263943,-3.867643099999972],[-58.340842,-3.872417],[-58.345576,-3.878982500000043],[-58.3439924,-3.886187899999962],[-58.3620285,-3.889438799999983],[-58.3652246,-3.886407400000027],[-58.39538,-3.896609],[-58.4080251,-3.8950485],[-58.4196521,-3.913561500000048],[-58.4253498,-3.9118053],[-58.4280938,-3.915955299999977],[-58.4414053,-3.911096800000032],[-58.4561168,-3.918359],[-58.46647629999999,-3.9293007],[-58.4592381,-3.9339744],[-58.4643863,-3.9418887],[-58.4571514,-3.958558199999971],[-58.4321402,-3.966811800000013],[-58.4300925,-3.97320979999997],[-58.4346444,-3.99028730000004],[-58.4157654,-3.983587599999973],[-58.4226921,-3.997102300000048],[-58.4118343,-3.99943359999998],[-58.406036,-3.995027],[-58.4012582,-4.010677500000022],[-58.393438,-4.012629199999985],[-58.39324280000001,-4.017229499999971],[-58.3843699,-4.008927599999971],[-58.384437,-4.022161699999979],[-58.3788327,-4.019478100000025],[-58.3798341,-4.0272388],[-58.3736878,-4.038162100000013],[-58.3552519,-4.0491153],[-58.3555562,-4.057950900000029],[-58.3460476,-4.057798499999959],[-58.3484828,-4.068413699999982],[-58.3356334,-4.074163799999964],[-58.3331179,-4.093067100000013],[-58.3228378,-4.098127],[-58.3208055,-4.107216599999966],[-58.3140516,-4.1093484],[-58.3084475,-4.1178186],[-58.3125966,-4.1317861],[-58.32275880000001,-4.135479499999951],[-58.3210838,-4.141950400000031],[-58.30620660000001,-4.156195399999977],[-58.28061120000001,-4.162556900000029],[-58.2794107,-4.1756678],[-58.27111,-4.177332],[-58.2692345,-4.194484],[-58.2577682,-4.2013329],[-58.2596959,-4.2092728],[-58.2518756,-4.2281955],[-58.2379395,-4.233481600000032],[-58.2277753,-4.227539600000028],[-58.21935520000001,-4.231734100000037],[-58.2053034,-4.2167576],[-58.198713,-4.2225194],[-58.183608,-4.217606],[-58.1622941,-4.227695],[-58.15535340000001,-4.240106199999966],[-58.1195869,-4.370781699999974],[-58.128002,-4.365191400000034],[-58.14380890000001,-4.36680530000002],[-58.1517079,-4.363386499999975],[-58.1538987,-4.371058],[-58.1711559,-4.361138399999969],[-58.1759885,-4.363521899999961],[-58.1746536,-4.37109740000002],[-58.1793788,-4.372413],[-58.196451,-4.348750500000037],[-58.2093481,-4.360981199999961],[-58.2211986,-4.35905359999996],[-58.2269398,-4.366834],[-58.2258634,-4.38066840000003],[-58.2422165,-4.3826509],[-58.2553972,-4.378928],[-58.2681092,-4.398749400000025],[-58.2803149,-4.394983399999962],[-58.2932997,-4.413368100000033],[-58.2941893,-4.427575],[-58.324681,-4.442159199999965],[-58.3395407,-4.4416194],[-58.351752,-4.45129149999998],[-58.3566827,-4.464559],[-58.3845684,-4.460736700000026],[-58.3852203,-4.474581],[-58.3960965,-4.5032953],[-58.4143958,-4.5016396],[-58.4204375,-4.493283],[-58.4386622,-4.506691600000017],[-58.4518683,-4.50249349999997],[-58.4622551,-4.50448290000003],[-58.4647727,-4.495274600000038],[-58.4757004,-4.4890274],[-58.4896062,-4.491556799999979],[-58.5015072,-4.472262900000027],[-58.5085684,-4.469740199999986],[-58.5272283,-4.476632599999969],[-58.55229820000001,-4.4940191],[-58.5938002,-4.459331],[-58.6080685,-4.460271699999968],[-58.6236087,-4.470848200000027],[-58.6379685,-4.467337700000019],[-58.6474012,-4.453078799999987],[-58.6329846,-4.452795899999975],[-58.6303674,-4.43133680000002],[-58.6525751,-4.39010889999998],[-58.64712140000001,-4.3683447],[-58.6519801,-4.343176100000013],[-58.6155763,-4.289714400000014],[-58.6152989,-4.273528299999984],[-58.6237632,-4.259878800000036],[-58.6509162,-4.266960200000027],[-58.6572674,-4.263761699999963],[-58.66156620000001,-4.237159],[-58.6891261,-4.201758600000036],[-58.6899181,-4.1877592],[-58.6786531,-4.151759499999979],[-58.69771990000001,-4.117409600000017],[-58.7409557,-4.086798399999958],[-58.7730315,-4.0739359],[-58.7882062,-4.036088600000041],[-58.8190381,-4.007518200000021],[-58.8195037,-3.987734],[-58.799611,-3.955580600000018],[-58.7867353,-3.918960499999988],[-58.7751312,-3.904185500000022],[-58.7985464,-3.908631800000037],[-58.8155828,-3.874338799999963],[-58.8461867,-3.8755097],[-58.8467931,-3.865673199999955],[-58.8393565,-3.8557488],[-58.8429977,-3.849224699999981],[-58.862401,-3.8568817],[-58.8783481,-3.852292199999979],[-58.8849112,-3.857309500000051],[-58.89875580000001,-3.89029470000001],[-58.9118547,-3.906448199999978],[-58.9205516,-3.909001700000035],[-58.9375448,-3.8969043],[-58.9670403,-3.88731719999998],[-58.9922961,-3.891943800000029],[-58.9979614,-3.898146300000031],[-58.9928917,-3.916102700000042],[-59.0000837,-3.932807299999985],[-59.0098081,-3.937812199999982],[-59.0238962,-3.93058909999997],[-59.0414058,-3.954173900000052],[-59.0549123,-3.962811299999987]]]}},{"type":"Feature","properties":{"CD_MUN":"1304401","NM_MUN":"Urucurituba","SIGLA_UF":"AM","CodigoIBGE":"1304401","SubRegiaoNumero":8,"CalhaSubRegiao":"Região do Médio Amazonas"},"geometry":{"type":"Polygon","coordinates":[[[-58.0816537,-3.188095300000021],[-58.1925546,-3.18793750000005],[-58.1929398,-3.169265100000052],[-58.1828826,-3.154143400000037],[-58.1738034,-3.1243416],[-58.1690449,-3.053589400000012],[-58.1771352,-3.0352467],[-58.1622197,-3.018867799999978],[-58.1476858,-2.986830099999946],[-58.1298278,-2.915419199999965],[-58.1019338,-2.877941800000027],[-58.1104152,-2.859197800000029],[-58.1007433,-2.844163099999977],[-58.0704244,-2.820938600000036],[-58.04015,-2.807516500000034],[-57.9914321,-2.805828499999984],[-57.9582051,-2.796778099999949],[-57.9171597,-2.758055800000029],[-57.8789647,-2.7511492],[-57.836996,-2.757681500000034],[-57.782378,-2.7291428],[-57.7525973,-2.697083],[-57.7151078,-2.667844099999964],[-57.6236437,-2.533478300000044],[-57.611873,-2.496030699999988],[-57.5919775,-2.457284200000049],[-57.3522699,-2.455862699999947],[-57.3171356,-2.5085982],[-57.44975,-2.60531370000001],[-57.438323,-2.614248],[-57.4414573,-2.623698900000066],[-57.4316967,-2.640778699999943],[-57.448306,-2.660345],[-57.4498208,-2.6736179],[-57.4583295,-2.677615600000049],[-57.4584391,-2.69132060000001],[-57.4505211,-2.69690969999997],[-57.4420113,-2.693856899999957],[-57.428749,-2.7094303],[-57.4217989,-2.7042596],[-57.4174299,-2.719875499999969],[-57.4191155,-2.739387599999962],[-57.4373578,-2.7395912],[-57.4664745,-2.751564100000051],[-57.48946260000001,-2.776272799999953],[-57.4939252,-2.807204799999955],[-57.5190888,-2.811663599999962],[-57.53684959999999,-2.831025499999977],[-57.5553312,-2.824247700000025],[-57.5759228,-2.837039299999984],[-57.6022525,-2.891433499999982],[-57.6310091,-2.9135615],[-57.646238,-2.941639],[-57.6644425,-2.943605800000016],[-57.6758299,-2.937731299999989],[-57.6774546,-2.943416700000014],[-57.6947313,-2.950036299999969],[-57.6980413,-2.947981599999978],[-57.7039458,-2.956245300000036],[-57.7081623,-2.952946600000032],[-57.7124084,-2.964651899999945],[-57.7169258,-2.9609428],[-57.7393626,-2.9616574],[-57.7438807,-2.956658099999967],[-57.7578253,-2.98281],[-57.7789144,-2.99220050000005],[-57.792505,-2.984965899999958],[-57.7959126,-2.973548399999982],[-57.8175782,-2.955205900000033],[-57.8343494,-2.96300280000003],[-57.8718956,-2.965134100000045],[-57.8820951,-2.959745299999943],[-57.8855364,-2.949380699999961],[-57.9928734,-3.1338323],[-58.013149,-3.14910170000004],[-58.0209618,-3.17524209999998],[-58.0419911,-3.201667199999962],[-58.0430698,-3.2105747],[-58.0658519,-3.21512990000004],[-58.0816537,-3.188095300000021]],[[-57.7619141,-2.708698499999952],[-57.7777223,-2.7315291],[-57.7659859,-2.733182100000044],[-57.75171490000001,-2.728221799999985],[-57.723315,-2.677760600000036],[-57.73516,-2.6835235],[-57.7619141,-2.708698499999952]]]}},{"type":"Feature","properties":{"CD_MUN":"1301902","NM_MUN":"Itacoatiara","SIGLA_UF":"AM","CodigoIBGE":"1301902","SubRegiaoNumero":8,"CalhaSubRegiao":"Região do Médio Amazonas"},"geometry":{"type":"Polygon","coordinates":[[[-58.9171926999999,-3.54758410000002],[-58.9010021,-3.510798900000033],[-58.8622756,-3.467318400000043],[-58.8373881,-3.4495179],[-58.8032667,-3.450038100000035],[-58.7844131,-3.3796475],[-58.8207197,-3.3995823],[-58.8499313,-3.4007411],[-58.9030528,-3.362605400000052],[-58.93980830000001,-3.311547],[-58.9406629,-3.295236],[-58.9532735,-3.27776],[-58.9753601,-3.2575079],[-58.9981431,-3.245210900000016],[-59.0337844,-3.248892299999952],[-59.1142692,-3.280939600000034],[-59.1382067,-3.2830085],[-59.17035640000001,-3.272033099999953],[-59.2380022,-3.2378683],[-59.3837361,-3.181003],[-59.3518989,-3.145600100000038],[-59.2648034,-3.153696],[-59.2069989,-3.179743800000024],[-59.1683863,-3.178844499999972],[-59.1599483,-3.168427900000056],[-59.2621154,-3.129017599999971],[-59.3045319,-3.1319016],[-59.3231364,-3.1143276],[-59.3415584,-3.106644699999949],[-59.3738939,-3.0716152],[-59.4051414,-3.054340400000016],[-59.4313407,-3.0484995],[-59.4553311,-3.029749099999942],[-59.4855025,-2.993823100000035],[-59.5004803,-2.988301],[-59.5003077,-2.971895800000033],[-59.4984956,-2.980911399999987],[-59.4863823,-2.964209600000024],[-59.4298682,-2.9264219],[-59.4093808,-2.888566899999945],[-59.405839,-2.874220399999944],[-59.3985516,-2.876571699999952],[-59.374672,-2.867508299999971],[-59.3680652,-2.87338870000002],[-59.3710325,-2.890471500000021],[-59.3675633,-2.894357399999985],[-59.360892,-2.888152299999978],[-59.3528003,-2.844643300000043],[-59.3560705,-2.822855],[-59.3072821,-2.7621596],[-59.2907504,-2.749260699999984],[-59.2663654,-2.742449],[-59.2620862,-2.744478900000064],[-59.26821730000001,-2.738472],[-59.2656913,-2.726702799999951],[-59.2314856,-2.703429099999967],[-59.2282413,-2.649423699999964],[-59.21043980000001,-2.633127400000037],[-59.189187,-2.597666599999945],[-59.2008833,-2.5643103],[-59.1884895,-2.5500583],[-59.1663802,-2.539339199999981],[-59.1558889,-2.517456300000037],[-59.13103610000001,-2.520388200000058],[-59.1232987,-2.535748399999955],[-59.0967015,-2.55610850000003],[-59.0891266,-2.56974320000004],[-59.0824366,-2.575242299999934],[-59.0644414,-2.5775462],[-59.0512665,-2.586993499999965],[-59.0483749,-2.62380549999994],[-59.0310227,-2.631180700000024],[-59.0267079,-2.638541200000062],[-59.0334893,-2.665378500000064],[-59.0235998,-2.690276],[-59.0268749,-2.697226299999956],[-59.011545,-2.702669799999974],[-58.9967111,-2.692864099999952],[-58.9875141,-2.693793699999944],[-58.9839001,-2.700718700000027],[-58.9844004,-2.7108801],[-58.98968210000001,-2.718100899999963],[-58.99014970000001,-2.72681270000002],[-58.9838459,-2.731299399999932],[-58.9899323,-2.746184500000023],[-58.9889346,-2.774083199999936],[-58.9644562,-2.779411799999964],[-58.960065,-2.772420799999955],[-58.9644018,-2.766167],[-58.9384325,-2.75636449999994],[-58.915595,-2.764864799999986],[-58.9049824,-2.7779126],[-58.9153463,-2.800477200000013],[-58.901671,-2.81017570000005],[-58.9001432,-2.819255699999949],[-58.8928723,-2.824602599999988],[-58.87617250000001,-2.8553141],[-58.8610119,-2.856448899999936],[-58.8646993,-2.872970199999971],[-58.8776444,-2.892604399999954],[-58.8706966,-2.908476300000017],[-58.8643382,-2.913080399999977],[-58.816157,-2.934292800000049],[-58.7847485,-2.959790699999975],[-58.7049929,-3.005548099999979],[-58.6842995,-3.01121190000005],[-58.6709444,-3.022675899999944],[-58.6300354,-3.038344900000011],[-58.59611,-3.029128800000036],[-58.5625746,-3.005550300000015],[-58.54620950000001,-3.010795899999979],[-58.5312936,-3.003051299999961],[-58.5041966,-2.998051399999984],[-58.4745076,-2.97696210000003],[-58.4030522,-3.000098800000042],[-58.3997897,-3.00575049999996],[-58.388201,-3.008508499999967],[-58.3878438,-3.017438799999984],[-58.3995573,-3.025818299999986],[-58.4055983,-3.042740600000051],[-58.4126327,-3.04536439999995],[-58.4015006,-3.044957300000041],[-58.4033198,-3.036884200000036],[-58.3951363,-3.033759800000051],[-58.3936893,-3.02612010000005],[-58.3865298,-3.022098900000016],[-58.3778064,-3.034032],[-58.3826222,-3.04540090000005],[-58.3779115,-3.050443900000043],[-58.3793866,-3.0562435],[-58.3723177,-3.061556100000034],[-58.3792144,-3.078412599999982],[-58.3889747,-3.084600499999971],[-58.3849438,-3.091877],[-58.3808558,-3.086975899999948],[-58.3764174,-3.090106400000019],[-58.3807833,-3.104875499999945],[-58.3804501,-3.136672899999981],[-58.3758967,-3.144602699999978],[-58.3176222,-3.1087772],[-58.2453351,-3.082800299999959],[-58.1771352,-3.0352467],[-58.1690449,-3.053589400000012],[-58.1738034,-3.1243416],[-58.1828826,-3.154143400000037],[-58.1929398,-3.169265100000052],[-58.1925546,-3.18793750000005],[-58.0816537,-3.188095300000021],[-58.0658519,-3.21512990000004],[-58.0648169,-3.275755900000042],[-58.0745216,-3.29008],[-58.0704741,-3.306364399999976],[-58.0797395,-3.3162561],[-58.08865990000001,-3.315055600000055],[-58.0916826,-3.325577099999968],[-58.0878256,-3.334886899999972],[-58.0971837,-3.337221200000048],[-58.1081547,-3.3482585],[-58.1168533,-3.34928],[-58.1233241,-3.343251700000022],[-58.1506342,-3.345104599999951],[-58.167797,-3.3538267],[-58.1771078,-3.367749],[-58.17397050000001,-3.4146132],[-58.1796882,-3.438336500000032],[-58.1752407,-3.446385100000039],[-58.1830828,-3.46095390000001],[-58.1813564,-3.4965817],[-58.3703477,-3.500345799999971],[-58.3705354,-3.5101466],[-58.3648373,-3.515323],[-58.3783967,-3.532022200000052],[-58.3856689,-3.55320660000004],[-58.3837569,-3.561881],[-58.3628654,-3.582731699999948],[-58.357618,-3.576857499999967],[-58.3496158,-3.582819099999964],[-58.3563322,-3.58807],[-58.3553058,-3.5996112],[-58.3428882,-3.611073400000052],[-58.36425830000001,-3.6252602],[-58.3720575,-3.637325400000013],[-58.3743768,-3.676303599999986],[-58.3979071,-3.67470929999996],[-58.4039624,-3.692940599999956],[-58.4162946,-3.707332599999988],[-58.4206278,-3.7257736],[-58.4258233,-3.7280977],[-58.4348361,-3.723758699999968],[-58.4464694,-3.705531399999969],[-58.4571412,-3.706753100000016],[-58.4585105,-3.720171],[-58.4687952,-3.7337057],[-58.4645132,-3.752165600000015],[-58.4872255,-3.748227299999948],[-58.509962,-3.7532946],[-58.51519720000001,-3.741599],[-58.5133755,-3.72434070000004],[-58.5204363,-3.709464900000049],[-58.5313851,-3.705548600000027],[-58.5527563,-3.685858700000029],[-58.5612154,-3.67443330000002],[-58.5601389,-3.664132300000036],[-58.5733126,-3.6543324],[-58.5739956,-3.64943359999995],[-58.6105987,-3.638433299999952],[-58.6222797,-3.623930599999989],[-58.6333954,-3.622277800000041],[-58.6464817,-3.628753399999963],[-58.6558154,-3.658278800000046],[-58.6793347,-3.664770400000036],[-58.6845296,-3.6567003],[-58.6934217,-3.657559199999977],[-58.699998,-3.646625599999974],[-58.7063795,-3.611962300000013],[-58.7224936,-3.5973806],[-58.7328719,-3.5974104],[-58.7372441,-3.592437900000041],[-58.7514469,-3.591174],[-58.7752501,-3.602327],[-58.788316,-3.614271500000037],[-58.8718471,-3.6028941],[-58.8998696,-3.618128699999962],[-58.90879910000001,-3.6122791],[-58.91964020000001,-3.6136529],[-58.9215847,-3.5973456],[-58.9084462,-3.586870500000026],[-58.906183,-3.578037899999968],[-58.9171926999999,-3.54758410000002]]]}}]}