{"type":"FeatureCollection","name":"Região do Baixo Amazonas","features":[{"type":"Feature","properties":{"CD_MUN":"1303403","NM_MUN":"Parintins","SIGLA_UF":"AM","CodigoIBGE":"1303403","SubRegiaoNumero":9,"CalhaSubRegiao":"Região do Baixo Amazonas"},"geometry":{"type":"Polygon","coordinates":[[[-56.7334723,-2.73414580000002],[-56.7541582,-2.724475399999942],[-56.7857329,-2.729840499999955],[-56.8058497,-2.742145699999939],[-56.8217747,-2.764227699999956],[-56.84035080000001,-2.743379099999979],[-56.850713,-2.744017800000015],[-56.8904089,-2.772976499999985],[-56.9010531,-2.774483799999941],[-56.9493302,-2.747076300000014],[-56.9261185,-2.729135200000064],[-56.9241271,-2.721614200000024],[-56.9290688,-2.717743799999969],[-56.9264967,-2.708007900000034],[-56.9201227,-2.698792],[-56.9142344,-2.6979305],[-56.9170237,-2.690313700000056],[-56.9096581,-2.680573700000037],[-56.9119412,-2.677675099999968],[-56.9329084,-2.6816364],[-56.9414826,-2.666156399999966],[-56.9796869,-2.67810190000005],[-56.9863621,-2.68941990000005],[-57.0220948,-2.691192500000039],[-57.0283654,-2.7040884],[-57.0369539,-2.710801400000029],[-57.0689012,-2.7217543],[-57.0855385,-2.7222044],[-57.0939803,-2.72889949999998],[-57.1055424,-2.717317700000067],[-57.1161975,-2.72268889999996],[-57.13956610000001,-2.716331400000036],[-57.165233,-2.722821300000051],[-57.1801535,-2.720535299999983],[-57.1825539,-2.714938900000021],[-57.178207,-2.696951799999968],[-57.1832837,-2.686396299999974],[-57.1923053,-2.686769499999961],[-57.1967904,-2.681167600000053],[-57.2237368,-2.693520200000071],[-57.263942,-2.676425200000013],[-57.281326,-2.662981099999989],[-57.287465,-2.650545100000059],[-57.2992085,-2.644367300000047],[-57.2987337,-2.635976699999958],[-57.3030239,-2.632887900000071],[-57.3477429,-2.634298700000061],[-57.3613191,-2.643400100000014],[-57.3763548,-2.643869599999956],[-57.39964350000001,-2.624435],[-57.4127765,-2.621199400000048],[-57.4147961,-2.596639900000038],[-57.4290116,-2.589818299999969],[-57.2892284,-2.489242800000028],[-57.3135998,-2.474403099999984],[-57.3304061,-2.4577627],[-57.3334878,-2.440949699999988],[-57.3495724,-2.41962510000003],[-57.4086155,-2.381387900000065],[-57.2633656,-2.349765299999941],[-57.2387244,-2.380205700000058],[-57.2178193,-2.39165250000001],[-57.2051193,-2.370959],[-57.1911074,-2.3647945],[-57.180592,-2.3391277],[-57.1719916,-2.331937899999986],[-57.1434295,-2.336421499999982],[-57.1140433,-2.3326133],[-57.1032639,-2.33397],[-57.087254,-2.34537060000001],[-57.0577664,-2.355916100000026],[-57.0363581,-2.379120799999923],[-57.0044412,-2.376729],[-56.9939009,-2.382020699999986],[-56.978815,-2.382292299999976],[-56.9694205,-2.380779599999972],[-56.9536038,-2.367209599999927],[-56.9470619,-2.367842199999974],[-56.9373864,-2.377251099999968],[-56.926812,-2.368356500000012],[-56.9359533,-2.393917300000064],[-56.9308045,-2.397855800000013],[-56.9270633,-2.411605400000018],[-56.9457717,-2.417982400000072],[-56.9486512,-2.4255834],[-56.8828829,-2.424999599999954],[-56.8779345,-2.416999500000049],[-56.8814068,-2.402784599999985],[-56.8759934,-2.400468600000065],[-56.8642961,-2.404743300000017],[-56.8651856,-2.418316099999961],[-56.8606682,-2.422981699999988],[-56.8487469,-2.420945100000022],[-56.8413569,-2.409880900000023],[-56.8324492,-2.406795599999935],[-56.7731814,-2.420098400000057],[-56.7707351,-2.408595400000047],[-56.7804424,-2.385350700000017],[-56.7358604,-2.379175800000017],[-56.7173456,-2.371914500000016],[-56.6741076,-2.385205099999983],[-56.6775741,-2.371522399999979],[-56.6432835,-2.356997800000053],[-56.6236867,-2.320537399999956],[-56.6097394,-2.319102299999975],[-56.5906158,-2.324989899999928],[-56.5339089,-2.285510799999959],[-56.5401749,-2.261695],[-56.5169195,-2.242535799999942],[-56.4951167,-2.2497291],[-56.4913534,-2.265723700000078],[-56.4819442,-2.267235900000015],[-56.4692935,-2.25956170000001],[-56.4478623,-2.279950400000049],[-56.4287401,-2.275240199999986],[-56.4197751,-2.277703199999935],[-56.4050842,-2.26110960000004],[-56.4030881,-2.2641014],[-56.4102329,-2.274921],[-56.3892493,-2.27852339999993],[-56.4127577,-2.321715500000069],[-56.4208334,-2.360191799999922],[-56.4655948,-2.423115099999984],[-56.462267,-2.433917299999949],[-56.4374562,-2.440227700000018],[-56.4254293,-2.449135],[-56.4079303,-2.450164200000031],[-56.40210720000001,-2.456516799999956],[-56.5004881,-2.660511899999955],[-56.8100974,-3.332978099999989],[-56.8219955,-3.323653199999971],[-56.8381906,-3.322440599999974],[-56.8519973,-3.301012399999981],[-56.8606654,-3.301710900000045],[-56.86705890000001,-3.29715280000003],[-56.8871285,-3.301346900000043],[-56.9293396,-3.279767],[-56.9379276,-3.26908779999998],[-56.9417573,-3.233514],[-56.9686095,-3.206287600000012],[-56.9823478,-3.216855],[-56.992469,-3.218154399999946],[-57.005873,-3.214692],[-57.0262369,-3.216936299999978],[-57.0455638,-3.20899309999995],[-57.0407569,-3.190407699999969],[-57.0475799,-3.184583800000026],[-57.0475805,-3.178561699999961],[-57.0210384,-3.138935499999955],[-57.019654,-3.117638400000049],[-56.9960688,-3.070528900000046],[-57.0021121,-3.0569758],[-56.9965828,-3.044038],[-56.9988036,-3.032813099999982],[-57.0192886,-3.01937980000004],[-57.0416688,-3.030045699999951],[-57.0468791,-3.026168600000017],[-57.030671,-3.013947599999977],[-57.0200641,-2.981763899999969],[-57.0163681,-2.932573500000053],[-57.0083082,-2.926696200000046],[-56.9833248,-2.91981],[-56.967811,-2.906237300000019],[-56.9478635,-2.910085699999932],[-56.9176476,-2.894325600000048],[-56.8998078,-2.898261499999968],[-56.8850138,-2.9083204],[-56.872399,-2.907006900000019],[-56.8593425,-2.919910199999969],[-56.8335985,-2.878014599999952],[-56.8358322,-2.854056],[-56.8110302,-2.783515499999947],[-56.7889428,-2.753693599999989],[-56.7458131,-2.747224499999981],[-56.7368829,-2.742113600000069],[-56.7334723,-2.73414580000002]]]}},{"type":"Feature","properties":{"CD_MUN":"1300508","NM_MUN":"Barreirinha","SIGLA_UF":"AM","CodigoIBGE":"1300508","SubRegiaoNumero":9,"CalhaSubRegiao":"Região do Baixo Amazonas"},"geometry":{"type":"Polygon","coordinates":[[[-57.327352,-3.586272700000045],[-57.3401532,-3.570727599999985],[-57.343238,-3.55436750000001],[-57.3590681,-3.544215],[-57.3626843,-3.523688800000032],[-57.370184,-3.513920599999988],[-57.3717111,-3.478100200000027],[-57.3597127,-3.452106700000047],[-57.3586316,-3.4386842],[-57.3665721,-3.413603099999983],[-57.3629339,-3.379849899999981],[-57.36454830000001,-3.3696672],[-57.3712702,-3.362061400000037],[-57.3739324,-3.332736400000011],[-57.3920818,-3.323738400000039],[-57.3953848,-3.316811],[-57.3939656,-3.295861899999949],[-57.4037703,-3.276373200000037],[-57.4226634,-3.288622],[-57.4560792,-3.266397599999972],[-57.4594848,-3.034447599999984],[-57.4641271,-3.026641199999989],[-57.4304221,-3.004698400000015],[-57.4256109,-3.014388699999979],[-57.4119649,-3.0184056],[-57.4023995,-3.003035200000033],[-57.4067152,-2.994392],[-57.3842986,-2.981278900000054],[-57.3789926,-2.965904699999988],[-57.3568983,-2.94533049999994],[-57.35163630000001,-2.914671200000047],[-57.3541579,-2.9113903],[-57.3712478,-2.9134834],[-57.3785204,-2.922386600000011],[-57.3827789,-2.9216856],[-57.3844695,-2.914408899999941],[-57.3947248,-2.915393099999976],[-57.4160019,-2.9447397],[-57.42609,-2.93939530000001],[-57.4601757,-2.951905599999975],[-57.4673564,-2.94882019999995],[-57.4823641,-2.870996799999966],[-57.473382,-2.862760200000016],[-57.4744035,-2.857005399999947],[-57.436466,-2.843843399999989],[-57.473924,-2.818414],[-57.4785902,-2.810106599999948],[-57.4939252,-2.807204799999955],[-57.48946260000001,-2.776272799999953],[-57.4616248,-2.747952],[-57.4373578,-2.7395912],[-57.4204607,-2.740361700000043],[-57.4168907,-2.728321],[-57.4217989,-2.7042596],[-57.428749,-2.7094303],[-57.4420113,-2.693856899999957],[-57.4575538,-2.694897],[-57.4583295,-2.677615600000049],[-57.4498208,-2.6736179],[-57.448306,-2.660345],[-57.4316967,-2.640778699999943],[-57.4414573,-2.623698900000066],[-57.438323,-2.614248],[-57.4482463,-2.609594500000025],[-57.449253,-2.604416200000028],[-57.4290116,-2.589818299999969],[-57.4176395,-2.592966899999932],[-57.413353,-2.599875],[-57.4127765,-2.621199400000048],[-57.39964350000001,-2.624435],[-57.3763548,-2.643869599999956],[-57.3613191,-2.643400100000014],[-57.3477429,-2.634298700000061],[-57.3030239,-2.632887900000071],[-57.2987337,-2.635976699999958],[-57.2992085,-2.644367300000047],[-57.287465,-2.650545100000059],[-57.281326,-2.662981099999989],[-57.263942,-2.676425200000013],[-57.2237368,-2.693520200000071],[-57.1967904,-2.681167600000053],[-57.1923053,-2.686769499999961],[-57.1832837,-2.686396299999974],[-57.178207,-2.696951799999968],[-57.1818684,-2.71905040000005],[-57.1708923,-2.722535],[-57.13956610000001,-2.716331400000036],[-57.1161975,-2.72268889999996],[-57.1055424,-2.717317700000067],[-57.0932793,-2.7288266],[-57.0855385,-2.7222044],[-57.0689012,-2.7217543],[-57.0369539,-2.710801400000029],[-57.0283654,-2.7040884],[-57.0220948,-2.691192500000039],[-56.9863621,-2.68941990000005],[-56.9796869,-2.67810190000005],[-56.9414826,-2.666156399999966],[-56.9329084,-2.6816364],[-56.9119412,-2.677675099999968],[-56.9096581,-2.680573700000037],[-56.9170237,-2.690313700000056],[-56.9142344,-2.6979305],[-56.9201227,-2.698792],[-56.9264967,-2.708007900000034],[-56.9290688,-2.717743799999969],[-56.9241271,-2.721614200000024],[-56.9261185,-2.729135200000064],[-56.9493302,-2.747076300000014],[-56.9010531,-2.774483799999941],[-56.8904089,-2.772976499999985],[-56.850713,-2.744017800000015],[-56.84035080000001,-2.743379099999979],[-56.8217747,-2.764227699999956],[-56.8058497,-2.742145699999939],[-56.7857329,-2.729840499999955],[-56.7541582,-2.724475399999942],[-56.7344968,-2.731880600000049],[-56.7368829,-2.742113600000069],[-56.7458131,-2.747224499999981],[-56.7889428,-2.753693599999989],[-56.8110302,-2.783515499999947],[-56.8358322,-2.854056],[-56.8335985,-2.878014599999952],[-56.8593425,-2.919910199999969],[-56.872399,-2.907006900000019],[-56.8850138,-2.9083204],[-56.8998078,-2.898261499999968],[-56.9176476,-2.894325600000048],[-56.9478635,-2.910085699999932],[-56.967811,-2.906237300000019],[-56.9833248,-2.91981],[-57.0083082,-2.926696200000046],[-57.0163681,-2.932573500000053],[-57.0200641,-2.981763899999969],[-57.030671,-3.013947599999977],[-57.0468791,-3.026168600000017],[-57.0416688,-3.030045699999951],[-57.0192886,-3.01937980000004],[-56.9988036,-3.032813099999982],[-56.9965828,-3.044038],[-57.0021121,-3.0569758],[-56.9960688,-3.070528900000046],[-57.019654,-3.117638400000049],[-57.0210384,-3.138935499999955],[-57.0475805,-3.178561699999961],[-57.0475799,-3.184583800000026],[-57.0407569,-3.190407699999969],[-57.0455638,-3.20899309999995],[-57.0262369,-3.216936299999978],[-57.005873,-3.214692],[-56.992469,-3.218154399999946],[-56.9823478,-3.216855],[-56.9686095,-3.206287600000012],[-56.9417573,-3.233514],[-56.9379276,-3.26908779999998],[-56.9293396,-3.279767],[-56.8871285,-3.301346900000043],[-56.86705890000001,-3.29715280000003],[-56.8606654,-3.301710900000045],[-56.8519973,-3.301012399999981],[-56.8381906,-3.322440599999974],[-56.8219955,-3.323653199999971],[-56.8096858,-3.333470599999966],[-56.9137547,-3.562297500000012],[-56.9220311,-3.558170800000051],[-56.9299515,-3.5607477],[-56.9482623,-3.577732300000036],[-56.965064,-3.582536899999987],[-56.9741776,-3.583780699999962],[-56.9897365,-3.576676599999981],[-57.0070096,-3.596209900000012],[-57.0227652,-3.602361900000012],[-57.064049,-3.592236899999967],[-57.0884121,-3.601771],[-57.1141884,-3.595279900000028],[-57.122078,-3.602001],[-57.1150523,-3.6216374],[-57.1166889,-3.631683099999955],[-57.1329121,-3.637524300000016],[-57.1468584,-3.661505600000028],[-57.1818617,-3.659494599999954],[-57.1902262,-3.662389499999979],[-57.2000277,-3.676739],[-57.225421,-3.671653499999948],[-57.2310051,-3.66500690000001],[-57.2451434,-3.673858100000035],[-57.2583133,-3.651146100000046],[-57.2538448,-3.624986799999989],[-57.266788,-3.607055200000024],[-57.2948158,-3.61096980000002],[-57.3004586,-3.595763500000043],[-57.327352,-3.586272700000045]]]}},{"type":"Feature","properties":{"CD_MUN":"1304302","NM_MUN":"Urucará","SIGLA_UF":"AM","CodigoIBGE":"1304302","SubRegiaoNumero":9,"CalhaSubRegiao":"Região do Baixo Amazonas"},"geometry":{"type":"MultiPolygon","coordinates":[[[[-57.756208,-2.7018004],[-57.73516,-2.6835235],[-57.723315,-2.677760600000036],[-57.75171490000001,-2.728221799999985],[-57.7659859,-2.733182100000044],[-57.7777223,-2.7315291],[-57.756208,-2.7018004]]],[[[-59.1922781,0.263526800000183],[-59.1937448,0.246555900000135],[-59.1851364,0.242668500000353],[-59.1898587,0.232453199999349],[-59.1801354,0.225491999999476],[-59.1343002,0.222968200000094],[-59.1270763,0.219082200000808],[-59.1267943,0.21103509999931],[-59.13791169999999,0.196296400000607],[-59.1337432,0.189335100000569],[-59.1267993,0.192680699999102],[-59.1101338,0.157148699999077],[-59.097628,0.148291699999402],[-59.0956848,0.13988509999933],[-59.099573,0.132379800000206],[-59.0923493,0.126322600001409],[-59.0779046,0.132381599998707],[-59.0695768,0.130481699998933],[-59.0656847,0.122708299999728],[-59.0490226,0.12714189999866],[-59.0456839,0.103812200001108],[-59.0301237,0.094951800000243],[-59.0309589,0.086814099999483],[-59.0465161,0.081299700000303],[-59.0387432,0.047665999998062],[-59.0226258,0.050739199998133],[-59.01401890000001,0.048570500000971],[-59.00901660000001,0.041878899996295],[-59.0012363,0.042692099996171],[-58.9931865,0.025784900006044],[-58.9945696,0.017105299998316],[-58.9815169,0.003814000003786],[-58.9715188,0.015749100008984],[-58.94540270000001,0.001824799954812],[-58.9129258,0.000378799674992],[-58.9012935,-0.006568299976809],[-58.8991467,-0.037493500000207],[-58.9018701,-0.047685100003665],[-58.9121837,-0.04803579999966],[-58.9125706,-0.055785599999846],[-58.9020683,-0.064761000001917],[-58.8937091,-0.086524299999286],[-58.8860645,-0.093345500001595],[-58.8890937,-0.160774800001045],[-58.897507,-0.170424000000291],[-58.907207,-0.162861799999123],[-58.9167918,-0.165085900000558],[-58.9277329,-0.155794600000467],[-58.9330677,-0.189338000000156],[-58.9283443,-0.198566599999419],[-58.9310155,-0.206144200000311],[-58.924622,-0.214470700000625],[-58.94468,-0.233684299999307],[-58.9384315,-0.242074799999655],[-58.94512370000001,-0.264832400000451],[-58.9355684,-0.274387799999697],[-58.8956802,-0.294084300000354],[-58.9158949,-0.31876459999983],[-58.9110925,-0.326444600000546],[-58.9426484,-0.354973599999925],[-58.9583742,-0.378626599999853],[-58.9461179,-0.389086000000104],[-58.9488784,-0.405483300000381],[-58.9414861,-0.410145100000199],[-58.9336213,-0.431803900000203],[-58.9180628,-0.448104700000391],[-58.9070074,-0.455518700000391],[-58.8956795,-0.453256600000329],[-58.8813717,-0.457411299999702],[-58.8478415,-0.481756299999928],[-58.85353580000001,-0.49134099999975],[-58.8530305,-0.500479600000028],[-58.84376970000001,-0.498449100000039],[-58.8352605,-0.547697300000124],[-58.8211771,-0.563353700000201],[-58.8178088,-0.585516100000102],[-58.8024503,-0.601031500000233],[-58.8013061,-0.608514199999876],[-58.7883364,-0.621691400000136],[-58.784617,-0.631391799999914],[-58.7529703,-0.664381400000167],[-58.7558872,-0.6890926],[-58.7426129,-0.701813700000089],[-58.7610068,-0.704924],[-58.7722015,-0.72303619999982],[-58.755335,-0.728975100000217],[-58.7390837,-0.772013400000069],[-58.7435633,-0.792097499999853],[-58.7228938,-0.811752199999955],[-58.7475597,-0.822476099999956],[-58.7417214,-0.830477300000019],[-58.71680880000001,-0.832264699999872],[-58.6979463,-0.852253400000057],[-58.6956932,-0.86113239999994],[-58.6791425,-0.873602199999913],[-58.6672235,-0.904559800000179],[-58.6362195,-0.905872499999813],[-58.623248,-0.928959099999808],[-58.6003334,-0.939338500000168],[-58.6177478,-0.988536000000141],[-58.6079661,-0.997464800000055],[-58.5757687,-1.006822100000128],[-58.5503598,-0.992082000000174],[-58.5349353,-1.008494],[-58.5391907,-1.019045799999841],[-58.5274338,-1.028852100000072],[-58.5184592,-1.048521399999924],[-58.5201038,-1.061276800000134],[-58.5161874,-1.068666200000086],[-58.5250211,-1.075305699999906],[-58.5157672,-1.106299399999944],[-58.5226222,-1.112526700000094],[-58.514794,-1.133169],[-58.5065141,-1.14105260000001],[-58.5025443,-1.16661110000015],[-58.483848,-1.172645600000049],[-58.4537663,-1.174497],[-58.4404897,-1.164673200000099],[-58.4337297,-1.169991900000052],[-58.4349864,-1.185680399999928],[-58.4246823,-1.187375799999919],[-58.4184886,-1.173587499999889],[-58.4053436,-1.174273700000072],[-58.3980659,-1.169193400000049],[-58.3864543,-1.173683199999891],[-58.3866767,-1.183747700000066],[-58.3777063,-1.193625800000056],[-58.3689004,-1.192756199999873],[-58.3639547,-1.207796000000112],[-58.3703964,-1.212484599999876],[-58.364895,-1.227643500000119],[-58.3658424,-1.242133799999948],[-58.3729582,-1.25103189999997],[-58.3713994,-1.259801100000124],[-58.37606190000001,-1.269953900000091],[-58.3688403,-1.277380199999977],[-58.360815,-1.276059300000036],[-58.3579264,-1.283638799999988],[-58.3638204,-1.289182600000084],[-58.3517613,-1.304588900000087],[-58.3490589,-1.321951499999956],[-58.3416212,-1.318115800000089],[-58.3338947,-1.31980660000014],[-58.32145580000001,-1.348983099999925],[-58.3052011,-1.3542885000001],[-58.295532,-1.364118400000137],[-58.28364280000001,-1.364519399999882],[-58.2791713,-1.371533699999907],[-58.2797575,-1.387739599999967],[-58.2953675,-1.413765600000071],[-58.2853069,-1.4245097],[-58.2909747,-1.437746],[-58.2655904,-1.458043099999934],[-58.2673954,-1.471169700000109],[-58.2743363,-1.4782431],[-58.2737581,-1.486445500000056],[-58.25056090000001,-1.5265902999999],[-58.2514205,-1.543192099999879],[-58.2362813,-1.540137],[-58.2267259,-1.556852],[-58.1949184,-1.5555808],[-58.1865303,-1.559140399999912],[-58.1759965,-1.575976600000057],[-58.1600002,-1.590268900000014],[-58.1533051,-1.607647399999892],[-58.140214,-1.61868749999996],[-58.1287459,-1.613740900000071],[-58.1069948,-1.61748430000002],[-58.0924597,-1.6291574],[-58.0888489,-1.644239999999886],[-58.0694951,-1.6541222],[-58.0521321,-1.654889500000027],[-58.0490218,-1.663718400000082],[-58.0529642,-1.67547269999997],[-58.0361597,-1.689139299999989],[-58.0197107,-1.693540800000021],[-58.0077097,-1.747461700000058],[-58.0060167,-1.783644200000019],[-57.9949516,-1.79620919999996],[-57.99332,-1.805550199999987],[-57.9979605,-1.819516200000017],[-57.9952855,-1.829998],[-57.97551,-1.836624400000046],[-57.98009230000001,-1.847696500000015],[-57.9798138,-1.864197],[-57.9862942,-1.87218629999997],[-57.9869587,-1.89521810000001],[-57.9804854,-1.902242],[-57.9790147,-1.911918599999961],[-57.9597346,-1.92343830000002],[-57.95651130000001,-1.933074100000041],[-57.9510965,-1.984685799999924],[-57.9613988,-2.000703899999963],[-57.9580629,-2.008074800000089],[-57.9488769,-2.00825859999998],[-57.9471242,-2.015743100000059],[-57.9512044,-2.0229165],[-57.9479242,-2.0302586],[-57.9405169,-2.035940900000087],[-57.9324315,-2.031884400000016],[-57.9230905,-2.036037600000059],[-57.9079797,-2.058444900000048],[-57.8740846,-2.04932269999996],[-57.859979,-2.066753299999978],[-57.8571409,-2.082966599999934],[-57.8414996,-2.090631400000059],[-57.8308373,-2.086434600000068],[-57.8205265,-2.101528899999931],[-57.8244173,-2.109000700000072],[-57.82285790000001,-2.124843299999957],[-57.8058039,-2.153843200000024],[-57.7716612,-2.194508299999942],[-57.752883,-2.209781200000058],[-57.7303873,-2.2052907],[-57.7263843,-2.211842499999925],[-57.7175194,-2.2150884],[-57.713802,-2.22440119999998],[-57.6639084,-2.2405458],[-57.6582418,-2.246291900000058],[-57.657541,-2.268714800000041],[-57.6513516,-2.277419900000036],[-57.630764,-2.273881799999961],[-57.62343160000001,-2.276425599999926],[-57.6141819,-2.265708499999953],[-57.60632,-2.275124699999979],[-57.5979563,-2.270768200000029],[-57.5870057,-2.282900899999974],[-57.5709629,-2.288497399999955],[-57.5606765,-2.287180900000028],[-57.5492014,-2.30069449999996],[-57.5527036,-2.317148599999954],[-57.5272029,-2.320039600000032],[-57.5145644,-2.332166699999922],[-57.5080594,-2.348323500000034],[-57.4963661,-2.345788400000075],[-57.4774221,-2.332052600000011],[-57.4604474,-2.336239800000043],[-57.4537255,-2.3301523],[-57.4425861,-2.341933100000071],[-57.4248023,-2.341460399999977],[-57.4086155,-2.381387900000065],[-57.3495724,-2.41962510000003],[-57.3334878,-2.440949699999988],[-57.3304061,-2.4577627],[-57.3135998,-2.474403099999984],[-57.2892284,-2.489242800000028],[-57.3171356,-2.5085982],[-57.3522699,-2.455862699999947],[-57.5919775,-2.457284200000049],[-57.611873,-2.496030699999988],[-57.6236437,-2.533478300000044],[-57.7151078,-2.667844099999964],[-57.7525973,-2.697083],[-57.782378,-2.7291428],[-57.836996,-2.757681500000034],[-57.8789647,-2.7511492],[-57.9442448,-2.76168429999997],[-57.9538638,-2.748116600000066],[-57.9594824,-2.747341200000034],[-57.9321428,-2.729164600000012],[-57.9319202,-2.723508200000011],[-57.9440155,-2.706511599999944],[-57.9254183,-2.695032800000031],[-57.9300536,-2.670342199999955],[-57.9400134,-2.661580600000068],[-57.9524239,-2.6681887],[-57.9585119,-2.683268],[-57.9629652,-2.6829924],[-57.9643223,-2.677644],[-57.9373836,-2.619113199999966],[-57.8923756,-2.609293300000036],[-57.8795364,-2.6111873],[-57.8266901,-2.596026199999933],[-57.8039704,-2.578425499999948],[-57.7896652,-2.555648400000019],[-57.766851,-2.540399200000022],[-57.8110619,-2.53080320000006],[-57.8156704,-2.534741100000043],[-57.8201772,-2.524270600000027],[-57.8343684,-2.511933],[-57.839989,-2.497870600000052],[-57.8390776,-2.484013100000054],[-57.8592364,-2.468925299999946],[-57.8618296,-2.45148229999997],[-57.8859784,-2.421619599999935],[-57.8924447,-2.406109899999984],[-57.9814452,-2.405824],[-57.9857467,-2.371964200000031],[-57.9769474,-2.342202199999945],[-57.9772662,-2.327010399999939],[-57.9817432,-2.3216223],[-57.9778467,-2.319509799999988],[-57.976789,-2.30812020000001],[-57.9821403,-2.291377],[-57.99856,-2.265545800000034],[-58.0097435,-2.258734800000076],[-58.0131806,-2.250371700000052],[-58.0303145,-2.234672100000057],[-58.0331499,-2.2250473],[-58.1138326,-2.219873300000069],[-58.1173467,-2.198413300000012],[-58.1398723,-2.164241099999982],[-58.1293474,-2.123719200000057],[-58.1370327,-2.1192564],[-58.1433116,-2.1321295],[-58.1518373,-2.135077900000045],[-58.1608515,-2.131549800000051],[-58.1721412,-2.118027],[-58.1875055,-2.11513960000007],[-58.1752164,-2.092238800000068],[-58.16849340000001,-2.091263],[-58.1639165,-2.098899200000012],[-58.1555731,-2.101832900000041],[-58.1500504,-2.100573500000092],[-58.1502368,-2.094146],[-58.1564583,-2.081269499999971],[-58.1746067,-2.070676399999948],[-58.1830334,-2.0208501],[-58.1890746,-2.00861459999994],[-58.212779,-2.000116400000063],[-58.2231757,-1.989763499999966],[-58.2472229,-1.977902600000065],[-58.25128380000001,-1.969999199999921],[-58.2542132,-1.935787399999909],[-58.268599,-1.930036400000019],[-58.285681,-1.940699900000091],[-58.3046121,-1.92442519999993],[-58.3005888,-1.911926500000098],[-58.3227725,-1.913882600000086],[-58.3449016,-1.922121400000036],[-58.37543260000001,-1.920610300000024],[-58.3971286,-1.903749],[-58.4131621,-1.871500499999931],[-58.4250697,-1.87009770000003],[-58.4348935,-1.844602299999941],[-58.4559459,-1.825011900000053],[-58.4625571,-1.805988099999972],[-58.4756452,-1.804688500000083],[-58.4855652,-1.798493099999977],[-58.5060669,-1.802847600000083],[-58.5143696,-1.7952308],[-58.54401020000001,-1.78931450000003],[-58.5621937,-1.769917400000082],[-58.586411,-1.766541800000013],[-58.5893006,-1.75785259999997],[-58.5594563,-1.735690800000032],[-58.5580671,-1.729981099999895],[-58.5674764,-1.719124900000049],[-58.5838809,-1.715424700000112],[-58.5782083,-1.712553600000067],[-58.5777512,-1.701919499999911],[-58.5684515,-1.688234599999956],[-58.57369889999999,-1.670172600000077],[-58.5853698,-1.6674675],[-58.587965,-1.647444099999952],[-58.6004413,-1.644714500000053],[-58.5927113,-1.6379879000001],[-58.5964869,-1.63399070000003],[-58.599668,-1.60012530000006],[-58.6082399,-1.602101899999927],[-58.6313556,-1.592976400000048],[-58.6255755,-1.585921599999976],[-58.64051950000001,-1.563765599999877],[-58.6480776,-1.561714300000068],[-58.6546633,-1.567752400000078],[-58.6503079,-1.557621300000101],[-58.65331780000001,-1.555250099999898],[-58.6624525,-1.559243399999919],[-58.66596470000001,-1.575665400000074],[-58.6752971,-1.572252700000044],[-58.6942586,-1.575583899999908],[-58.7062027,-1.558610799999986],[-58.6968784,-1.555044299999935],[-58.6945944,-1.560822],[-58.6935644,-1.554349399999976],[-58.7046307,-1.546814100000079],[-58.7163551,-1.520653900000019],[-58.724449,-1.519780400000098],[-58.727572,-1.514403099999964],[-58.7358239,-1.514942800000072],[-58.7400254,-1.4976677],[-58.7522916,-1.503191499999892],[-58.7850624,-1.499836499999953],[-58.78022,-1.508015800000085],[-58.7910595,-1.505759599999929],[-58.7985069,-1.49865620000012],[-58.8037303,-1.500999899999944],[-58.8059988,-1.495519499999948],[-58.8236578,-1.504470699999905],[-58.8236947,-1.508890799999978],[-58.83626,-1.51085539999994],[-58.8407,-1.5051058],[-58.8334266,-1.4985841],[-58.8425832,-1.488565499999934],[-58.8367034,-1.483421599999923],[-58.8494594,-1.489809599999911],[-58.8567608,-1.485013800000066],[-58.8522293,-1.476805600000095],[-58.8640927,-1.45429149999996],[-58.8727704,-1.455340199999956],[-58.8792649,-1.447448500000049],[-58.889245,-1.44678819999998],[-58.8988934,-1.45129679999998],[-58.9189273,-1.4486975],[-58.9207239,-1.454953700000101],[-58.9247747,-1.453493600000068],[-58.9279358,-1.4317108],[-58.9387721,-1.4284692],[-58.9355807,-1.424210700000032],[-58.9462337,-1.402222500000026],[-58.9462951,-1.383788699999968],[-58.9557353,-1.383249099999954],[-58.9617499,-1.388272399999957],[-58.9704916,-1.38320490000002],[-58.9681316,-1.371825699999955],[-58.9725644,-1.372899800000031],[-58.9873549,-1.356549799999865],[-58.9846959,-1.348657700000099],[-58.9884321,-1.340753100000069],[-59.0052812,-1.336896999999895],[-59.0035482,-1.333468899999937],[-59.010191,-1.332219300000055],[-59.0094588,-1.326580599999922],[-59.0180176,-1.315511],[-59.0291699,-1.328712899999988],[-59.0336107,-1.329582500000063],[-59.0366881,-1.323992600000115],[-59.0396184,-1.330289000000106],[-59.0446728,-1.3290279],[-59.05029170000001,-1.33476379999991],[-59.06322380000001,-1.314907299999952],[-59.0800477,-1.321963399999977],[-59.0819709,-1.312293500000049],[-59.0940967,-1.308164899999909],[-59.0979398,-1.302227599999877],[-59.0954052,-1.295842599999889],[-59.1080947,-1.295077899999902],[-59.1088399,-1.28937680000011],[-59.120693,-1.279479000000141],[-59.1281185,-1.279840800000104],[-59.1303401,-1.285377099999906],[-59.1405115,-1.278534399999922],[-59.1593436,-1.277393200000069],[-59.1647837,-1.266101700000101],[-59.1808617,-1.251373299999904],[-59.1870589,-1.259113799999879],[-59.2055635,-1.250604199999851],[-59.2043052,-1.244101800000135],[-59.2003975,-1.243501800000085],[-59.20287470000001,-1.236845500000052],[-59.2132697,-1.233232299999962],[-59.2213761,-1.220988099999982],[-59.2317629,-1.219882499999887],[-59.2330703,-1.213369699999982],[-59.2383194,-1.213368599999943],[-59.2359975,-1.207574900000082],[-59.2414966,-1.202111100000077],[-59.2355638,-1.196444499999951],[-59.239458,-1.185105000000145],[-59.245751,-1.184209499999861],[-59.2520843,-1.189039299999904],[-59.2660498,-1.184740500000126],[-59.2756013,-1.175953199999901],[-59.2771892,-1.158925700000105],[-59.2811765,-1.154881099999876],[-59.3054764,-1.156259299999948],[-59.3316653,-1.140981800000014],[-59.3468391,-1.139503899999935],[-59.362726,-1.154295800000036],[-59.3797214,-1.147744000000119],[-59.3828377,-1.137284800000056],[-59.3754717,-1.133849200000081],[-59.380618,-1.106673499999944],[-59.6139594,-1.109899800000138],[-59.6217474,-1.105138399999916],[-59.6271713,-1.0932828],[-59.6343406,-1.09099330000016],[-59.6311022,-1.0810773999999],[-59.6400526,-1.0756346],[-59.6504915,-1.075448200000157],[-59.6580743,-1.068801999999841],[-59.6591963,-1.0721624],[-59.6676332,-1.070152300000085],[-59.6687978,-1.065786800000025],[-59.673631,-1.075240800000077],[-59.6736486,-1.0892786],[-59.6877324,-1.090432499999846],[-59.6880199,-1.096865600000052],[-59.692374,-1.094786],[-59.700286,-1.104837800000124],[-59.7129314,-1.095558600000082],[-59.7210493,-1.097207],[-59.7154641,-1.085310600000138],[-59.7174595,-1.079876900000055],[-59.7439819,-1.076608000000105],[-59.7426608,-1.066283399999971],[-59.74941470000001,-1.054976900000099],[-59.7560273,-1.0597003],[-59.773761,-1.047935999999843],[-59.7864812,-1.045449700000028],[-59.7899969,-1.037491100000064],[-59.8047995,-1.025790899999928],[-59.8061319,-1.014623700000086],[-59.8088477,-1.016892299999967],[-59.8230895,-1.007280999999833],[-59.8240062,-1.001339900000046],[-59.8185879,-0.997963200000076],[-59.8421762,-0.96959159999986],[-59.8406808,-0.94312709999985],[-59.85681670000001,-0.910876500000108],[-59.8657307,-0.906915999999843],[-59.8677267,-0.901282599999806],[-59.8854581,-0.899661100000048],[-59.9029917,-0.888782999999801],[-59.8936391,-0.876169100000135],[-59.9046437,-0.872841100000168],[-59.9069561,-0.867801700000181],[-59.9112562,-0.869188799999843],[-59.918815,-0.857426199999943],[-59.93042890000001,-0.851706299999918],[-59.9452781,-0.855056700000085],[-59.957766,-0.843348700000025],[-59.9648767,-0.844005499999837],[-59.9665486,-0.834242300000036],[-59.9804675,-0.82982280000021],[-59.9838138,-0.819010799999869],[-60.0048802,-0.791685],[-60.0106616,-0.794723800000081],[-60.0349644,-0.742547899999758],[-60.0301404,-0.727159099999969],[-60.0455436,-0.700014600000139],[-60.0468936,-0.68149639999982],[-60.0542705,-0.675992300000232],[-60.0533055,-0.650087700000232],[-60.0455329,-0.650941500000266],[-60.0335071,-0.663518999999735],[-60.0249925,-0.661486899999881],[-60.0360259,-0.635343799999824],[-60.0268884,-0.633717699999902],[-60.0217165,-0.62669059999997],[-60.022437,-0.617216699999732],[-60.0384185,-0.596532500000036],[-60.0298326,-0.583887099999754],[-60.0119171,-0.581018400000056],[-60.0087121,-0.572868800000108],[-60.000945,-0.569551799999754],[-59.9676402,-0.568876700000222],[-59.9502045,-0.530536000000172],[-59.9567433,-0.525431499999655],[-59.9541333,-0.515576600000104],[-59.9294436,-0.497607299999957],[-59.9258576,-0.484625899999927],[-59.8928663,-0.455384099999919],[-59.8826048,-0.456851599999673],[-59.8795556,-0.465333800000266],[-59.87019,-0.469292700000026],[-59.8573688,-0.447264099999827],[-59.8480313,-0.442523200000373],[-59.8385854,-0.416872900000037],[-59.8313147,-0.411340799999732],[-59.8318462,-0.39841739999963],[-59.8373836,-0.389427500000112],[-59.8531953,-0.392133499999936],[-59.8626391,-0.366164400000182],[-59.8535489,-0.36890080000016],[-59.8463683,-0.335471599999529],[-59.85207650000001,-0.325187],[-59.8499621,-0.312912399999839],[-59.8430555,-0.307558799999897],[-59.8444089,-0.284671599999929],[-59.8387438,-0.267571800000483],[-59.8079557,-0.248472799999336],[-59.8079825,-0.237596900000098],[-59.84756260000001,-0.181776400000837],[-59.8730253,-0.163421400000909],[-59.9022494,-0.156918000000908],[-59.9134065,-0.150050400000296],[-59.9194453,-0.125959100000381],[-59.892578,-0.101940899999417],[-59.8747683,-0.113219000000173],[-59.8752092,-0.103313299998623],[-59.8804416,-0.096144299999079],[-59.8790684,-0.087251999998036],[-59.8640642,-0.070766800000529],[-59.86211260000001,-0.059754599998669],[-59.8645351,-0.04664050000088],[-59.8805549,-0.015530900000565],[-59.8934491,-0.005349099967342],[-59.9032646,0.022149800004722],[-59.9169142,0.033538399998349],[-59.933275,0.029920400004536],[-59.9477232,0.038235399999167],[-59.9571878,0.037417999997897],[-59.9557778,0.028564500003699],[-59.9426978,0.015826500009086],[-59.9393288,-0.000345600290741],[-59.9306773,-0.014868399991699],[-59.93514230000001,-0.022964800000447],[-59.92898850000001,-0.034259500000834],[-59.9359193,-0.039210899999937],[-59.9511071,-0.038931000004247],[-59.96121010000001,-0.032092500003611],[-59.9723743,-0.030994499994659],[-59.9759725,-0.037822899998429],[-59.9528094,-0.04991],[-59.9628014,-0.058563799997773],[-59.9855874,-0.060946600002139],[-60.005174,-0.048141499999207],[-60.02350460000001,-0.043134899995989],[-60.0633969,-0.050836999998361],[-60.0825021,-0.048070000002565],[-60.1226498,-0.079650900001326],[-60.1533666,-0.089358999998125],[-60.1800389,-0.085528800002093],[-60.2276107,-0.121710599999481],[-60.2343661,-0.111351499999514],[-60.2390082,-0.113672599998493],[-60.2281116,-0.084110000000889],[-60.2108138,-0.06388049999975],[-60.2157002,-0.058554299997612],[-60.210032,-0.0503940999985],[-60.213599,-0.046729299998767],[-60.2064161,-0.040621299997723],[-60.2117911,-0.042429300003188],[-60.2118888,-0.03939969999967],[-60.1853069,-0.013110999994609],[-60.18950920000001,-0.008908699985937],[-60.179541,-0.007003100024492],[-60.1761205,-0.001334899938538],[-60.169133,-0.003777999987096],[-60.16874210000001,0.001548100025769],[-60.1595069,0.006825400016718],[-60.1569659,0.016549300008209],[-60.1488057,0.016793599995213],[-60.1400102,0.027103799996369],[-60.1325829,0.027690199995261],[-60.1406455,0.034824299996864],[-60.1370295,0.036876600000994],[-60.1399614,0.04542770000169],[-60.1297488,0.048603900002667],[-60.1278431,0.061699399997957],[-60.1320943,0.065657300001552],[-60.11797270000001,0.081391400001853],[-60.1213931,0.088036899999859],[-60.13380449999999,0.095219899999572],[-60.1336091,0.103477799998867],[-60.1191454,0.121948299999104],[-60.1149431,0.122094899999724],[-60.1158227,0.128886900001055],[-60.1104965,0.134945999999114],[-60.09241690000001,0.138073299999385],[-60.0590829,0.162996900001073],[-60.0379686,0.263545499999583],[-59.1922781,0.263526800000183]]]]}},{"type":"Feature","properties":{"CD_MUN":"1303957","NM_MUN":"São Sebastião do Uatumã","SIGLA_UF":"AM","CodigoIBGE":"1303957","SubRegiaoNumero":9,"CalhaSubRegiao":"Região do Baixo Amazonas"},"geometry":{"type":"Polygon","coordinates":[[[-58.0107235,-2.648167799999936],[-58.0687876,-2.631819400000055],[-58.0894096,-2.616141],[-58.0969118,-2.61618],[-58.1319033,-2.595642799999969],[-58.1512697,-2.589574500000052],[-58.1655785,-2.5758246],[-58.1788321,-2.571020299999947],[-58.1838949,-2.5558843],[-58.2085513,-2.52016],[-58.2261367,-2.515128800000014],[-58.2469795,-2.489402900000047],[-58.2570561,-2.487422400000063],[-58.2631186,-2.4763277],[-58.2727098,-2.475311499999989],[-58.2824453,-2.4668132],[-58.2555186,-2.429542199999966],[-58.2543896,-2.4093885],[-58.2593171,-2.396643800000049],[-58.28501030000001,-2.3883164],[-58.2893682,-2.4009773],[-58.29635110000001,-2.406997800000021],[-58.3248217,-2.410677599999965],[-58.3367535,-2.399345600000031],[-58.3578263,-2.340990200000023],[-58.3675479,-2.334801600000068],[-58.3922338,-2.33500880000004],[-58.4025674,-2.316856399999944],[-58.4464929,-2.309943199999954],[-58.4589235,-2.29890810000001],[-58.47741090000001,-2.292696599999958],[-58.4988242,-2.297012499999926],[-58.5170591,-2.306497200000064],[-58.548349,-2.309524699999979],[-58.5594521,-2.315370500000045],[-58.607942,-2.288687300000043],[-58.6659036,-2.317008299999943],[-58.68503050000001,-2.338980400000068],[-58.7247975,-2.345175199999954],[-58.7413123,-2.337060500000044],[-58.7430443,-2.327629299999941],[-58.7351713,-2.309629100000062],[-58.7230706,-2.29759069999994],[-58.7238928,-2.280527699999961],[-58.7410111,-2.279038600000026],[-58.7648826,-2.289407499999971],[-58.7696624,-2.282099899999935],[-58.7681623,-2.269501599999934],[-58.77338730000001,-2.263937799999919],[-58.8191621,-2.2672732],[-58.8228337,-2.259243300000069],[-58.8177778,-2.247591900000022],[-58.8276204,-2.239204100000082],[-58.8495432,-2.254743099999978],[-58.8710337,-2.248095099999922],[-58.8746549,-2.233689600000039],[-58.8795613,-2.230097300000026],[-58.8977151,-2.232122600000012],[-58.9081519,-2.239666],[-58.9079541,-2.263489799999947],[-58.9236035,-2.253244199999981],[-58.9322068,-2.2768397],[-58.9391077,-2.280097799999931],[-58.9441378,-2.278144],[-58.9505553,-2.263745700000056],[-58.9765713,-2.250798799999936],[-59.0137253,-2.254503],[-59.0289711,-2.244911100000062],[-59.0435666,-2.252759100000011],[-59.0530365,-2.230524499999955],[-59.0610068,-2.231666899999945],[-59.0730423,-2.241438299999972],[-59.0732704,-2.2541045],[-59.0624005,-2.267050299999967],[-59.0669588,-2.274100199999947],[-59.0772811,-2.276967799999961],[-59.0903503,-2.268263],[-59.1058837,-2.244136900000063],[-59.1109915,-2.22377989999995],[-59.1293846,-2.223706099999987],[-59.1387774,-2.231497899999944],[-59.1442467,-2.249669599999983],[-59.1538,-2.248510899999912],[-59.163165,-2.232902199999968],[-59.1450234,-2.224696400000071],[-59.1456336,-2.217103099999986],[-59.160898,-2.21024149999996],[-59.1787078,-2.210244300000082],[-59.1824231,-2.201104],[-59.1796037,-2.185143300000039],[-59.1609938,-2.168985],[-59.1439864,-2.171921700000047],[-59.1384361,-2.165770699999976],[-59.1324775,-2.150181200000057],[-59.1284412,-2.100716399999917],[-59.11280150000001,-2.077327300000087],[-59.119377,-2.041375100000025],[-59.1147195,-2.032452599999946],[-59.1240798,-2.007328200000024],[-59.1623034,-1.985517400000052],[-59.1550726,-1.96705760000006],[-59.1613138,-1.960211900000059],[-59.1840176,-1.947919799999936],[-59.1922201,-1.9480989],[-59.201832,-1.940385],[-59.2038033,-1.918026199999948],[-59.2135192,-1.901263099999989],[-59.2224439,-1.899586200000083],[-59.2208847,-1.891898800000053],[-59.2278857,-1.873585699999935],[-59.2360336,-1.864623899999965],[-59.2456665,-1.8623735],[-59.2445301,-1.851614099999984],[-59.2507719,-1.844518100000072],[-59.2517462,-1.833175399999945],[-59.2460575,-1.8265738],[-59.2266897,-1.8265492],[-59.2193312,-1.818978499999951],[-59.2117058,-1.788960400000049],[-59.2177497,-1.781246600000043],[-59.1986641,-1.731094599999973],[-59.1960287,-1.710774300000028],[-59.1804096,-1.687442599999987],[-59.1796354,-1.677084300000055],[-59.1675783,-1.677720599999929],[-59.1679695,-1.6592817],[-59.1403289,-1.643086799999909],[-59.1379926,-1.629481900000076],[-59.14266,-1.620101599999932],[-59.1275756,-1.607528699999915],[-59.1324922,-1.601058099999891],[-59.1272968,-1.589371399999964],[-59.1363802,-1.584905500000082],[-59.1416885,-1.565112500000039],[-59.1503252,-1.562074800000069],[-59.150135,-1.550004900000095],[-59.1564662,-1.545295900000068],[-59.1514085,-1.515907299999894],[-59.170857,-1.485518799999899],[-59.1866076,-1.472994299999922],[-59.2006618,-1.469449900000102],[-59.1878051,-1.454117399999928],[-59.1913631,-1.446431100000015],[-59.2339579,-1.449961600000069],[-59.2301839,-1.4379024],[-59.2621146,-1.437399300000088],[-59.2705247,-1.431209400000108],[-59.2962237,-1.454058799999941],[-59.2981966,-1.474838499999943],[-59.3053891,-1.483909],[-59.3301961,-1.48193490000002],[-59.3349993,-1.472167099999964],[-59.331892,-1.46504299999989],[-59.3347878,-1.457256300000101],[-59.3597518,-1.459039999999898],[-59.3697374,-1.452364999999886],[-59.3921729,-1.45310470000013],[-59.3986825,-1.447453],[-59.4109012,-1.445744700000039],[-59.4249322,-1.451072500000126],[-59.4378368,-1.434764200000034],[-59.45874770000001,-1.43496010000005],[-59.4862511,-1.4539987],[-59.4916775,-1.443067699999978],[-59.5037956,-1.444746],[-59.5193767,-1.432909699999978],[-59.5202617,-1.420052299999973],[-59.504122,-1.389428599999891],[-59.4945898,-1.385886900000054],[-59.4891895,-1.370703800000084],[-59.4723707,-1.3555437],[-59.4680928,-1.335503100000024],[-59.4424833,-1.319310799999895],[-59.44383650000001,-1.296834999999899],[-59.4353437,-1.279619899999964],[-59.4048213,-1.258544500000037],[-59.3936541,-1.261529],[-59.3819794,-1.258446900000066],[-59.3755906,-1.265760400000098],[-59.3654748,-1.2679],[-59.3594776,-1.261616799999885],[-59.3619722,-1.250752799999905],[-59.3733622,-1.236683500000129],[-59.3725854,-1.193769899999988],[-59.3841963,-1.175882],[-59.3797214,-1.147744000000119],[-59.362726,-1.154295800000036],[-59.3468391,-1.139503899999935],[-59.3316653,-1.140981800000014],[-59.3054764,-1.156259299999948],[-59.2811765,-1.154881099999876],[-59.2771892,-1.158925700000105],[-59.2756013,-1.175953199999901],[-59.2660498,-1.184740500000126],[-59.2520843,-1.189039299999904],[-59.245751,-1.184209499999861],[-59.239458,-1.185105000000145],[-59.2355638,-1.196444499999951],[-59.2414966,-1.202111100000077],[-59.2359975,-1.207574900000082],[-59.2383194,-1.213368599999943],[-59.2330703,-1.213369699999982],[-59.2317629,-1.219882499999887],[-59.2213761,-1.220988099999982],[-59.2132697,-1.233232299999962],[-59.20287470000001,-1.236845500000052],[-59.2003975,-1.243501800000085],[-59.2043052,-1.244101800000135],[-59.2047653,-1.251173799999902],[-59.1870589,-1.259113799999879],[-59.1808617,-1.251373299999904],[-59.1647837,-1.266101700000101],[-59.1592535,-1.277428700000068],[-59.1405115,-1.278534399999922],[-59.1303401,-1.285377099999906],[-59.1281185,-1.279840800000104],[-59.120693,-1.279479000000141],[-59.1088399,-1.28937680000011],[-59.1080947,-1.295077899999902],[-59.0954052,-1.295842599999889],[-59.0979398,-1.302227599999877],[-59.0940967,-1.308164899999909],[-59.0819709,-1.312293500000049],[-59.0800477,-1.321963399999977],[-59.06322380000001,-1.314907299999952],[-59.05029170000001,-1.33476379999991],[-59.0446728,-1.3290279],[-59.0396184,-1.330289000000106],[-59.0366881,-1.323992600000115],[-59.0336107,-1.329582500000063],[-59.0291699,-1.328712899999988],[-59.0181859,-1.315391499999947],[-59.0094588,-1.326580599999922],[-59.010191,-1.332219300000055],[-59.0035482,-1.333468899999937],[-59.0052812,-1.336896999999895],[-58.9884321,-1.340753100000069],[-58.9846959,-1.348657700000099],[-58.9873549,-1.356549799999865],[-58.9725644,-1.372899800000031],[-58.9681316,-1.371825699999955],[-58.9704916,-1.38320490000002],[-58.9617499,-1.388272399999957],[-58.9557353,-1.383249099999954],[-58.9462951,-1.383788699999968],[-58.9462337,-1.402222500000026],[-58.9355807,-1.424210700000032],[-58.9387721,-1.4284692],[-58.9279358,-1.4317108],[-58.9247747,-1.453493600000068],[-58.9207239,-1.454953700000101],[-58.9189273,-1.4486975],[-58.8988934,-1.45129679999998],[-58.889245,-1.44678819999998],[-58.8792649,-1.447448500000049],[-58.8727704,-1.455340199999956],[-58.8640927,-1.45429149999996],[-58.8522293,-1.476805600000095],[-58.8567608,-1.485013800000066],[-58.8494594,-1.489809599999911],[-58.8367034,-1.483421599999923],[-58.8425832,-1.488565499999934],[-58.8334266,-1.4985841],[-58.8407,-1.5051058],[-58.83626,-1.51085539999994],[-58.8236947,-1.508890799999978],[-58.8236578,-1.504470699999905],[-58.8059988,-1.495519499999948],[-58.8037303,-1.500999899999944],[-58.7985069,-1.49865620000012],[-58.7910595,-1.505759599999929],[-58.78022,-1.508015800000085],[-58.7850624,-1.499836499999953],[-58.7522916,-1.503191499999892],[-58.7400254,-1.4976677],[-58.7358239,-1.514942800000072],[-58.727572,-1.514403099999964],[-58.724449,-1.519780400000098],[-58.7163551,-1.520653900000019],[-58.7046307,-1.546814100000079],[-58.6935644,-1.554349399999976],[-58.6945944,-1.560822],[-58.6968784,-1.555044299999935],[-58.7062027,-1.558610799999986],[-58.6942586,-1.575583899999908],[-58.6752971,-1.572252700000044],[-58.66596470000001,-1.575665400000074],[-58.6631936,-1.560931200000027],[-58.6573363,-1.555415400000077],[-58.6503079,-1.557621300000101],[-58.6543421,-1.568092099999973],[-58.6480776,-1.561714300000068],[-58.6404629,-1.56380310000006],[-58.6252273,-1.586743],[-58.6313556,-1.592976400000048],[-58.6082399,-1.602101899999927],[-58.599668,-1.60012530000006],[-58.5964869,-1.63399070000003],[-58.5927113,-1.6379879000001],[-58.6004413,-1.644714500000053],[-58.587965,-1.647444099999952],[-58.5853698,-1.6674675],[-58.57369889999999,-1.670172600000077],[-58.568908,-1.686241299999965],[-58.5777512,-1.701919499999911],[-58.5777971,-1.711823],[-58.5838809,-1.715424700000112],[-58.567184,-1.7192951],[-58.5580603,-1.7316465],[-58.5882842,-1.756558200000102],[-58.586411,-1.766541800000013],[-58.5621937,-1.769917400000082],[-58.54401020000001,-1.78931450000003],[-58.5143696,-1.7952308],[-58.5060669,-1.802847600000083],[-58.4855652,-1.798493099999977],[-58.4756452,-1.804688500000083],[-58.4625571,-1.805988099999972],[-58.4559459,-1.825011900000053],[-58.4348935,-1.844602299999941],[-58.4250697,-1.87009770000003],[-58.4131621,-1.871500499999931],[-58.3971286,-1.903749],[-58.37543260000001,-1.920610300000024],[-58.3449016,-1.922121400000036],[-58.3227725,-1.913882600000086],[-58.3005888,-1.911926500000098],[-58.3046121,-1.92442519999993],[-58.285681,-1.940699900000091],[-58.268599,-1.930036400000019],[-58.2542132,-1.935787399999909],[-58.25128380000001,-1.969999199999921],[-58.2472229,-1.977902600000065],[-58.2231757,-1.989763499999966],[-58.212779,-2.000116400000063],[-58.1890746,-2.00861459999994],[-58.1830334,-2.0208501],[-58.1746067,-2.070676399999948],[-58.1564583,-2.081269499999971],[-58.1502368,-2.094146],[-58.1500504,-2.100573500000092],[-58.1555731,-2.101832900000041],[-58.1639165,-2.098899200000012],[-58.16849340000001,-2.091263],[-58.1752164,-2.092238800000068],[-58.1875055,-2.11513960000007],[-58.1721412,-2.118027],[-58.1608515,-2.131549800000051],[-58.1518373,-2.135077900000045],[-58.1433116,-2.1321295],[-58.1370327,-2.1192564],[-58.1293474,-2.123719200000057],[-58.1398723,-2.164241099999982],[-58.1173467,-2.198413300000012],[-58.1138326,-2.219873300000069],[-58.0331499,-2.2250473],[-58.0303145,-2.234672100000057],[-58.0131806,-2.250371700000052],[-58.0097435,-2.258734800000076],[-57.99856,-2.265545800000034],[-57.9821403,-2.291377],[-57.976789,-2.30812020000001],[-57.9778467,-2.319509799999988],[-57.9817432,-2.3216223],[-57.9772662,-2.327010399999939],[-57.9769474,-2.342202199999945],[-57.9857467,-2.371964200000031],[-57.9814452,-2.405824],[-57.8924447,-2.406109899999984],[-57.8859784,-2.421619599999935],[-57.8618296,-2.45148229999997],[-57.8592364,-2.468925299999946],[-57.8390776,-2.484013100000054],[-57.839989,-2.497870600000052],[-57.8343684,-2.511933],[-57.8201772,-2.524270600000027],[-57.8156704,-2.534741100000043],[-57.8110619,-2.53080320000006],[-57.766851,-2.540399200000022],[-57.7896652,-2.555648400000019],[-57.8039704,-2.578425499999948],[-57.8266901,-2.596026199999933],[-57.8828678,-2.611309300000029],[-57.889021,-2.60890009999993],[-57.8561198,-2.5890032],[-57.8521558,-2.580695799999959],[-57.8884241,-2.5770273],[-57.9232492,-2.581193199999957],[-57.9812008,-2.60143480000003],[-57.9827949,-2.609405699999978],[-57.9739648,-2.614782400000011],[-57.972381,-2.621431099999985],[-57.9735293,-2.635404399999941],[-57.9795028,-2.641105800000072],[-58.0107235,-2.648167799999936]]]}},{"type":"Feature","properties":{"CD_MUN":"1300680","NM_MUN":"Boa Vista do Ramos","SIGLA_UF":"AM","CodigoIBGE":"1300680","SubRegiaoNumero":9,"CalhaSubRegiao":"Região do Baixo Amazonas"},"geometry":{"type":"Polygon","coordinates":[[[-57.616154,-3.13371489999994],[-57.7958893,-3.133591800000058],[-57.7942834,-3.16659890000004],[-57.8057211,-3.189883600000035],[-57.8093346,-3.224920099999954],[-57.8256069,-3.245441200000045],[-57.8349717,-3.277719500000011],[-57.84349910000001,-3.284347600000017],[-57.85061480000001,-3.27897670000002],[-57.8621702,-3.281883500000057],[-57.8779977,-3.293328],[-57.9006394,-3.284313499999951],[-57.9099226,-3.2903231],[-57.9133154,-3.301959400000024],[-57.9247289,-3.311883900000012],[-57.941342,-3.339660900000036],[-57.9508183,-3.34416890000005],[-58.0291431,-3.340938],[-58.0424556,-3.3488947],[-58.0622945,-3.339258700000042],[-58.0745216,-3.29008],[-58.0648169,-3.275755900000042],[-58.0658519,-3.21512990000004],[-58.0430698,-3.2105747],[-58.0419911,-3.201667199999962],[-58.0209618,-3.17524209999998],[-58.013149,-3.14910170000004],[-57.9928734,-3.1338323],[-57.8904332,-2.952876800000012],[-57.8855364,-2.949380699999961],[-57.8820951,-2.959745299999943],[-57.8718956,-2.965134100000045],[-57.8343494,-2.96300280000003],[-57.8175782,-2.955205900000033],[-57.7959126,-2.973548399999982],[-57.792505,-2.984965899999958],[-57.7768184,-2.9916394],[-57.7578253,-2.98281],[-57.7438807,-2.956658099999967],[-57.7393626,-2.9616574],[-57.7169258,-2.9609428],[-57.7124084,-2.964651899999945],[-57.7081623,-2.952946600000032],[-57.7039458,-2.956245300000036],[-57.6980413,-2.947981599999978],[-57.6947313,-2.950036299999969],[-57.6774546,-2.943416700000014],[-57.6758299,-2.937731299999989],[-57.6644425,-2.943605800000016],[-57.6453032,-2.941118399999989],[-57.6310091,-2.9135615],[-57.6012181,-2.889885099999983],[-57.5759228,-2.837039299999984],[-57.5553312,-2.824247700000025],[-57.53684959999999,-2.831025499999977],[-57.5190888,-2.811663599999962],[-57.487635,-2.806811600000046],[-57.436466,-2.843843399999989],[-57.4744035,-2.857005399999947],[-57.473382,-2.862760200000016],[-57.4823641,-2.870996799999966],[-57.4659345,-2.950460600000011],[-57.4567529,-2.950953699999951],[-57.426752,-2.939469899999955],[-57.4160019,-2.9447397],[-57.3947248,-2.915393099999976],[-57.3844695,-2.914408899999941],[-57.3827789,-2.9216856],[-57.3785204,-2.922386600000011],[-57.3716991,-2.913613100000063],[-57.3541579,-2.9113903],[-57.3516368,-2.91434910000004],[-57.3568983,-2.94533049999994],[-57.3789926,-2.965904699999988],[-57.3842986,-2.981278900000054],[-57.4067152,-2.994392],[-57.4023995,-3.003035200000033],[-57.4119649,-3.0184056],[-57.4256109,-3.014388699999979],[-57.4304221,-3.004698400000015],[-57.4641885,-3.027138700000061],[-57.4594848,-3.034447599999984],[-57.4560792,-3.266397599999972],[-57.4226634,-3.288622],[-57.4037703,-3.276373200000037],[-57.3939656,-3.295861899999949],[-57.3953848,-3.316811],[-57.3920818,-3.323738400000039],[-57.3739324,-3.332736400000011],[-57.3712702,-3.362061400000037],[-57.36454830000001,-3.3696672],[-57.3629339,-3.379849899999981],[-57.3665721,-3.413603099999983],[-57.3586316,-3.4386842],[-57.3597127,-3.452106700000047],[-57.3717111,-3.478100200000027],[-57.370184,-3.513920599999988],[-57.434966,-3.500289600000027],[-57.4653345,-3.461186899999954],[-57.4874505,-3.44336190000003],[-57.4980623,-3.417818400000022],[-57.5012242,-3.386329400000033],[-57.5096177,-3.370114500000034],[-57.51052760000001,-3.350286399999954],[-57.5176459,-3.332758599999985],[-57.5159421,-3.3245236],[-57.5287591,-3.316902899999959],[-57.5489835,-3.315909799999973],[-57.56747759999999,-3.32145],[-57.5793121,-3.3393757],[-57.5894213,-3.339964199999987],[-57.60201210000001,-3.315511100000054],[-57.621846,-3.30614239999998],[-57.6286743,-3.290413400000057],[-57.6226491,-3.278898200000024],[-57.6254591,-3.257108899999949],[-57.6366471,-3.248170499999945],[-57.6384531,-3.211870900000032],[-57.6335675,-3.178890099999961],[-57.627541,-3.1692632],[-57.6185946,-3.173438200000058],[-57.6097056,-3.168486299999954],[-57.6152596,-3.158692299999982],[-57.616154,-3.13371489999994]]]}},{"type":"Feature","properties":{"CD_MUN":"1303007","NM_MUN":"Nhamundá","SIGLA_UF":"AM","CodigoIBGE":"1303007","SubRegiaoNumero":9,"CalhaSubRegiao":"Região do Baixo Amazonas"},"geometry":{"type":"Polygon","coordinates":[[[-56.13848511518627,-2.037720483573126],[-56.0986505,-2.026944599999951],[-56.0937406,-1.998433499999912],[-56.097558,-2.037133199999983],[-56.1024163,-2.048018],[-56.1811805,-2.160565],[-56.2202971,-2.195842800000077],[-56.3072364,-2.24245409999997],[-56.3748706,-2.264360200000038],[-56.3892493,-2.27852339999993],[-56.4102329,-2.274921],[-56.4030881,-2.2641014],[-56.4050842,-2.26110960000004],[-56.4197751,-2.277703199999935],[-56.4287401,-2.275240199999986],[-56.4478623,-2.279950400000049],[-56.4692935,-2.25956170000001],[-56.4819442,-2.267235900000015],[-56.4913534,-2.265723700000078],[-56.4951167,-2.2497291],[-56.5169195,-2.242535799999942],[-56.5401749,-2.261695],[-56.5339089,-2.285510799999959],[-56.5906158,-2.324989899999928],[-56.6097394,-2.319102299999975],[-56.6236867,-2.320537399999956],[-56.6432835,-2.356997800000053],[-56.6775741,-2.371522399999979],[-56.6741076,-2.385205099999983],[-56.7173456,-2.371914500000016],[-56.7358604,-2.379175800000017],[-56.7804424,-2.385350700000017],[-56.7707351,-2.408595400000047],[-56.7731814,-2.420098400000057],[-56.8324492,-2.406795599999935],[-56.8413569,-2.409880900000023],[-56.8487469,-2.420945100000022],[-56.8606682,-2.422981699999988],[-56.8651856,-2.418316099999961],[-56.8642961,-2.404743300000017],[-56.8759934,-2.400468600000065],[-56.8814068,-2.402784599999985],[-56.8779345,-2.416999500000049],[-56.8828829,-2.424999599999954],[-56.9486512,-2.4255834],[-56.9457717,-2.417982400000072],[-56.9270633,-2.411605400000018],[-56.9308045,-2.397855800000013],[-56.9359533,-2.393917300000064],[-56.926812,-2.368356500000012],[-56.9373864,-2.377251099999968],[-56.9470619,-2.367842199999974],[-56.9536038,-2.367209599999927],[-56.9694205,-2.380779599999972],[-56.978815,-2.382292299999976],[-56.9939009,-2.382020699999986],[-57.0044412,-2.376729],[-57.0363581,-2.379120799999923],[-57.0577664,-2.355916100000026],[-57.087254,-2.34537060000001],[-57.1032639,-2.33397],[-57.1140433,-2.3326133],[-57.1434295,-2.336421499999982],[-57.1719916,-2.331937899999986],[-57.180592,-2.3391277],[-57.1911074,-2.3647945],[-57.2051193,-2.370959],[-57.2178193,-2.39165250000001],[-57.2387244,-2.380205700000058],[-57.2633656,-2.349765299999941],[-57.4061543,-2.380724500000065],[-57.4200501,-2.35818459999995],[-57.4248023,-2.341460399999977],[-57.4425861,-2.341933100000071],[-57.4537255,-2.3301523],[-57.4604474,-2.336239800000043],[-57.4774221,-2.332052600000011],[-57.4963661,-2.345788400000075],[-57.5080594,-2.348323500000034],[-57.5145644,-2.332166699999922],[-57.5272029,-2.320039600000032],[-57.5527036,-2.317148599999954],[-57.5492014,-2.30069449999996],[-57.5606765,-2.287180900000028],[-57.5709629,-2.288497399999955],[-57.5870057,-2.282900899999974],[-57.5979563,-2.270768200000029],[-57.60632,-2.275124699999979],[-57.6141819,-2.265708499999953],[-57.62343160000001,-2.276425599999926],[-57.630764,-2.273881799999961],[-57.6513516,-2.277419900000036],[-57.657541,-2.268714800000041],[-57.6582418,-2.246291900000058],[-57.6639084,-2.2405458],[-57.713802,-2.22440119999998],[-57.7175194,-2.2150884],[-57.7263843,-2.211842499999925],[-57.7303873,-2.2052907],[-57.752883,-2.209781200000058],[-57.7716612,-2.194508299999942],[-57.8058039,-2.153843200000024],[-57.82285790000001,-2.124843299999957],[-57.8244173,-2.109000700000072],[-57.8205265,-2.101528899999931],[-57.8308373,-2.086434600000068],[-57.8414996,-2.090631400000059],[-57.8571409,-2.082966599999934],[-57.859979,-2.066753299999978],[-57.8740846,-2.04932269999996],[-57.9079797,-2.058444900000048],[-57.9230905,-2.036037600000059],[-57.9324315,-2.031884400000016],[-57.9405169,-2.035940900000087],[-57.9479242,-2.0302586],[-57.9512044,-2.0229165],[-57.9471242,-2.015743100000059],[-57.9488769,-2.00825859999998],[-57.9580629,-2.008074800000089],[-57.9613988,-2.000703899999963],[-57.9510965,-1.984685799999924],[-57.95651130000001,-1.933074100000041],[-57.9597346,-1.92343830000002],[-57.9790147,-1.911918599999961],[-57.9804854,-1.902242],[-57.9869587,-1.89521810000001],[-57.9862942,-1.87218629999997],[-57.9798138,-1.864197],[-57.98009230000001,-1.847696500000015],[-57.97551,-1.836624400000046],[-57.9952855,-1.829998],[-57.9979605,-1.819516200000017],[-57.99332,-1.805550199999987],[-57.9949516,-1.79620919999996],[-58.0060167,-1.783644200000019],[-58.0077097,-1.747461700000058],[-58.0197107,-1.693540800000021],[-58.0361597,-1.689139299999989],[-58.0529642,-1.67547269999997],[-58.0490218,-1.663718400000082],[-58.0521321,-1.654889500000027],[-58.0694951,-1.6541222],[-58.0888489,-1.644239999999886],[-58.0924597,-1.6291574],[-58.1069948,-1.61748430000002],[-58.1287459,-1.613740900000071],[-58.140214,-1.61868749999996],[-58.1533051,-1.607647399999892],[-58.1600002,-1.590268900000014],[-58.1759965,-1.575976600000057],[-58.1865303,-1.559140399999912],[-58.1949184,-1.5555808],[-58.2267259,-1.556852],[-58.2362813,-1.540137],[-58.2514205,-1.543192099999879],[-58.25056090000001,-1.5265902999999],[-58.2737581,-1.486445500000056],[-58.2743363,-1.4782431],[-58.2673954,-1.471169700000109],[-58.2655904,-1.458043099999934],[-58.2909747,-1.437746],[-58.2853069,-1.4245097],[-58.2953675,-1.413765600000071],[-58.2797575,-1.387739599999967],[-58.2791713,-1.371533699999907],[-58.28364280000001,-1.364519399999882],[-58.295532,-1.364118400000137],[-58.3052011,-1.3542885000001],[-58.32145580000001,-1.348983099999925],[-58.3338947,-1.31980660000014],[-58.3416212,-1.318115800000089],[-58.3490589,-1.321951499999956],[-58.3517613,-1.304588900000087],[-58.3638204,-1.289182600000084],[-58.3579264,-1.283638799999988],[-58.360815,-1.276059300000036],[-58.3688403,-1.277380199999977],[-58.37606190000001,-1.269953900000091],[-58.3713994,-1.259801100000124],[-58.3729582,-1.25103189999997],[-58.3658424,-1.242133799999948],[-58.364895,-1.227643500000119],[-58.3703964,-1.212484599999876],[-58.3639547,-1.207796000000112],[-58.3689004,-1.192756199999873],[-58.3777063,-1.193625800000056],[-58.3866767,-1.183747700000066],[-58.3864543,-1.173683199999891],[-58.3980659,-1.169193400000049],[-58.4053436,-1.174273700000072],[-58.4184886,-1.173587499999889],[-58.4246823,-1.187375799999919],[-58.4349864,-1.185680399999928],[-58.4337297,-1.169991900000052],[-58.4404897,-1.164673200000099],[-58.4537663,-1.174497],[-58.483848,-1.172645600000049],[-58.5025443,-1.16661110000015],[-58.5065141,-1.14105260000001],[-58.514794,-1.133169],[-58.5226222,-1.112526700000094],[-58.5157672,-1.106299399999944],[-58.5250211,-1.075305699999906],[-58.5161874,-1.068666200000086],[-58.5201038,-1.061276800000134],[-58.5184592,-1.048521399999924],[-58.5274338,-1.028852100000072],[-58.5391907,-1.019045799999841],[-58.5349353,-1.008494],[-58.5503598,-0.992082000000174],[-58.5757687,-1.006822100000128],[-58.6079661,-0.997464800000055],[-58.6177478,-0.988536000000141],[-58.6003334,-0.939338500000168],[-58.623248,-0.928959099999808],[-58.6362195,-0.905872499999813],[-58.6672235,-0.904559800000179],[-58.6791425,-0.873602199999913],[-58.6956932,-0.86113239999994],[-58.6979463,-0.852253400000057],[-58.71680880000001,-0.832264699999872],[-58.7417214,-0.830477300000019],[-58.7475597,-0.822476099999956],[-58.7228938,-0.811752199999955],[-58.7435633,-0.792097499999853],[-58.7390837,-0.772013400000069],[-58.755335,-0.728975100000217],[-58.7722015,-0.72303619999982],[-58.7610068,-0.704924],[-58.7426129,-0.701813700000089],[-58.7558872,-0.6890926],[-58.7529703,-0.664381400000167],[-58.784617,-0.631391799999914],[-58.7883364,-0.621691400000136],[-58.8013061,-0.608514199999876],[-58.8024503,-0.601031500000233],[-58.8178088,-0.585516100000102],[-58.8211771,-0.563353700000201],[-58.8352605,-0.547697300000124],[-58.84376970000001,-0.498449100000039],[-58.8530305,-0.500479600000028],[-58.85353580000001,-0.49134099999975],[-58.8478415,-0.481756299999928],[-58.8813717,-0.457411299999702],[-58.8956795,-0.453256600000329],[-58.9070074,-0.455518700000391],[-58.9180628,-0.448104700000391],[-58.9336213,-0.431803900000203],[-58.9414861,-0.410145100000199],[-58.9488784,-0.405483300000381],[-58.9461179,-0.389086000000104],[-58.9583742,-0.378626599999853],[-58.9426484,-0.354973599999925],[-58.9110925,-0.326444600000546],[-58.9158949,-0.31876459999983],[-58.8956802,-0.294084300000354],[-58.9355684,-0.274387799999697],[-58.94512370000001,-0.264832400000451],[-58.9384315,-0.242074799999655],[-58.94468,-0.233684299999307],[-58.924622,-0.214470700000625],[-58.9310155,-0.206144200000311],[-58.9283443,-0.198566599999419],[-58.9330677,-0.189338000000156],[-58.9277329,-0.155794600000467],[-58.9167918,-0.165085900000558],[-58.907207,-0.162861799999123],[-58.897507,-0.170424000000291],[-58.8890937,-0.160774800001045],[-58.8860645,-0.093345500001595],[-58.8937091,-0.086524299999286],[-58.9020683,-0.064761000001917],[-58.9125706,-0.055785599999846],[-58.9121837,-0.04803579999966],[-58.9018701,-0.047685100003665],[-58.8991467,-0.037493500000207],[-58.9012935,-0.006568299976809],[-58.9129258,0.000378799674992],[-58.94540270000001,0.001824799954812],[-58.9715188,0.015749100008984],[-58.9815169,0.003814000003786],[-58.9945696,0.017105299998316],[-58.9931865,0.025784900006044],[-59.0012363,0.042692099996171],[-59.00901660000001,0.041878899996295],[-59.01401890000001,0.048570500000971],[-59.0226258,0.050739199998133],[-59.0387432,0.047665999998062],[-59.0465161,0.081299700000303],[-59.0309589,0.086814099999483],[-59.0301237,0.094951800000243],[-59.0456839,0.103812200001108],[-59.0490226,0.12714189999866],[-59.0656847,0.122708299999728],[-59.0695768,0.130481699998933],[-59.0779046,0.132381599998707],[-59.0923493,0.126322600001409],[-59.099573,0.132379800000206],[-59.0956848,0.13988509999933],[-59.097628,0.148291699999402],[-59.1101338,0.157148699999077],[-59.1267993,0.192680699999102],[-59.1337432,0.189335100000569],[-59.13791169999999,0.196296400000607],[-59.1267943,0.21103509999931],[-59.1270763,0.219082200000808],[-59.1343002,0.222968200000094],[-59.1801354,0.225491999999476],[-59.1898587,0.232453199999349],[-59.1851364,0.242668500000353],[-59.1937448,0.246555900000135],[-59.1922774,0.263529200000056],[-58.8954648,0.263510300000076],[-58.8950359,-0.010962900010491],[-58.8983284,-0.017913600010021],[-58.8867237,-0.034321499994774],[-58.8865816,-0.059183899997826],[-58.8805652,-0.064501700002434],[-58.8720851,-0.064492599998571],[-58.8638839,-0.078029800000583],[-58.863391,-0.087085000001962],[-58.8668112,-0.137882299999228],[-58.8630972,-0.160936000000751],[-58.881038,-0.196579399999673],[-58.8793146,-0.22933689999961],[-58.8717622,-0.261086800000298],[-58.8653947,-0.265548799999467],[-58.8749835,-0.295823400000481],[-58.8730952,-0.343721100000466],[-58.8433372,-0.37020480000013],[-58.82423150000001,-0.374797900000116],[-58.8174883,-0.381638599999536],[-58.8126996,-0.377289900000304],[-58.7965746,-0.38999420000001],[-58.793203,-0.3852056000002],[-58.7834791,-0.388967999999525],[-58.7780064,-0.396981499999906],[-58.7719473,-0.396834900000224],[-58.7739995,-0.399668900000351],[-58.76207680000001,-0.412764099999809],[-58.7536233,-0.418334400000012],[-58.751229,-0.414572],[-58.7421404,-0.41852990000031],[-58.7400881,-0.431576100000351],[-58.7304131,-0.432797699999866],[-58.7252824,-0.438319100000273],[-58.7254778,-0.452538099999849],[-58.736521,-0.471740899999897],[-58.725429,-0.499592199999859],[-58.709988,-0.517035899999865],[-58.7090596,-0.533404600000036],[-58.7123823,-0.537215800000093],[-58.7090107,-0.545864299999742],[-58.7107698,-0.550066399999679],[-58.7155585,-0.548747099999902],[-58.7223505,-0.562623800000101],[-58.7297778,-0.563552099999989],[-58.7318301,-0.57918779999985],[-58.7266505,-0.59062129999972],[-58.7309017,-0.593992699999919],[-58.7305108,-0.601566199999764],[-58.7269926,-0.60166390000019],[-58.7306085,-0.604791],[-58.7256733,-0.608406699999982],[-58.7347131,-0.611338399999941],[-58.7310972,-0.6162245],[-58.7378403,-0.617836899999829],[-58.7292403,-0.6196447],[-58.7329051,-0.62257640000007],[-58.7292892,-0.62311390000029],[-58.7319767,-0.6291237],[-58.7289471,-0.635426800000156],[-58.71814830000001,-0.636110799999757],[-58.7172687,-0.647690799999983],[-58.7126755,-0.644612600000126],[-58.7081312,-0.651990499999901],[-58.7138482,-0.652576900000108],[-58.7065187,-0.660492299999884],[-58.7086198,-0.6703132000002],[-58.7029516,-0.673342600000042],[-58.7075937,-0.6784729],[-58.7017789,-0.684189599999757],[-58.6936675,-0.681893100000165],[-58.6924459,-0.6878541],[-58.6885857,-0.686046299999739],[-58.6744641,-0.69503649999977],[-58.67490380000001,-0.700655500000191],[-58.6656197,-0.705541499999788],[-58.663714,-0.717609899999876],[-58.6447549,-0.714922599999953],[-58.6340537,-0.719173400000256],[-58.627848,-0.73368480000021],[-58.6213492,-0.736665200000028],[-58.6233526,-0.745753100000242],[-58.6147037,-0.749368700000167],[-58.6128469,-0.75831],[-58.5974548,-0.762902800000056],[-58.60136390000001,-0.76544349999984],[-58.592715,-0.764954900000121],[-58.5875843,-0.772381499999945],[-58.5899298,-0.77668110000018],[-58.584115,-0.776974300000069],[-58.5805968,-0.786697299999851],[-58.5730718,-0.7818114],[-58.57390250000001,-0.795638499999818],[-58.5690161,-0.792658100000222],[-58.5602206,-0.797739400000137],[-58.5559695,-0.813716299999853],[-58.5513274,-0.808048699999901],[-58.5531354,-0.81229939999992],[-58.5440467,-0.809465600000074],[-58.5431672,-0.814644599999916],[-58.5337364,-0.816647800000215],[-58.5337853,-0.830328299999819],[-58.5200057,-0.826761599999959],[-58.5222535,-0.8314031000002],[-58.5159012,-0.834579000000172],[-58.5194194,-0.83624010000021],[-58.5112591,-0.84127259999993],[-58.5096466,-0.832380299999791],[-58.5057864,-0.83785249999985],[-58.5027568,-0.83106109999985],[-58.4996295,-0.838683099999954],[-58.4983102,-0.833650600000135],[-58.4895147,-0.832673500000177],[-58.4936682,-0.840784],[-58.4887818,-0.839855699999912],[-58.4895636,-0.843959799999813],[-58.4955739,-0.844985800000034],[-58.4948409,-0.849725100000103],[-58.4877068,-0.851386300000093],[-58.489075,-0.859789900000184],[-58.48155,-0.856662999999877],[-58.4706045,-0.872688499999938],[-58.4664511,-0.869952399999936],[-58.4669397,-0.86418710000017],[-58.4605874,-0.862868],[-58.4400035,-0.8742031],[-58.4428865,-0.878356],[-58.4352149,-0.884072400000139],[-58.4349706,-0.893892799999889],[-58.4546627,-0.899462600000044],[-58.4530013,-0.903566600000023],[-58.444157,-0.902882599999963],[-58.4501183,-0.911237299999976],[-58.4490433,-0.935421699999901],[-58.4389774,-0.940747100000088],[-58.4266637,-0.961511400000079],[-58.413666,-0.96888880000014],[-58.410441,-0.980516600000063],[-58.424074,-0.990971899999954],[-58.4261751,-1.007119],[-58.4198228,-1.012542],[-58.4258819,-1.013861100000047],[-58.4289115,-1.028615599999896],[-58.4119558,-1.047767100000045],[-58.4060921,-1.039999000000126],[-58.3994466,-1.044151700000168],[-58.3910909,-1.041367],[-58.3893318,-1.049770099999924],[-58.3637272,-1.071119900000156],[-58.3653397,-1.085141400000051],[-58.3604045,-1.095694],[-58.3541011,-1.096866499999876],[-58.3583034,-1.107712299999878],[-58.3355817,-1.115675600000054],[-58.3325033,-1.130429600000051],[-58.3195544,-1.134191400000155],[-58.3212646,-1.14562319999985],[-58.3167203,-1.147675100000095],[-58.2929725,-1.13883249999988],[-58.2742088,-1.141568299999913],[-58.26771,-1.133995899999861],[-58.2558849,-1.130820400000118],[-58.2419588,-1.144743799999845],[-58.2429849,-1.157543600000032],[-58.2349712,-1.152511599999897],[-58.231844,-1.160230499999886],[-58.219286,-1.16868220000002],[-58.2052132,-1.169317299999913],[-58.2061905,-1.186367199999952],[-58.2023302,-1.18622059999997],[-58.2028677,-1.180700200000147],[-58.1979814,-1.18079789999989],[-58.195587,-1.195747],[-58.1895279,-1.203319199999941],[-58.177312,-1.208009099999865],[-58.17482,-1.212405799999859],[-58.1786802,-1.214457600000035],[-58.1630438,-1.230139300000089],[-58.154004,-1.232679699999875],[-58.1450131,-1.208644200000037],[-58.1376346,-1.205029],[-58.1322108,-1.194721099999898],[-58.1259073,-1.19628429999991],[-58.1262005,-1.191496699999904],[-58.1181869,-1.188272400000159],[-58.1236107,-1.164138799999985],[-58.0997164,-1.15832519999997],[-58.0928266,-1.161598399999898],[-58.0788027,-1.145867500000123],[-58.0795845,-1.126619],[-58.0747958,-1.126570099999854],[-58.0586708,-1.106539799999885],[-58.0504617,-1.110643599999983],[-58.0333105,-1.097990199999896],[-58.0299878,-1.10233830000009],[-58.0173321,-1.103608499999899],[-58.0095139,-1.115968700000137],[-58.0141071,-1.131064700000146],[-58.011615,-1.136438699999931],[-58.0012559,-1.148114799999977],[-57.9761888,-1.153830699999858],[-57.9657808,-1.1693173],[-57.975749,-1.1929135],[-57.9647058,-1.201951299999948],[-57.9641683,-1.215288100000127],[-57.9586956,-1.2225183],[-57.9650479,-1.231653799999883],[-57.9719865,-1.22906459999986],[-57.9751627,-1.239812099999932],[-57.9723286,-1.245820899999892],[-57.9831274,-1.281727099999925],[-57.9948547,-1.291350799999932],[-57.9869877,-1.304174199999934],[-57.998715,-1.3312865],[-57.9891377,-1.353464499999921],[-57.9689081,-1.358642600000065],[-57.9735501,-1.364895399999973],[-57.973257,-1.374763100000013],[-57.95431,-1.379770199999899],[-57.9533816,-1.385827499999935],[-57.9597339,-1.396867500000104],[-57.9578771,-1.40346209999993],[-57.9495703,-1.405611500000037],[-57.9372566,-1.398577199999914],[-57.9114565,-1.404732199999879],[-57.9088668,-1.41034979999998],[-57.9163918,-1.42109649999997],[-57.9096486,-1.428619199999959],[-57.9021724,-1.42568829999991],[-57.8862428,-1.434139099999961],[-57.8771053,-1.42334360000012],[-57.8651826,-1.429303099999919],[-57.85795070000001,-1.426225699999925],[-57.8445621,-1.430426600000026],[-57.8386984,-1.437314300000045],[-57.8228177,-1.438682],[-57.8194949,-1.450747499999947],[-57.8103574,-1.453825],[-57.8108705,-1.467355800000057],[-57.8019284,-1.471263599999956],[-57.7953318,-1.487236800000088],[-57.7881488,-1.490680499999976],[-57.7761772,-1.484428],[-57.771584,-1.486968099999987],[-57.7785227,-1.493367100000036],[-57.77998860000001,-1.510023900000014],[-57.7704602,-1.509730799999956],[-57.7580488,-1.502208400000014],[-57.7498397,-1.509242400000096],[-57.7418749,-1.50220839999997],[-57.7287305,-1.513638599999888],[-57.7176873,-1.503283],[-57.712068,-1.503331900000122],[-57.7097714,-1.5353264],[-57.697702,-1.5585282],[-57.7061555,-1.572449199999989],[-57.7036146,-1.577040600000031],[-57.6924736,-1.576308],[-57.6888088,-1.587005100000045],[-57.6804043,-1.589447300000087],[-57.6784009,-1.594673700000062],[-57.6634974,-1.589838100000033],[-57.6592463,-1.580508700000077],[-57.6503531,-1.590033399999945],[-57.6346189,-1.589789200000046],[-57.6288041,-1.584220900000029],[-57.6219144,-1.589154199999937],[-57.6094541,-1.5838790000001],[-57.6081348,-1.572888800000048],[-57.6007075,-1.572156099999903],[-57.5880518,-1.580606300000035],[-57.5977268,-1.595943700000098],[-57.5950882,-1.600193200000083],[-57.5849734,-1.596774],[-57.5794518,-1.60439379999998],[-57.570021,-1.602195799999894],[-57.5633756,-1.6068849],[-57.5531631,-1.606787200000069],[-57.5440744,-1.611134299999889],[-57.5393835,-1.62603180000009],[-57.5218414,-1.62920670000011],[-57.521988,-1.63731479999996],[-57.5288289,-1.647767300000065],[-57.5258971,-1.655338100000046],[-57.5193493,-1.655240399999968],[-57.5179323,-1.649525700000046],[-57.5060095,-1.641906099999958],[-57.4991686,-1.65470310000006],[-57.4898845,-1.659294400000019],[-57.4781572,-1.658268699999986],[-57.4795254,-1.665350900000074],[-57.4730754,-1.678880400000034],[-57.4396525,-1.665057900000085],[-57.4341309,-1.675412599999911],[-57.4405321,-1.687086],[-57.4356457,-1.691188800000037],[-57.4236252,-1.692605200000049],[-57.417615,-1.674289200000083],[-57.4024672,-1.676633699999912],[-57.4003172,-1.6922633],[-57.3857558,-1.6976848],[-57.3907644,-1.708723099999899],[-57.3990223,-1.713851599999937],[-57.3923769,-1.724792100000027],[-57.3729291,-1.714242299999914],[-57.351429,-1.736709399999972],[-57.3429267,-1.7268923],[-57.3445881,-1.715023800000073],[-57.3319324,-1.7156587],[-57.3048619,-1.732753300000031],[-57.292255,-1.708283599999962],[-57.2743709,-1.711946700000016],[-57.2704129,-1.720835899999975],[-57.2636209,-1.722203499999984],[-57.2581481,-1.711702499999987],[-57.2613731,-1.701836399999989],[-57.2586368,-1.696854500000106],[-57.2430492,-1.703252799999949],[-57.2471538,-1.720835899999892],[-57.2308333,-1.727527200000107],[-57.2040071,-1.711214100000073],[-57.1996094,-1.722740800000051],[-57.2006844,-1.735293],[-57.1880286,-1.7195172],[-57.1736627,-1.731727599999957],[-57.1708286,-1.720396399999907],[-57.1667729,-1.718833399999903],[-57.1587104,-1.733388199999962],[-57.1616911,-1.740323699999972],[-57.17234340000001,-1.745598500000081],[-57.1711218,-1.750873400000015],[-57.159199,-1.758053],[-57.164232,-1.768504799999926],[-57.1268512,-1.766013999999897],[-57.11917960000001,-1.7796893],[-57.1190086,-1.78884679999994],[-57.1142199,-1.792558600000057],[-57.1083563,-1.790946899999941],[-57.1008313,-1.780299800000049],[-57.084804,-1.780495100000057],[-57.0792824,-1.802570799999916],[-57.0688255,-1.80442669999992],[-57.0648676,-1.813168899999963],[-57.0609585,-1.8108735],[-57.0597857,-1.818932],[-57.0710732,-1.829578900000062],[-57.0725392,-1.838565200000081],[-57.0658937,-1.848284],[-57.0666755,-1.857123700000039],[-57.0512834,-1.872800699999947],[-57.0447357,-1.8855961],[-57.0464948,-1.8907729],[-57.0407289,-1.893410099999917],[-57.0380902,-1.906693700000058],[-57.0284152,-1.918023799999947],[-56.9883509,-1.907160299999941],[-56.9802092,-1.923664],[-56.9663249,-1.934953199999958],[-56.9611252,-1.952972],[-56.9527706,-1.960230099999962],[-56.9236786,-1.964308700000063],[-56.8973748,-1.976223699999959],[-56.8762985,-1.992348599999936],[-56.85904450000001,-2.015926],[-56.8499562,-2.020171799999966],[-56.7932082,-2.020995300000068],[-56.7669924,-2.008697600000068],[-56.7478836,-2.011502300000048],[-56.738967,-2.017009500000033],[-56.7266021,-2.030960699999936],[-56.7213822,-2.059174399999913],[-56.7327642,-2.091739700000032],[-56.75324229999999,-2.111675100000077],[-56.76942970000001,-2.140672900000058],[-56.7685392,-2.165752],[-56.760959,-2.174058200000041],[-56.7434633,-2.178469499999966],[-56.727723,-2.176804500000012],[-56.7077679,-2.183902],[-56.7025689,-2.201754400000029],[-56.6898514,-2.208940299999979],[-56.6705027,-2.212534600000037],[-56.6354265,-2.203598800000062],[-56.6129132,-2.210171299999939],[-56.6075174,-2.204978],[-56.5977918,-2.174955199999932],[-56.5804098,-2.179405700000048],[-56.569591,-2.1747589],[-56.5270653,-2.139195200000079],[-56.5076277,-2.1437004],[-56.4778933,-2.170376399999961],[-56.4610414,-2.157555899999958],[-56.4441803,-2.153925700000025],[-56.4138828,-2.175949599999947],[-56.3750627,-2.1387777],[-56.367785,-2.137076699999954],[-56.3511484,-2.148869899999986],[-56.3435469,-2.149471699999917],[-56.3167613,-2.140126],[-56.2974569,-2.100807500000034],[-56.2561526,-2.088316100000041],[-56.2283772,-2.0562204],[-56.2076422,-2.059980699999987],[-56.1970688,-2.05692280000009],[-56.1867034,-2.042821299999951],[-56.13848511518627,-2.037720483573126]]]}}]}